<?xml version="1.0" encoding="UTF-8"?>
<kml xmlns="http://www.opengis.net/kml/2.2">
  <Document>
    <name>Cebu Jeepney Route No. 01B</name>
    <description><![CDATA[more cebu jeepneys route maps at cebujeepneys.weebly.com<br><br>Sambag 1 (PRIVATE) - Pier 3&2 via Colon St.<br><br>sambag 1 to ACT <br>sambag 1 to e mall<br>sambag 1 to colon<br>sambag 1 to metro colon<br>sambag 1 to colonnade <br>sambag 1 to gaisano main<br>sambag 1 to UV<br>sambag 1 to t. padilla st.<br>sambag 1 to Pier 4<br>sambag 1 to peir 3<br>sambag 1 to pier 2<br>sambag 1 to cebu-mactan ferry terminal<br>private to colon<br>private to metro colon<br>private to e mall<br>private to t. padilla st.<br>private to pier 4<br>private to pier 3<br>private to cebu-mactan ferry terminal<br>private to pier 2<br>colon to t. padilla st.<br>colon to pier 4<br>colon to pier 3<br>colon to pier 2<br>colon to cebu-mactan ferry terminal<br>t. padilla to pier 4<br>t. padilla to pier 3<br>t. padilla to pier 2<br>t. padilla to ferry terminal<br><br>Pier 2 & 3 to Sambag 1<br><br>Pier 2 to t. padilla st.<br>Pier 2 to sikatuna st.<br>Pier 2 to parian<br>Pier 2 to sanciangko st.<br>Pier 2 to e mall<br>Pier 2 to sambag 1<br>Pier 2 to private<br>Pier 2 to usc- south campus<br>pier 3 to t. padilla st.<br>pier 3 to e mall<br>pier 3 to private]]></description>
    <Style id="line-0000FF-5000-normal">
      <LineStyle>
        <color>ffff0000</color>
        <width>5</width>
      </LineStyle>
    </Style>
    <Style id="line-0000FF-5000-highlight">
      <LineStyle>
        <color>ffff0000</color>
        <width>7.5</width>
      </LineStyle>
    </Style>
    <StyleMap id="line-0000FF-5000">
      <Pair>
        <key>normal</key>
        <styleUrl>#line-0000FF-5000-normal</styleUrl>
      </Pair>
      <Pair>
        <key>highlight</key>
        <styleUrl>#line-0000FF-5000-highlight</styleUrl>
      </Pair>
    </StyleMap>
    <Style id="line-33FF33-5000-normal">
      <LineStyle>
        <color>ff33ff33</color>
        <width>5</width>
      </LineStyle>
    </Style>
    <Style id="line-33FF33-5000-highlight">
      <LineStyle>
        <color>ff33ff33</color>
        <width>7.5</width>
      </LineStyle>
    </Style>
    <StyleMap id="line-33FF33-5000">
      <Pair>
        <key>normal</key>
        <styleUrl>#line-33FF33-5000-normal</styleUrl>
      </Pair>
      <Pair>
        <key>highlight</key>
        <styleUrl>#line-33FF33-5000-highlight</styleUrl>
      </Pair>
    </StyleMap>
    <Folder>
      <name>Untitled layer</name>
      <Placemark>
        <name><![CDATA[Sambag 1 to Pier 3 & 2 via Colon St]]></name>
        <description><![CDATA[more cebu jeepneys route maps at cebujeepneys.weebly.com (http://cebujeepneys.weebly.com)<br>Like us on our Facebook Page (http://facebook.com/cebujeepneysroutemap)<br><br> <br>Sambag 1 to Pier 3 & 2 via Colon St.<br>(PRIVATE TO COLON) <br><br> <br>sambag 1 - University of San Carlos (South Campus) - Private - J. Alcantara St. - Asian College of Technology - E Mall - Leaon Kilat St. - Gaisano Capital South - Colon St. - Metro Colon - Colonnade Mall - University of the Visayas - Gaisano Main - Colon Obelisk - Mabini St. - Sandiego-Yap Ancestral House - Brgy. Parian - A. Bonifacio St. - D. Jakosalem St. - P. del Rosario St. - T. Padilla St. - Pier 4 - Sergio Osmena Blvd. - V. Sotto St. - Pier 3 - Cebu Mactan Ferry Terminal - C. Arellano Blvd. - Pier 2.]]></description>
        <styleUrl>#line-0000FF-5000</styleUrl>
        <LineString>
          <tessellate>1</tessellate>
          <coordinates>
            123.887742,10.298484,0
            123.888262,10.298912,0
            123.888721,10.299297,0
            123.888949,10.29946,0
            123.889378,10.299616,0
            123.889705,10.299759,0
            123.88996,10.299864,0
            123.890437,10.300038,0
            123.890743,10.300104,0
            123.891242,10.300015,0
            123.891593,10.29987,0
            123.89206,10.299724,0
            123.892776,10.299495,0
            123.893364,10.29931,0
            123.893884,10.299189,0
            123.894737,10.299036,0
            123.895255,10.298943,0
            123.895378,10.298906,0
            123.895501,10.298832,0
            123.895555,10.298772,0
            123.895622,10.298563,0
            123.895732,10.29813,0
            123.895955,10.297312,0
            123.896132,10.296658,0
            123.896456,10.295489,0
            123.896537,10.295447,0
            123.897226,10.295716,0
            123.897752,10.295959,0
            123.898108,10.296133,0
            123.898253,10.296244,0
            123.899058,10.296729,0
            123.899731,10.297149,0
            123.900353,10.297502,0
            123.900635,10.297642,0
            123.901147,10.297698,0
            123.901574,10.297724,0
            123.902084,10.297745,0
            123.903274,10.297909,0
            123.903736,10.297954,0
            123.90376,10.298004,0
            123.903733,10.298376,0
            123.903757,10.298772,0
            123.903795,10.299054,0
            123.90391,10.299503,0
            123.903771,10.300313,0
            123.902987,10.300392,0
            123.902577,10.300397,0
            123.902121,10.300286,0
            123.90159,10.300133,0
            123.901357,10.300685,0
            123.901273,10.300843,0
            123.901067,10.301102,0
            123.900901,10.301371,0
            123.900818,10.301638,0
            123.901558,10.301843,0
            123.90199,10.301952,0
            123.902046,10.301989,0
            123.902129,10.301999,0
            123.902191,10.30202,0
            123.902411,10.301659,0
            123.902564,10.301667,0
            123.903843,10.301751,0
            123.905283,10.301822,0
            123.906316,10.301886,0
            123.906574,10.301894,0
            123.907367,10.301965,0
            123.908255,10.301936,0
            123.908977,10.301902,0
            123.909599,10.301872,0
            123.90991,10.301836,0
            123.910039,10.301807,0
            123.910146,10.301756,0
            123.910262,10.30168,0
            123.909913,10.301223,0
            123.909591,10.30064,0
            123.90917,10.299875,0
            123.908703,10.299025,0
            123.908403,10.298487,0
            123.908813,10.29832,0
            123.909521,10.298022,0
            123.909154,10.297323,0
            123.908741,10.296552,0
            123.908261,10.295724,0
          </coordinates>
        </LineString>
      </Placemark>
      <Placemark>
        <name><![CDATA[Pier 2 & 3 to Sambag 1]]></name>
        <description><![CDATA[more cebu jeepneys route maps at cebujeepneys.weebly.com (http://cebujeepneys.weebly.com)<br>Like us on our Facebook Page (http://facebook.com/cebujeepneysroutemap)<br><br> <br>Pier 2 & 3 to Sambag 1 (PRIVATE) - <br><br> <br>Pier 2 - C. Arellano St. - Pier 3 - Cebu-Mactan Ferry Terminal - V. Sotto St. - Sergio Osmena Blvd. - Pier 4 - T. Padilla St. - Sikatuna St. - Brgy. Parian - J.C. Zamora St. - Sanciangko St. - University of the Visayas - Sogo Hotel - GV Tower Hotel - University of Cebu (Main Campus) - Leon Kilat St. - E Mall - Asian College of Technology - J. Alcantara St. - Private - University of San Carlos (South Campus) - Sambag 1.]]></description>
        <styleUrl>#line-33FF33-5000</styleUrl>
        <LineString>
          <tessellate>1</tessellate>
          <coordinates>
            123.90828,10.29571,0
            123.90957,10.29803,0
            123.90859,10.29843,0
            123.90984,10.30084,0
            123.91037,10.30159,0
            123.91005,10.30183,0
            123.90849,10.30196,0
            123.90734,10.30199,0
            123.90243,10.30168,0
            123.90242,10.30162,0
            123.90287,10.30069,0
            123.90319,10.29979,0
            123.9033,10.29911,0
            123.903369,10.298954,0
            123.903197,10.298927,0
            123.902993,10.298948,0
            123.901818,10.299012,0
            123.901684,10.299265,0
            123.901003,10.299212,0
            123.899952,10.298943,0
            123.898948,10.298505,0
            123.898637,10.298378,0
            123.8983,10.29819,0
            123.8974,10.29771,0
            123.89599,10.29732,0
            123.8956,10.29875,0
            123.89542,10.29892,0
            123.89344,10.29931,0
            123.8913,10.30003,0
            123.89074,10.30013,0
            123.88995,10.29989,0
            123.88891,10.29947,0
            123.88772,10.29851,0
          </coordinates>
        </LineString>
      </Placemark>
    </Folder>
  </Document>
</kml>
