<?xml version="1.0" encoding="UTF-8"?>
<kml xmlns="http://www.opengis.net/kml/2.2">
  <Document>
    <name>Cebu Jeepney Route No. 01K</name>
    <description><![CDATA[more  cebu jeepneys  route map at cebujeepneys.weebly.com<br><br>Urgello to Parkmall<br><br>urgello to  e mall<br>urgello to colon<br>urgello to metro colon<br>urgello to nso<br>urgello to white gold<br>urgello to sm city cebu<br>urgello to sm hypermarket<br>urgello to north bus terminal<br>urgello to mo2<br>urgello to cebu doctors university <br>urgello to parkmall<br>colon to nso<br>colon to cpils<br>colon to white gold club<br>colon to sm city cebu<br>colon to sm hypermarket(makro) <br>colon to north bus terminal<br>colon to cebu doctors university <br>colon to cicc<br>colon to parkmall<br>sm to north bus terminal<br>sm to cebu doctors university <br>sm to cicc<br>sm to s&r supermarket<br>sm to cebu doctors university<br>sm to parkmall<br>north bus to s&r shopping<br>north bus to cebu doctors university<br>north bus to cicc<br>north bus  to parkmall<br><br>Parkmall to Urgello<br><br>parkmall to MO2<br>parkmall to  north bus terminal<br>parkmall to sm city cebu<br>parkmall to white gold club<br>parkmall to t. padilla st.<br>parkmall to nso<br>parkmall to CTU<br>visit cebujeepneys.weebly.com for more details]]></description>
    <Style id="line-3333FF-5000-normal">
      <LineStyle>
        <color>ffff3333</color>
        <width>5</width>
      </LineStyle>
    </Style>
    <Style id="line-3333FF-5000-highlight">
      <LineStyle>
        <color>ffff3333</color>
        <width>7.5</width>
      </LineStyle>
    </Style>
    <StyleMap id="line-3333FF-5000">
      <Pair>
        <key>normal</key>
        <styleUrl>#line-3333FF-5000-normal</styleUrl>
      </Pair>
      <Pair>
        <key>highlight</key>
        <styleUrl>#line-3333FF-5000-highlight</styleUrl>
      </Pair>
    </StyleMap>
    <Style id="line-33FF33-5000-normal">
      <LineStyle>
        <color>ff33ff33</color>
        <width>5</width>
      </LineStyle>
    </Style>
    <Style id="line-33FF33-5000-highlight">
      <LineStyle>
        <color>ff33ff33</color>
        <width>7.5</width>
      </LineStyle>
    </Style>
    <StyleMap id="line-33FF33-5000">
      <Pair>
        <key>normal</key>
        <styleUrl>#line-33FF33-5000-normal</styleUrl>
      </Pair>
      <Pair>
        <key>highlight</key>
        <styleUrl>#line-33FF33-5000-highlight</styleUrl>
      </Pair>
    </StyleMap>
    <Folder>
      <name>Untitled layer</name>
      <Placemark>
        <name>Urgello st. - Parkmall</name>
        <description><![CDATA[more cebu jeepneys route maps at cebujeepneys.weebly.com (http://cebujeepneys.weebly.com)<br>Like us on our Facebook Page. (http://www.facebook.com/cebujeepneysroutemap)<br><br> Urgello St. to Parkmall<br><br> Urgello St. - Sacred Heart Hospital - South Western University - E. Mall - L. Kilat St. - Colon St. Metro Gaisano (colon) - Collonade Supermarket - University of the Visayas - Gaisano Main - Brgy. Parian - Zulueta St. - MJ. Cuenco Ave. - NSO - General Maxilom Ave. - A. Soriano Ave. - SM - SM Hypermarket - North Bus Terminal - EO Perez St. - S&R Membership Shopping - Cebu Doctors University - Cebu International Convention Center - Parkmall.]]></description>
        <styleUrl>#line-3333FF-5000</styleUrl>
        <LineString>
          <tessellate>1</tessellate>
          <coordinates>
            123.89248,10.30469,0
            123.89275,10.30388,0
            123.89295,10.3035,0
            123.89314,10.30204,0
            123.89361,10.30049,0
            123.89393,10.2998,0
            123.89399,10.29959,0
            123.89399,10.29919,0
            123.8952,10.29898,0
            123.89546,10.2989,0
            123.89555,10.2988,0
            123.89608,10.2973,0
            123.89659,10.29547,0
            123.89807,10.29611,0
            123.89982,10.29722,0
            123.90061,10.29766,0
            123.90207,10.29776,0
            123.90376,10.29795,0
            123.90373,10.29839,0
            123.90384,10.2988,0
            123.90611,10.29836,0
            123.90645,10.30029,0
            123.90659,10.30131,0
            123.9066,10.30191,0
            123.9065,10.30286,0
            123.90608,10.30572,0
            123.90612,10.30634,0
            123.90628,10.30696,0
            123.90648,10.30743,0
            123.90703,10.30838,0
            123.90719,10.30851,0
            123.90743,10.30852,0
            123.9099,10.30706,0
            123.91625,10.31229,0
            123.91633,10.31242,0
            123.91764,10.31353,0
            123.91787,10.31364,0
            123.91803,10.31386,0
            123.918673,10.314323,0
            123.919011,10.314302,0
            123.91978,10.31418,0
            123.920202,10.314038,0
            123.920556,10.313869,0
            123.920808,10.313626,0
            123.9216,10.31284,0
            123.92248,10.31365,0
            123.923555,10.314856,0
            123.924086,10.315516,0
            123.92454,10.31616,0
            123.924891,10.316687,0
            123.92515,10.31729,0
            123.92547,10.31806,0
            123.925695,10.318788,0
            123.925915,10.31945,0
            123.926012,10.319751,0
            123.92606,10.320163,0
            123.926063,10.320448,0
            123.926505,10.32063,0
            123.927117,10.320706,0
            123.927527,10.320614,0
            123.928477,10.320239,0
            123.929139,10.319941,0
            123.93055,10.319411,0
            123.930856,10.319265,0
            123.931545,10.318891,0
            123.931679,10.318965,0
            123.932428,10.319804,0
            123.933235,10.320664,0
            123.933941,10.321398,0
            123.935295,10.322823,0
            123.935113,10.32306,0
            123.934933,10.323305,0
            123.934654,10.323641,0
            123.935287,10.324184,0
            123.936151,10.324868,0
            123.935595,10.32557,0
            123.935118,10.326163,0
            123.9347,10.326694,0
            123.934574,10.326765,0
            123.933595,10.326008,0
            123.932481,10.32511,0
            123.932575,10.32501,0
            123.932776,10.324952,0
            123.932849,10.325031,0
          </coordinates>
        </LineString>
      </Placemark>
      <Placemark>
        <name>From Parkmall to Urgello St.</name>
        <description><![CDATA[more cebu jeepneys route maps at cebujeepneys.weebly.com (http://cebujeepneys.weebly.com)<br>Like us on our Facebook Page. (http://www.facebook.com/cebujeepneysroutemap)<br><br>Parkmall to Urgello<br><br> <br>Parkmall - MO2 - North Bus Terminal - Sm Hypermarket - Sm City Cebu - White Gold Club - Queen City Memorial Garden - White Gold House - T. Padilla St.  - NSO - CTU - V. Gullas St. - Manalili St. - Legaspi St. - Collonade Supermarket - Pelaez St. - Sancianko St. - Sogo HOtel - GV Tower Hotel - E.Mall - Urgello St. - South Western University - Sacred Heart Hospital.]]></description>
        <styleUrl>#line-33FF33-5000</styleUrl>
        <LineString>
          <tessellate>1</tessellate>
          <coordinates>
            123.93293,10.325,0
            123.93283,10.32482,0
            123.93241,10.32502,0
            123.93182,10.32435,0
            123.93142,10.32384,0
            123.93027,10.32213,0
            123.92909,10.32016,0
            123.92784,10.32067,0
            123.92714,10.32082,0
            123.92682,10.32082,0
            123.92603,10.3206,0
            123.92595,10.31978,0
            123.92586,10.31944,0
            123.92533,10.31784,0
            123.925068,10.317241,0
            123.924767,10.31664,0
            123.924172,10.315732,0
            123.92349,10.31489,0
            123.92249,10.31375,0
            123.92159,10.3129,0
            123.92095,10.31361,0
            123.92035,10.31404,0
            123.92015,10.31413,0
            123.91907,10.31436,0
            123.91865,10.31439,0
            123.91798,10.31389,0
            123.91784,10.3137,0
            123.91761,10.31357,0
            123.91616,10.31235,0
            123.9145,10.31106,0
            123.90988,10.3072,0
            123.90993,10.30702,0
            123.91037,10.30647,0
            123.9099,10.30609,0
            123.90943,10.30551,0
            123.90921,10.30487,0
            123.90976,10.30447,0
            123.90911,10.30254,0
            123.90903,10.30221,0
            123.90905,10.30192,0
            123.90736,10.30197,0
            123.90657,10.30191,0
            123.90656,10.30131,0
            123.90642,10.30027,0
            123.90594,10.29758,0
            123.90569,10.29648,0
            123.90486,10.29689,0
            123.90417,10.29715,0
            123.90385,10.29719,0
            123.90216,10.29691,0
            123.90136,10.29685,0
            123.90075,10.29662,0
            123.90017,10.29634,0
            123.90007,10.29625,0
            123.89907,10.29676,0
            123.89836,10.29817,0
            123.89751,10.29772,0
            123.89611,10.2973,0
            123.89568,10.29862,0
            123.89548,10.29892,0
            123.89526,10.299,0
            123.89402,10.2992,0
            123.89398,10.29978,0
            123.89355,10.30073,0
            123.89309,10.30249,0
            123.89297,10.30351,0
            123.89338,10.30356,0
            123.89325,10.30423,0
            123.89295,10.30489,0
            123.89245,10.30469,0
          </coordinates>
        </LineString>
      </Placemark>
    </Folder>
  </Document>
</kml>
