<?xml version="1.0" encoding="UTF-8"?>
<kml xmlns="http://www.opengis.net/kml/2.2">
  <Document>
    <name>Cebu Jeepney Route No. 02B</name>
    <description><![CDATA[South Bus Terminal to Pier<br><br>south terminal to colon<br>south terminal to plaza independencia<br>south bus terminal to pier 1 <br>south bus terminal to pier 2 <br>south bus terminal to pier 3<br>south bus terminal to Ferry boat terminal<br>south bus termnal to pier 4 <br>south bus terminal to pier 5<br>colon to plaza independendia <br>colon to fort san pedro <br>colon to pier 1<br>colon to pier 2<br>colon to pier 3 <br>colon to pier 4<br>colon to pier 4<br>colon to ferry boat terminal<br><br>Pier to Cebu South Bus Terminal<br><br>Pier 3 to pier 5<br>pier 3 to city health<br>pier 3 to martires<br>pier 3 to sancianko st.<br>pier 3 to e mall<br>pier 3 to ccmc<br>pier 3 to cebu south bus terminal<br>pier 1 to e mall<br>pier 1 to sancianko st.<br>pier 1 to ccmc<br>pier 1 to south bus terminal<br>pier 4 to martires <br>pier 4 to sancianko st.<br>pier 4 to e mall<br>pier 4 to ccmc<br>pier 4 to south bus terminal]]></description>
    <Style id="line-0000FF-5000-normal">
      <LineStyle>
        <color>ffff0000</color>
        <width>5</width>
      </LineStyle>
    </Style>
    <Style id="line-0000FF-5000-highlight">
      <LineStyle>
        <color>ffff0000</color>
        <width>7.5</width>
      </LineStyle>
    </Style>
    <StyleMap id="line-0000FF-5000">
      <Pair>
        <key>normal</key>
        <styleUrl>#line-0000FF-5000-normal</styleUrl>
      </Pair>
      <Pair>
        <key>highlight</key>
        <styleUrl>#line-0000FF-5000-highlight</styleUrl>
      </Pair>
    </StyleMap>
    <Style id="line-33FF33-5000-normal">
      <LineStyle>
        <color>ff33ff33</color>
        <width>5</width>
      </LineStyle>
    </Style>
    <Style id="line-33FF33-5000-highlight">
      <LineStyle>
        <color>ff33ff33</color>
        <width>7.5</width>
      </LineStyle>
    </Style>
    <StyleMap id="line-33FF33-5000">
      <Pair>
        <key>normal</key>
        <styleUrl>#line-33FF33-5000-normal</styleUrl>
      </Pair>
      <Pair>
        <key>highlight</key>
        <styleUrl>#line-33FF33-5000-highlight</styleUrl>
      </Pair>
    </StyleMap>
    <Folder>
      <name>Untitled layer</name>
      <Placemark>
        <name>Cebu South Bus Terminal to Pier </name>
        <description><![CDATA[more cebu jeepneys route maps at cebujeepneys.weebly.com (http://cebujeepneys.weebly.com)<br>Like us on our Facebook Page (http://www.facebook.com/cebujeepneysroutemap)<br><br>CCMC - N. Bacalso Ave. - Cebu South Bus Terminal - E Mall - L. Kilat St. - Colon St. - Metro Gaisano Colon - Colonnade Supermarket - Gaisano Main - University of the Visayas - P. Burgos St. - Cebu Metropolitan Cathedral - F. Urdanet St. - Legaspi Ext. - Plaza Independencia - C. Arellano Blvd. - Pier 1 - Pier 2 - Pier 3]]></description>
        <styleUrl>#line-0000FF-5000</styleUrl>
        <LineString>
          <tessellate>1</tessellate>
          <coordinates>
            123.891524,10.29794,0
            123.89198,10.298157,0
            123.892302,10.298249,0
            123.89282,10.298355,0
            123.892972,10.298376,0
            123.893616,10.298447,0
            123.894576,10.298568,0
            123.895317,10.29869,0
            123.895537,10.29879,0
            123.895711,10.298215,0
            123.895963,10.29727,0
            123.896202,10.296399,0
            123.896454,10.295505,0
            123.896545,10.295447,0
            123.897125,10.295668,0
            123.897607,10.295871,0
            123.89812,10.296127,0
            123.898281,10.296238,0
            123.899144,10.296763,0
            123.899769,10.297167,0
            123.900338,10.297484,0
            123.900641,10.297645,0
            123.901641,10.297727,0
            123.902095,10.29774,0
            123.903162,10.297885,0
            123.903468,10.297925,0
            123.903744,10.297935,0
            123.90379,10.297779,0
            123.903843,10.297362,0
            123.903827,10.297178,0
            123.90372,10.296415,0
            123.903629,10.295758,0
            123.903688,10.295666,0
            123.904066,10.29547,0
            123.905236,10.294879,0
            123.90504,10.294328,0
            123.905399,10.294156,0
            123.906147,10.293789,0
            123.906198,10.293779,0
            123.90696,10.293341,0
            123.907365,10.294014,0
            123.907947,10.295082,0
            123.908304,10.295708,0
            123.908765,10.296518,0
            123.909173,10.29726,0
            123.909616,10.298064,0
            123.908964,10.298371,0
          </coordinates>
        </LineString>
      </Placemark>
      <Placemark>
        <name>Pier to Cebu South Bus Terminal</name>
        <description><![CDATA[more cebu jeepneys route map at cebujeepneys.weebly.com (http://cebujeepneys.weebly.com)<br>Like us on our Facebook Page (http://www.facebook.com/cebujeepneysroutemap)<br><br> <br> Pier 3 - V. Sotto St. - Sergio Osmena Blvd. - Pier 4 - Pier 5 - Robinson Mall - Gen. Maxilom Ave. Ext. - White Gold House - Cebu City Health Center -  Bueareau of Quarantin - Cebu City Civil Registrars - Cebu Skin Clinic - Imus Ave. - MJ. Cuenco Ave. - Museo Sugbo - CPILS - A. Bonifacio St. - Sikatuna St. - JC. Zamora St. - Sancianko St. - University of the Visayas - Sogo Hotel - GV Tower Hotel - University of Cebu - Elizabeth Mall - Panganiban St. - Cebu City Medical Center.]]></description>
        <styleUrl>#line-33FF33-5000</styleUrl>
        <LineString>
          <tessellate>1</tessellate>
          <coordinates>
            123.908934,10.298373,0
            123.908593,10.298442,0
            123.909395,10.300001,0
            123.90983,10.300791,0
            123.910227,10.30135,0
            123.910401,10.301585,0
            123.911281,10.302318,0
            123.912399,10.303247,0
            123.912745,10.303538,0
            123.912718,10.303757,0
            123.912136,10.304488,0
            123.911257,10.305533,0
            123.91035,10.306662,0
            123.909991,10.307095,0
            123.909878,10.307208,0
            123.908588,10.307958,0
            123.907172,10.308823,0
            123.906673,10.308227,0
            123.905667,10.306974,0
            123.905509,10.30677,0
            123.90612,10.306359,0
            123.906088,10.305659,0
            123.906093,10.304913,0
            123.906187,10.3043,0
            123.906284,10.303733,0
            123.906402,10.302857,0
            123.906515,10.301946,0
            123.90649,10.301305,0
            123.906346,10.30025,0
            123.905168,10.300292,0
            123.903776,10.30031,0
            123.90299,10.300387,0
            123.903133,10.300173,0
            123.903312,10.299772,0
            123.903366,10.299231,0
            123.903417,10.299014,0
            123.903451,10.298927,0
            123.903264,10.298883,0
            123.90277,10.298954,0
            123.902502,10.298988,0
            123.901813,10.298988,0
            123.901689,10.299263,0
            123.901311,10.299223,0
            123.900903,10.299189,0
            123.9003,10.299054,0
            123.899908,10.298904,0
            123.899093,10.298547,0
            123.898559,10.298302,0
            123.898106,10.29807,0
            123.897535,10.297748,0
            123.897229,10.297632,0
            123.89666,10.297484,0
            123.896038,10.297318,0
            123.895646,10.297204,0
            123.894678,10.296914,0
            123.893884,10.296671,0
            123.893624,10.296573,0
            123.892551,10.296325,0
            123.892406,10.29689,0
            123.891658,10.297721,0
            123.891516,10.29794,0
          </coordinates>
        </LineString>
      </Placemark>
    </Folder>
  </Document>
</kml>
