<?xml version="1.0" encoding="UTF-8"?>
<kml xmlns="http://www.opengis.net/kml/2.2">
  <Document>
    <name>Cebu Jeepney Route No. 03A</name>
    <description><![CDATA[ more cebu jeepneys route maps at cebujeepneys.weebly.com<br><br>Panagdait to Carbon<br><br>Panagdait to mabolo<br>panagdait to manalili<br>panagdait to carbon<br>cityscape hotel to mabolo<br>cityscape hotel to mj cuenco ave.<br>cityscape hotel to carbon<br>cityscape hotel to manalili st.<br>cityscape hotel to nso<br>sykes to mabolo<br>sykes to hipodromo<br>sykes to cebu downtown<br>sykes to manalili st.<br>sykes to carbon<br>sarrosa hotel to mabolo<br>sarrosa hotel to manalili st.<br>sarrossa hotel to carbon<br>castle peak hotel to mabolo<br>castle peak hotel to manalili st.<br>castle peak hotel to carbon<br>kasambagan to mabolo church<br>kasambagan to andoks mabolo<br>kasambagan to manalili st.<br>kasambagan to carbon<br>mabolo to museo sugbo<br>mabolo to cpils <br>mabolo to manalili st.<br>mabolo to carbon<br><br>Carbon to Panagdait (Mabolo)<br><br>carbon to mj cuenco ave.<br>carbon to nso<br>carbon to museo sugbo<br>carbon to cpils<br>carbon to the persimmon<br>carbon to hipodromo<br>carbon to mabolo<br>carbon to carmelite monastery<br>carbon to mabolo church<br>carbon to pldt mabolo<br>carbon to kasambagan<br><br><br><br>]]></description>
    <Style id="line-0000FF-5000-normal">
      <LineStyle>
        <color>ffff0000</color>
        <width>5</width>
      </LineStyle>
    </Style>
    <Style id="line-0000FF-5000-highlight">
      <LineStyle>
        <color>ffff0000</color>
        <width>7.5</width>
      </LineStyle>
    </Style>
    <StyleMap id="line-0000FF-5000">
      <Pair>
        <key>normal</key>
        <styleUrl>#line-0000FF-5000-normal</styleUrl>
      </Pair>
      <Pair>
        <key>highlight</key>
        <styleUrl>#line-0000FF-5000-highlight</styleUrl>
      </Pair>
    </StyleMap>
    <Style id="line-33FF33-5000-normal">
      <LineStyle>
        <color>ff33ff33</color>
        <width>5</width>
      </LineStyle>
    </Style>
    <Style id="line-33FF33-5000-highlight">
      <LineStyle>
        <color>ff33ff33</color>
        <width>7.5</width>
      </LineStyle>
    </Style>
    <StyleMap id="line-33FF33-5000">
      <Pair>
        <key>normal</key>
        <styleUrl>#line-33FF33-5000-normal</styleUrl>
      </Pair>
      <Pair>
        <key>highlight</key>
        <styleUrl>#line-33FF33-5000-highlight</styleUrl>
      </Pair>
    </StyleMap>
    <Folder>
      <name>Untitled layer</name>
      <Placemark>
        <name>Panagdait ( Mabolo) - Carbon</name>
        <description><![CDATA[more cebu jeepneys route maps at cebujeepneys.weebly.com (http://cebujeepneys.weebly.com)<br>Like us on our Facebook Page (http://www.facebook.com/cebujeepneysroutemap)<br><br> <br>Mabolo (Panagdait) to Carbon<br><br> <br>Cityscape Hotel - Brgy, Kasambagan - F. Cabahug St. - Panagdait - Sykes Asia - Synergis Center - Rainforest Park - Citi Park Hotel - Fooda (Kasambagan) - Sarrosa International Hotel - Castle Peak Hotel - Pope John Paul II Ave. - PLDT Smart Communications - Camelite Monastery - Mabolo Church - MJ. Cuenco Ave. - The Persimmon - Hipodromo - Carreta Cemetery - Imus Ave. - MJ. Cuenco ave. - Museo Sugbo - CPILS - NSO - Cebu Technological University - V. Gullas St. - Gaisano Main - Manalili St. - Colonnade Supermarket - Progreso St. - Carbon Public Market.]]></description>
        <styleUrl>#line-0000FF-5000</styleUrl>
        <LineString>
          <tessellate>1</tessellate>
          <coordinates>
            123.921018,10.327264,0
            123.920709,10.327076,0
            123.920521,10.326939,0
            123.920417,10.326857,0
            123.920082,10.326242,0
            123.919856,10.325839,0
            123.919768,10.325699,0
            123.919682,10.325599,0
            123.919524,10.325541,0
            123.91928,10.325509,0
            123.91863,10.325675,0
            123.917568,10.325944,0
            123.917204,10.326026,0
            123.916954,10.326026,0
            123.916726,10.325844,0
            123.916123,10.325205,0
            123.915482,10.324572,0
            123.914755,10.323836,0
            123.914014,10.3231,0
            123.913443,10.32249,0
            123.913003,10.322055,0
            123.912722,10.321807,0
            123.912239,10.321511,0
            123.911555,10.321121,0
            123.910852,10.320717,0
            123.910801,10.320556,0
            123.911496,10.319461,0
            123.912056,10.318519,0
            123.912668,10.317553,0
            123.913435,10.316315,0
            123.914208,10.315004,0
            123.914669,10.314225,0
            123.914307,10.314088,0
            123.913384,10.313658,0
            123.912896,10.313399,0
            123.912129,10.313038,0
            123.911439,10.312718,0
            123.910697,10.312365,0
            123.910152,10.312085,0
            123.909827,10.311892,0
            123.909385,10.31151,0
            123.909093,10.311188,0
            123.908637,10.310705,0
            123.908283,10.310246,0
            123.907727,10.309452,0
            123.907258,10.308963,0
            123.906888,10.308512,0
            123.906308,10.30781,0
            123.905799,10.307169,0
            123.905533,10.306778,0
            123.905611,10.306665,0
            123.906086,10.306343,0
            123.906075,10.305607,0
            123.906099,10.304905,0
            123.906115,10.304596,0
            123.906271,10.303712,0
            123.906362,10.303042,0
            123.906392,10.302867,0
            123.906523,10.301888,0
            123.90648,10.301292,0
            123.906408,10.300719,0
            123.906338,10.300242,0
            123.906228,10.299621,0
            123.906056,10.2984,0
            123.905871,10.297384,0
            123.905689,10.296529,0
            123.905514,10.296629,0
            123.905198,10.296745,0
            123.904731,10.29694,0
            123.904238,10.297143,0
            123.904007,10.297188,0
            123.903809,10.297212,0
            123.903036,10.297088,0
            123.902164,10.296945,0
            123.901623,10.296922,0
            123.901322,10.296882,0
            123.900909,10.296721,0
            123.900311,10.296449,0
            123.900037,10.296275,0
            123.899539,10.295771,0
            123.89927,10.295096,0
            123.898999,10.294196,0
            123.89871,10.293346,0
            123.898441,10.292414,0
            123.898471,10.292356,0
            123.899327,10.292121,0
            123.899455,10.291971,0
          </coordinates>
        </LineString>
      </Placemark>
      <Placemark>
        <name>Carbon to (Mabolo) Panagdait</name>
        <description><![CDATA[more cebu jeepneys route maps at cebujeepneys.weebly.com (http://cebujeepneys.weebly.com)<br>Like us on our Facebook Page (http://www.facebook.com/cebujeepneysroutemap)<br><br> <br>Carbon to Mabolo (Panagdait) <br><br> Carbon Public Market - MC. Briones St. - Senior Citizens Plaza - Cebu City Hall - Basilica del Sto. Nino - La Nueva Supermarket - Prince warehouse (city Hall) - Lapulapu St. - MCWD - DFA - COMELEC - DTI - Urdaneta St. - MJ. Cuenco ave. - CTU - Commission on Audit - NSO - Martires - CPILS - Museo Sugbo - Carreta Cemetery - Hipodromo - The Persimmon - Mabolo Church - Pope John Paull ll Ave. - Carmelite Monastery - PLDT - F. Cabahug St. - Brgy. Kasambagan - Castle Peak Hotel - Sarrosa International Hotel - Fooda Kasambagan - Citi Park Hotel - Rainforest Park - Synergis Center - Sykes Asia (Cebu) - Panagdait - Cityscape Hotel.]]></description>
        <styleUrl>#line-33FF33-5000</styleUrl>
        <LineString>
          <tessellate>1</tessellate>
          <coordinates>
            123.899455,10.291971,0
            123.90019,10.292106,0
            123.901121,10.292369,0
            123.902312,10.29262,0
            123.903041,10.292296,0
            123.903428,10.293122,0
            123.903787,10.293802,0
            123.903868,10.29389,0
            123.904149,10.294573,0
            123.904519,10.29522,0
            123.905206,10.294882,0
            123.905276,10.294924,0
            123.905517,10.295647,0
            123.905732,10.296492,0
            123.905965,10.2976,0
            123.906113,10.298392,0
            123.906284,10.299635,0
            123.90633,10.299951,0
            123.9064,10.300273,0
            123.906542,10.301337,0
            123.906574,10.301933,0
            123.90644,10.302896,0
            123.906354,10.303477,0
            123.906265,10.304087,0
            123.906161,10.304651,0
            123.906145,10.304981,0
            123.906123,10.305752,0
            123.906139,10.306369,0
            123.906292,10.306976,0
            123.906453,10.307356,0
            123.906775,10.307902,0
            123.906858,10.308082,0
            123.906893,10.308264,0
            123.907226,10.308723,0
            123.907776,10.309396,0
            123.907797,10.309481,0
            123.908371,10.310259,0
            123.908717,10.310721,0
            123.909259,10.311309,0
            123.90954,10.311592,0
            123.909752,10.311766,0
            123.909873,10.311869,0
            123.910149,10.312035,0
            123.910769,10.312341,0
            123.911517,10.312695,0
            123.912209,10.313011,0
            123.912968,10.313354,0
            123.913735,10.313771,0
            123.914712,10.31422,0
            123.91476,10.314336,0
            123.914277,10.315104,0
            123.913695,10.316091,0
            123.913191,10.316912,0
            123.912697,10.317674,0
            123.91219,10.318469,0
            123.911659,10.319366,0
            123.911394,10.319812,0
            123.910906,10.320659,0
            123.910933,10.320712,0
            123.911268,10.320894,0
            123.912241,10.32145,0
            123.912545,10.321643,0
            123.912786,10.321788,0
            123.913212,10.322197,0
            123.913521,10.322501,0
            123.913966,10.322981,0
            123.914621,10.323606,0
            123.915173,10.324184,0
            123.915935,10.324952,0
            123.916461,10.325509,0
            123.916748,10.325818,0
            123.916968,10.325979,0
            123.917193,10.325973,0
            123.917399,10.325928,0
            123.918523,10.325643,0
            123.919282,10.325461,0
            123.919481,10.325464,0
            123.919607,10.325504,0
            123.919703,10.325572,0
            123.919846,10.325688,0
            123.920146,10.326242,0
            123.920476,10.326828,0
            123.920548,10.326899,0
            123.920988,10.327184,0
            123.921053,10.327227,0
          </coordinates>
        </LineString>
      </Placemark>
    </Folder>
  </Document>
</kml>
