<?xml version="1.0" encoding="UTF-8"?>
<kml xmlns="http://www.opengis.net/kml/2.2">
  <Document>
    <name>Cebu Jeepneys Route No. 03L</name>
    <description><![CDATA[MABOLO TO CARBON<br><br>mabolo to metro colon <br>mabolo to carbon<br>mabolo to manalili<br>mabolo to sto.nino<br>cabantan to mabolo<br>cabantan to carbon<br>cabantan to manalili<br><br>CARBON TO MABOLO<br><br>carbon to mabolo<br>carbon to mabolo (luyo) <br>carbon to hipodromo<br>sto.nino to mabolo<br>cebu city hall to mabolo<br>nso to mabolo <br>carbon to cabantan]]></description>
    <Style id="line-0000FF-5000-normal">
      <LineStyle>
        <color>ffff0000</color>
        <width>5</width>
      </LineStyle>
    </Style>
    <Style id="line-0000FF-5000-highlight">
      <LineStyle>
        <color>ffff0000</color>
        <width>7.5</width>
      </LineStyle>
    </Style>
    <StyleMap id="line-0000FF-5000">
      <Pair>
        <key>normal</key>
        <styleUrl>#line-0000FF-5000-normal</styleUrl>
      </Pair>
      <Pair>
        <key>highlight</key>
        <styleUrl>#line-0000FF-5000-highlight</styleUrl>
      </Pair>
    </StyleMap>
    <Style id="line-33FF33-5000-normal">
      <LineStyle>
        <color>ff33ff33</color>
        <width>5</width>
      </LineStyle>
    </Style>
    <Style id="line-33FF33-5000-highlight">
      <LineStyle>
        <color>ff33ff33</color>
        <width>7.5</width>
      </LineStyle>
    </Style>
    <StyleMap id="line-33FF33-5000">
      <Pair>
        <key>normal</key>
        <styleUrl>#line-33FF33-5000-normal</styleUrl>
      </Pair>
      <Pair>
        <key>highlight</key>
        <styleUrl>#line-33FF33-5000-highlight</styleUrl>
      </Pair>
    </StyleMap>
    <Folder>
      <name>Untitled layer</name>
      <Placemark>
        <name>Mabolo(Luyo) to Carbon </name>
        <description><![CDATA[more cebu jeepneys route map at cebujeepneys.weebly.com (http://cebujeepneys.weebly.com)<br><br> <br>Mabolo to Carbon<br><br><br>Cabantan St. - C. Rosales ave. - Juan Luna ave. - M.J. Cuenco Ave. - Mabolo Church - Carreta Cemetery - Imus Ave. - M.J. Cuenco ave. - NSO - CTU - V. Gullas St. - Manalili st. - Progreso St. - Carbon Public Market.]]></description>
        <styleUrl>#line-0000FF-5000</styleUrl>
        <LineString>
          <tessellate>1</tessellate>
          <coordinates>
            123.90519,10.32248,0
            123.90694,10.32508,0
            123.90711,10.32517,0
            123.90744,10.32561,0
            123.90761,10.32576,0
            123.91347,10.31629,0
            123.91465,10.314249,0
            123.91041,10.31222,0
            123.910093,10.312069,0
            123.909836,10.311895,0
            123.909551,10.311652,0
            123.909355,10.311462,0
            123.909117,10.311196,0
            123.90861,10.310652,0
            123.90816,10.31007,0
            123.90774,10.30945,0
            123.90678,10.30837,0
            123.9055,10.30675,0
            123.905796,10.306525,0
            123.906088,10.306338,0
            123.90609,10.30572,0
            123.90617,10.30496,0
            123.90657,10.30194,0
            123.90655,10.30134,0
            123.90642,10.30028,0
            123.90568,10.29649,0
            123.90443,10.29705,0
            123.90385,10.2972,0
            123.90216,10.29691,0
            123.90136,10.29686,0
            123.90016,10.29635,0
            123.89953,10.29576,0
            123.89929,10.29513,0
            123.89851,10.29242,0
            123.89941,10.29213,0
          </coordinates>
        </LineString>
      </Placemark>
      <Placemark>
        <name>Carbon - Mabolo(Luyo)</name>
        <description><![CDATA[more cebu jeeneys route map at cebujeepneys.weebly.com (http://cebujeepneys.weebly.com)<br><br><br> <br>Carbon to Mabolo<br><br> <br>Carbon Public Market - MC. Briones St. - Cebu City Hall - Basilica del Sto. Nino - Prince Warehouse Club (MC) - La Nueva Supermart(City Hall) - Lapulapu St. - MCWD - A. Jereza St. - MJ. Cuenco Ave. - CTU - NSO - CPILS - Museo Sugbo - Imus Ave. - Mj. Cuenco Ave. - P. Cabantan St. - Mabolo (Luyo).]]></description>
        <styleUrl>#line-33FF33-5000</styleUrl>
        <LineString>
          <tessellate>1</tessellate>
          <coordinates>
            123.89941,10.292124,0
            123.899512,10.291955,0
            123.900193,10.292135,0
            123.901132,10.292393,0
            123.902296,10.292652,0
            123.903031,10.29234,0
            123.903401,10.293111,0
            123.903776,10.293824,0
            123.903835,10.293882,0
            123.90413,10.294557,0
            123.904324,10.294942,0
            123.904511,10.295264,0
            123.904844,10.295924,0
            123.905488,10.295655,0
            123.905718,10.296494,0
            123.905871,10.297244,0
            123.906013,10.297977,0
            123.906129,10.298656,0
            123.906276,10.299363,0
            123.906384,10.299951,0
            123.906445,10.300281,0
            123.906523,10.300835,0
            123.906579,10.301332,0
            123.906603,10.301931,0
            123.906515,10.302667,0
            123.906493,10.302881,0
            123.906421,10.303464,0
            123.906384,10.303699,0
            123.906231,10.304662,0
            123.906196,10.30495,0
            123.906156,10.305242,0
            123.90611,10.305715,0
            123.906134,10.306198,0
            123.906115,10.306359,0
            123.905624,10.306683,0
            123.905922,10.307084,0
            123.906298,10.307575,0
            123.906743,10.308106,0
            123.90689,10.308288,0
            123.907218,10.308728,0
            123.90755,10.309145,0
            123.907759,10.309391,0
            123.907786,10.309481,0
            123.9081,10.309913,0
            123.908266,10.310159,0
            123.908441,10.310394,0
            123.908615,10.310634,0
            123.908921,10.310953,0
            123.90928,10.311357,0
            123.909578,10.311637,0
            123.909857,10.311887,0
            123.910123,10.312061,0
            123.910544,10.312259,0
            123.910788,10.312375,0
            123.911477,10.312695,0
            123.912169,10.313025,0
            123.912925,10.313368,0
            123.912858,10.313542,0
            123.912719,10.313795,0
            123.912499,10.31426,0
            123.912311,10.314671,0
            123.912107,10.315099,0
            123.911909,10.315521,0
            123.911694,10.315948,0
            123.911244,10.316624,0
            123.910766,10.317226,0
            123.91068,10.317326,0
            123.910471,10.317437,0
            123.910144,10.317738,0
            123.909763,10.318007,0
            123.909554,10.318265,0
            123.909425,10.318508,0
            123.909355,10.318878,0
            123.909098,10.319495,0
            123.909017,10.319632,0
            123.908857,10.320002,0
            123.908535,10.320545,0
            123.908433,10.320693,0
            123.908315,10.320793,0
            123.907837,10.321068,0
            123.907295,10.321305,0
            123.906668,10.321654,0
            123.906174,10.321933,0
            123.905198,10.322477,0
          </coordinates>
        </LineString>
      </Placemark>
    </Folder>
  </Document>
</kml>
