<?xml version="1.0" encoding="UTF-8"?>
<kml xmlns="http://www.opengis.net/kml/2.2">
  <Document>
    <name>Cebu Jeepney Route No. 03Q</name>
    <description><![CDATA[more cebu jeepneys route map at cebujeepneys.weebly.com<br><br>Ayala to Sm]]></description>
    <Style id="icon-22-nodesc-normal">
      <IconStyle>
        <scale>1.1</scale>
        <Icon>
          <href>https://www.gstatic.com/mapspro/images/stock/22-blue-dot.png</href>
        </Icon>
        <hotSpot x="16" xunits="pixels" y="32" yunits="insetPixels"/>
      </IconStyle>
      <LabelStyle>
        <scale>0</scale>
      </LabelStyle>
      <BalloonStyle>
        <text><![CDATA[<h3>$[name]</h3>]]></text>
      </BalloonStyle>
    </Style>
    <Style id="icon-22-nodesc-highlight">
      <IconStyle>
        <scale>1.1</scale>
        <Icon>
          <href>https://www.gstatic.com/mapspro/images/stock/22-blue-dot.png</href>
        </Icon>
        <hotSpot x="16" xunits="pixels" y="32" yunits="insetPixels"/>
      </IconStyle>
      <LabelStyle>
        <scale>1.1</scale>
      </LabelStyle>
      <BalloonStyle>
        <text><![CDATA[<h3>$[name]</h3>]]></text>
      </BalloonStyle>
    </Style>
    <StyleMap id="icon-22-nodesc">
      <Pair>
        <key>normal</key>
        <styleUrl>#icon-22-nodesc-normal</styleUrl>
      </Pair>
      <Pair>
        <key>highlight</key>
        <styleUrl>#icon-22-nodesc-highlight</styleUrl>
      </Pair>
    </StyleMap>
    <Style id="line-0000FF-5000-normal">
      <LineStyle>
        <color>ffff0000</color>
        <width>5</width>
      </LineStyle>
    </Style>
    <Style id="line-0000FF-5000-highlight">
      <LineStyle>
        <color>ffff0000</color>
        <width>7.5</width>
      </LineStyle>
    </Style>
    <StyleMap id="line-0000FF-5000">
      <Pair>
        <key>normal</key>
        <styleUrl>#line-0000FF-5000-normal</styleUrl>
      </Pair>
      <Pair>
        <key>highlight</key>
        <styleUrl>#line-0000FF-5000-highlight</styleUrl>
      </Pair>
    </StyleMap>
    <Style id="line-33FF33-5000-nodesc-normal">
      <LineStyle>
        <color>ff33ff33</color>
        <width>5</width>
      </LineStyle>
      <BalloonStyle>
        <text><![CDATA[<h3>$[name]</h3>]]></text>
      </BalloonStyle>
    </Style>
    <Style id="line-33FF33-5000-nodesc-highlight">
      <LineStyle>
        <color>ff33ff33</color>
        <width>7.5</width>
      </LineStyle>
      <BalloonStyle>
        <text><![CDATA[<h3>$[name]</h3>]]></text>
      </BalloonStyle>
    </Style>
    <StyleMap id="line-33FF33-5000-nodesc">
      <Pair>
        <key>normal</key>
        <styleUrl>#line-33FF33-5000-nodesc-normal</styleUrl>
      </Pair>
      <Pair>
        <key>highlight</key>
        <styleUrl>#line-33FF33-5000-nodesc-highlight</styleUrl>
      </Pair>
    </StyleMap>
    <Folder>
      <name>Walang pamagat na layer</name>
      <Placemark>
        <name>Line 5</name>
        <description>Ayala Center - Mabolo</description>
        <styleUrl>#line-0000FF-5000</styleUrl>
        <LineString>
          <tessellate>1</tessellate>
          <coordinates>
            123.90365,10.31889,0
            123.90389,10.31881,0
            123.90326,10.31735,0
            123.90411,10.31666,0
            123.90443,10.31648,0
            123.90643,10.31594,0
            123.90768,10.31538,0
            123.90807,10.31538,0
            123.90865,10.31581,0
            123.90893,10.31613,0
            123.9091,10.31648,0
            123.90913,10.31671,0
            123.90909,10.31725,0
            123.90887,10.31753,0
            123.908049,10.318416,0
            123.908167,10.318585,0
            123.9083,10.3187,0
            123.90913,10.31949,0
          </coordinates>
        </LineString>
      </Placemark>
      <Placemark>
        <name>Line 6</name>
        <description>Mabolo - SM City Cebu (puj terminal)</description>
        <styleUrl>#line-0000FF-5000</styleUrl>
        <LineString>
          <tessellate>1</tessellate>
          <coordinates>
            123.909141,10.319495,0
            123.910332,10.320268,0
            123.910812,10.320582,0
            123.911238,10.319909,0
            123.911407,10.319635,0
            123.912102,10.318466,0
            123.912292,10.318147,0
            123.912569,10.31769,0
            123.912917,10.317173,0
            123.913113,10.316867,0
            123.91344,10.316323,0
            123.913652,10.315962,0
            123.91376,10.315795,0
            123.914071,10.315262,0
            123.914291,10.314893,0
            123.914666,10.314236,0
            123.914822,10.313948,0
            123.914913,10.313785,0
            123.914996,10.313661,0
            123.915079,10.313555,0
            123.915232,10.313381,0
            123.915377,10.313193,0
            123.915557,10.31303,0
            123.916141,10.31241,0
            123.916184,10.312378,0
            123.916326,10.312415,0
            123.916774,10.312763,0
            123.917118,10.313038,0
            123.917515,10.313376,0
            123.917625,10.313476,0
            123.917745,10.313552,0
            123.917823,10.313621,0
            123.917909,10.313573,0
            123.91804,10.313442,0
            123.918137,10.313376,0
            123.918282,10.313294,0
            123.918483,10.313217,0
            123.918652,10.313196,0
            123.918883,10.313138,0
            123.919084,10.313096,0
            123.919314,10.31304,0
            123.91951,10.313014,0
            123.919679,10.312969,0
            123.919824,10.312903,0
            123.919955,10.31284,0
            123.920063,10.312766,0
            123.920213,10.312613,0
            123.920301,10.312528,0
            123.920452,10.312336,0
            123.92061,10.312172,0
            123.920682,10.312098,0
            123.920776,10.311903,0
            123.920908,10.311758,0
            123.921144,10.311465,0
            123.921348,10.311214,0
            123.921506,10.311024,0
            123.921565,10.310932,0
            123.921342,10.310774,0
            123.92116,10.310613,0
            123.920838,10.310341,0
            123.920578,10.310135,0
            123.920221,10.309861,0
            123.919722,10.309473,0
            123.919419,10.309217,0
            123.919154,10.308992,0
            123.918904,10.309269,0
            123.918663,10.30956,0
            123.918413,10.309858,0
            123.918282,10.310022,0
            123.918306,10.310127,0
            123.918295,10.310188,0
            123.918183,10.31033,0
            123.918113,10.31042,0
            123.918016,10.310533,0
            123.918032,10.310599,0
            123.918014,10.310597,0
          </coordinates>
        </LineString>
      </Placemark>
      <Placemark>
        <name>03Q terminal</name>
        <styleUrl>#icon-22-nodesc</styleUrl>
        <Point>
          <coordinates>
            123.918035,10.310589,0
          </coordinates>
        </Point>
      </Placemark>
      <Placemark>
        <name>Line 7</name>
        <styleUrl>#line-33FF33-5000-nodesc</styleUrl>
        <LineString>
          <tessellate>1</tessellate>
          <coordinates>
            123.91799,10.3106,0
            123.91796,10.31055,0
            123.91784,10.31055,0
            123.91632,10.31238,0
            123.91503,10.3138,0
            123.91342,10.31651,0
            123.91084,10.32069,0
            123.91072,10.32066,0
            123.9091,10.31964,0
            123.90811,10.31869,0
            123.907953,10.318484,0
            123.907958,10.318302,0
            123.908519,10.31773,0
            123.908779,10.317482,0
            123.908918,10.317234,0
            123.908988,10.316914,0
            123.908932,10.316547,0
            123.908789,10.316191,0
            123.908433,10.31579,0
            123.908116,10.315605,0
            123.907751,10.315542,0
            123.907521,10.31559,0
            123.90699,10.31589,0
            123.906375,10.316086,0
            123.905911,10.316228,0
            123.905708,10.316236,0
            123.904608,10.316561,0
            123.90435,10.316703,0
            123.903701,10.317249,0
            123.902631,10.317745,0
            123.903017,10.318511,0
            123.903481,10.319614,0
            123.903618,10.319704,0
            123.903897,10.320258,0
            123.90442,10.320065,0
            123.90388,10.31875,0
            123.9038,10.31868,0
            123.90343,10.31892,0
            123.90349,10.319,0
            123.90369,10.31889,0
          </coordinates>
        </LineString>
      </Placemark>
      <Placemark>
        <name>ayala terminal</name>
        <styleUrl>#icon-22-nodesc</styleUrl>
        <Point>
          <coordinates>
            123.903699,10.318907,0
          </coordinates>
        </Point>
      </Placemark>
    </Folder>
  </Document>
</kml>
