<?xml version="1.0" encoding="UTF-8"?>
<kml xmlns="http://www.opengis.net/kml/2.2">
  <Document>
    <name>Cebu Jeepney Route No. 04B</name>
    <description><![CDATA[more cebu jeepneys route map at cebujeepneys.weebly.com<br><br>Lahug (Campo) to Carbon<br><br>campo to jy <br>campo to capitol<br>campo to jones ave.<br>campo to fuente<br>campo to colon<br>campo to abellana <br>campo to metro<br>campo to carbon<br>campo to sto. nino<br>lahug to fuente<br>lahug to capitol<br>lahug to colon<br>lahug to sss<br>lahug to metro colon<br>lahug to carbon<br>lahug to sto.nino<br>jy to colon<br>jy to fuente<br>jy to carbon<br>jy to sto.nino<br>capitol to metro colon<br>capitol to colon<br>capitol to carbon<br>fuente to metro colon<br>fuente to colon<br>fuente to carbon<br><br>Carbon to Lahug (Campo)<br><br>Carbon to usc<br>carbon to abellana<br>carbon to fuente<br>carbon to capitol<br>carbon to lahug<br>carbon to up<br>carbon to jy<br>carbon to campo<br>cathedral to fuente<br>cathedral to lahug<br>cathedral to jy<br>cathedral to campo<br>sto nino to jy<br>sto nino to lahug<br>sto. nino to capitol<br>sto nino to campo<br>colon to lahug<br>colonnade to lahug<br>colon to fuente<br>colon to jy<br>fuente to jy<br>fuente to capitol<br>colon to capitol<br>fuente to campo<br>capitol to jy<br>capitol to lahug<br>capitol to up<br>capitol to campo.]]></description>
    <Style id="line-0000FF-5000-normal">
      <LineStyle>
        <color>ffff0000</color>
        <width>5</width>
      </LineStyle>
    </Style>
    <Style id="line-0000FF-5000-highlight">
      <LineStyle>
        <color>ffff0000</color>
        <width>7.5</width>
      </LineStyle>
    </Style>
    <StyleMap id="line-0000FF-5000">
      <Pair>
        <key>normal</key>
        <styleUrl>#line-0000FF-5000-normal</styleUrl>
      </Pair>
      <Pair>
        <key>highlight</key>
        <styleUrl>#line-0000FF-5000-highlight</styleUrl>
      </Pair>
    </StyleMap>
    <Style id="line-33FF33-5000-normal">
      <LineStyle>
        <color>ff33ff33</color>
        <width>5</width>
      </LineStyle>
    </Style>
    <Style id="line-33FF33-5000-highlight">
      <LineStyle>
        <color>ff33ff33</color>
        <width>7.5</width>
      </LineStyle>
    </Style>
    <StyleMap id="line-33FF33-5000">
      <Pair>
        <key>normal</key>
        <styleUrl>#line-33FF33-5000-normal</styleUrl>
      </Pair>
      <Pair>
        <key>highlight</key>
        <styleUrl>#line-33FF33-5000-highlight</styleUrl>
      </Pair>
    </StyleMap>
    <Folder>
      <name>Untitled layer</name>
      <Placemark>
        <name>Lahug to Carbon</name>
        <description><![CDATA[more cebu jeepneys route map at cebujeepneys.weebly.com (http://cebujeepneys.weebly.com)<br>Like us on our Facebook Page (http://www.facebook.com/cebujeepneysroutemap)<br><br><br><br> <br>Lahug to Carbon<br><br> <br>Camp Lapulapu - Salinas Drive - JY Square Mall - Lahug - University of the Philippines - Harolds Hotel - Escario St. - Cebu Provincial Capitol - Osmena Blvd. - Cebu Doctors University - Fuente Osmena Circle - Robinsons Fuente - Crown Regency Hotel - Jones Ave. - SSS - Metro Colon - P. Lopez St. - Magallanes St. - University of San Jose-Recoletos - Carbon Public Market - F. Calderon St. - Progreso St.]]></description>
        <styleUrl>#line-0000FF-5000</styleUrl>
        <LineString>
          <tessellate>1</tessellate>
          <coordinates>
            123.901585,10.333916,0
            123.900971,10.332982,0
            123.900169,10.331837,0
            123.899584,10.33129,0
            123.898938,10.330765,0
            123.898758,10.330805,0
            123.898179,10.331161,0
            123.898077,10.331172,0
            123.89783,10.330383,0
            123.897623,10.329652,0
            123.897462,10.329127,0
            123.897401,10.328802,0
            123.897422,10.328575,0
            123.897511,10.328187,0
            123.897661,10.327683,0
            123.897881,10.327024,0
            123.897961,10.326625,0
            123.898018,10.326142,0
            123.898085,10.325332,0
            123.898259,10.324506,0
            123.898425,10.323757,0
            123.898557,10.323187,0
            123.898661,10.322614,0
            123.898785,10.322076,0
            123.898919,10.321424,0
            123.89894,10.321324,0
            123.898951,10.321284,0
            123.898962,10.32121,0
            123.898989,10.321136,0
            123.899136,10.320482,0
            123.899302,10.319941,0
            123.898836,10.319756,0
            123.898809,10.319719,0
            123.898804,10.319622,0
            123.899029,10.31907,0
            123.899262,10.318418,0
            123.898761,10.318302,0
            123.898157,10.318162,0
            123.897192,10.317962,0
            123.895928,10.317745,0
            123.894904,10.317592,0
            123.894611,10.317516,0
            123.894086,10.317358,0
            123.893308,10.317102,0
            123.892857,10.316967,0
            123.892409,10.316827,0
            123.89224,10.316759,0
            123.891932,10.316687,0
            123.891524,10.316534,0
            123.890797,10.316265,0
            123.890789,10.316186,0
            123.890819,10.316109,0
            123.891205,10.315027,0
            123.891444,10.314365,0
            123.891747,10.313613,0
            123.892047,10.312806,0
            123.892492,10.311555,0
            123.892576,10.311241,0
            123.892699,10.310882,0
            123.892774,10.310592,0
            123.892739,10.310475,0
            123.89264,10.310391,0
            123.892573,10.310299,0
            123.892482,10.310151,0
            123.892455,10.310006,0
            123.892457,10.309887,0
            123.892471,10.309742,0
            123.892541,10.309499,0
            123.892648,10.309354,0
            123.89283,10.309251,0
            123.892978,10.309198,0
            123.893147,10.309153,0
            123.893246,10.30914,0
            123.893367,10.308889,0
            123.893471,10.308626,0
            123.893689,10.30795,0
            123.893895,10.307303,0
            123.89412,10.306778,0
            123.894415,10.306126,0
            123.894579,10.305678,0
            123.894831,10.304955,0
            123.895161,10.30406,0
            123.895483,10.303171,0
            123.895791,10.302295,0
            123.896097,10.301419,0
            123.896406,10.30055,0
            123.89677,10.299511,0
            123.897138,10.29855,0
            123.89735,10.297972,0
            123.897487,10.297742,0
            123.897527,10.297645,0
            123.897715,10.297257,0
            123.898192,10.296265,0
            123.898224,10.296214,0
            123.898034,10.295692,0
            123.897996,10.295605,0
            123.897833,10.294903,0
            123.898004,10.294182,0
            123.898146,10.293781,0
            123.89783,10.293655,0
            123.89791,10.293285,0
            123.898104,10.292499,0
            123.898444,10.292388,0
            123.899123,10.292193,0
            123.899345,10.29214,0
            123.899455,10.292021,0
          </coordinates>
        </LineString>
      </Placemark>
      <Placemark>
        <name>Carbon to Lahug</name>
        <description><![CDATA[more cebu jeepneys route map at cebujeepneys.weebly.com (http://cebujeepneys.weebly.com)<br>Like us on our Facebook Page (http://www.facebook.com/cebujeepneysroutemap)<br><br> <br>Carbon to Lahug via Osmena Blvd.<br><br> <br>Carbon - MC. Briones St. - Cebu City Hall - Basilica del sto.nino - La Nueva Supermarket (city hall) - Lapulapu St. - MCWD - Legaspit St. - Colonnade Supermarket - Pelaez St. - Hotel de Mercedez - University of San Carlos Main - Sto. Rosario Church - Central Bank of the Philippines - Osmena Blvd. - Cebu Normal University - Abellana Sports Complex - Crown Regency Hotel - Robinsons Place Cebu fuente - Fuente Osmena Circle - Osmena Blvd. - Cebu Doctors University - Cebu Provincial Capitol - Escario St. - Golden peak hotel - Philhealth - Gorordo Ave. - Tonros Apartelle - Harolds Hotel -  Handuraw Pizza Lahug - University of the Philippines - Jy Square Mall - Salinas Drive - Camp Lapu lapu.]]></description>
        <styleUrl>#line-33FF33-5000</styleUrl>
        <LineString>
          <tessellate>1</tessellate>
          <coordinates>
            123.899458,10.292024,0
            123.899506,10.291966,0
            123.900196,10.292108,0
            123.901132,10.292367,0
            123.90229,10.29262,0
            123.903025,10.292311,0
            123.903256,10.292802,0
            123.903404,10.293108,0
            123.903774,10.293813,0
            123.903838,10.293884,0
            123.904133,10.294565,0
            123.90335,10.294945,0
            123.902773,10.295151,0
            123.901805,10.295526,0
            123.901212,10.295776,0
            123.900075,10.296278,0
            123.899418,10.296597,0
            123.899117,10.296753,0
            123.899026,10.296832,0
            123.898758,10.29737,0
            123.898374,10.298159,0
            123.898332,10.298452,0
            123.898216,10.299204,0
            123.898053,10.300149,0
            123.897929,10.300147,0
            123.897597,10.300062,0
            123.897296,10.299957,0
            123.896875,10.299759,0
            123.896698,10.300176,0
            123.896323,10.301215,0
            123.895955,10.302231,0
            123.895454,10.303532,0
            123.895046,10.304717,0
            123.894649,10.305926,0
            123.89433,10.306828,0
            123.89423,10.307148,0
            123.893917,10.30786,0
            123.893667,10.308641,0
            123.893487,10.309111,0
            123.893477,10.309235,0
            123.893592,10.309325,0
            123.893726,10.309481,0
            123.893815,10.309605,0
            123.893868,10.309768,0
            123.893836,10.309932,0
            123.893791,10.310087,0
            123.893761,10.310159,0
            123.893635,10.310317,0
            123.893563,10.310394,0
            123.89341,10.310473,0
            123.893321,10.31052,0
            123.893123,10.310555,0
            123.893042,10.310618,0
            123.89297,10.310644,0
            123.89286,10.310834,0
            123.892814,10.311003,0
            123.892715,10.31133,0
            123.892535,10.311877,0
            123.892366,10.312362,0
            123.892071,10.313265,0
            123.891723,10.314107,0
            123.891444,10.314816,0
            123.891309,10.31522,0
            123.891197,10.315487,0
            123.89099,10.316162,0
            123.891583,10.316365,0
            123.892036,10.316547,0
            123.892294,10.316719,0
            123.892439,10.316788,0
            123.892868,10.316909,0
            123.893329,10.317046,0
            123.89437,10.317392,0
            123.894753,10.317511,0
            123.895027,10.317566,0
            123.895483,10.317632,0
            123.894488,10.317199,0
            123.895757,10.317677,0
            123.895998,10.317711,0
            123.896746,10.317833,0
            123.8972,10.317912,0
            123.897953,10.318062,0
            123.898731,10.318244,0
            123.899337,10.318395,0
            123.899893,10.318532,0
            123.899836,10.318746,0
            123.899678,10.319126,0
            123.899528,10.319469,0
            123.899361,10.319915,0
            123.899166,10.32058,0
            123.899056,10.321018,0
            123.898978,10.321442,0
            123.898798,10.322176,0
            123.898707,10.322648,0
            123.898608,10.323189,0
            123.89849,10.323714,0
            123.898315,10.324453,0
            123.898197,10.325023,0
            123.898125,10.325409,0
            123.898061,10.326145,0
            123.898042,10.326443,0
            123.898012,10.326612,0
            123.897953,10.326984,0
            123.897827,10.327343,0
            123.897658,10.327836,0
            123.897581,10.328134,0
            123.897489,10.328456,0
            123.897454,10.328604,0
            123.897438,10.328781,0
            123.897513,10.329132,0
            123.897688,10.329673,0
            123.89791,10.330501,0
            123.898061,10.330662,0
            123.898222,10.330757,0
            123.898329,10.3308,0
            123.898509,10.330805,0
            123.898699,10.330771,0
            123.89893,10.330715,0
            123.898981,10.330741,0
            123.899273,10.330971,0
            123.899944,10.331554,0
            123.900247,10.331863,0
            123.901008,10.332932,0
            123.901521,10.333721,0
            123.901641,10.333897,0
          </coordinates>
        </LineString>
      </Placemark>
    </Folder>
  </Document>
</kml>
