<?xml version="1.0" encoding="UTF-8"?>
<kml xmlns="http://www.opengis.net/kml/2.2">
  <Document>
    <name>CEBU JEEPNEY ROUTE NO. 04C</name>
    <description><![CDATA[more cebu jeepneys route map at cebujeepneys.weebly.com<br>campo - jy - lahug - cor. sudlon - mormons church - lahug brgy hall - UP - harolds hotel - philhealth - golden peak hotel - gorordo ave. - asilo dela milagrosa - cebu city police station (camp sutero) - mango ave. - gen. maxilom ave. -usc north campus -  fooda saversmart - mango square - National bookstore  - Robinsons Place - Summit Circle Hotel - F. ramos st. - cebu institute of medicine - Diplomat hotel - Junquera St. ext. - University of San Carlos - junquera St. - sancianko st. - University of cebu - E mall - panganiban st. - magallanes st. - carbon public market.<br>carbon public market - lincoln st. - f. gonzales st. - M.C. Briones st. - Cebu city hall - basilica del sto. nino - la nueva (sto nino) - prince warehouse club (sto. nino) - Lapulapu st. - MCWD - DFA - OWWA - Legaspi st. - cebu eastern college - d. jakosalem st. - gaisano main - university of the visayas - ramos public market - f. ramos st. - city suites - diplomat ]]></description>
    <Style id="line-0000FF-5000-normal">
      <LineStyle>
        <color>ffff0000</color>
        <width>5</width>
      </LineStyle>
    </Style>
    <Style id="line-0000FF-5000-highlight">
      <LineStyle>
        <color>ffff0000</color>
        <width>7.5</width>
      </LineStyle>
    </Style>
    <StyleMap id="line-0000FF-5000">
      <Pair>
        <key>normal</key>
        <styleUrl>#line-0000FF-5000-normal</styleUrl>
      </Pair>
      <Pair>
        <key>highlight</key>
        <styleUrl>#line-0000FF-5000-highlight</styleUrl>
      </Pair>
    </StyleMap>
    <Style id="line-FF0000-5000-normal">
      <LineStyle>
        <color>ff0000ff</color>
        <width>5</width>
      </LineStyle>
    </Style>
    <Style id="line-FF0000-5000-highlight">
      <LineStyle>
        <color>ff0000ff</color>
        <width>7.5</width>
      </LineStyle>
    </Style>
    <StyleMap id="line-FF0000-5000">
      <Pair>
        <key>normal</key>
        <styleUrl>#line-FF0000-5000-normal</styleUrl>
      </Pair>
      <Pair>
        <key>highlight</key>
        <styleUrl>#line-FF0000-5000-highlight</styleUrl>
      </Pair>
    </StyleMap>
    <Folder>
      <name>Walang pamagat na layer</name>
      <Placemark>
        <name>LAHUG TO CARBON</name>
        <description><![CDATA[more cebu jeepneys route map at cebujeepneys.weebly.com (http://cebujeepneys.weebly.com)<br><br> <br>campo - jy - lahug - cor. sudlon - mormons church - lahug brgy hall - UP - harolds hotel - philhealth - golden peak hotel - gorordo ave. - asilo dela milagrosa - cebu city police station (camp sutero) - mango ave. - gen. maxilom ave. -usc north campus -  fooda saversmart - mango square - National bookstore  - Robinsons Place - Summit Circle Hotel - F. ramos st. - cebu institute of medicine - Diplomat hotel - Junquera St. ext. - University of San Carlos - junquera St. - sancianko st. - University of cebu - E mall - panganiban st. - magallanes st. - carbon public market.]]></description>
        <styleUrl>#line-0000FF-5000</styleUrl>
        <LineString>
          <tessellate>1</tessellate>
          <coordinates>
            123.899383,10.331106,0
            123.898962,10.330765,0
            123.898763,10.330784,0
            123.898404,10.331016,0
            123.898098,10.331187,0
            123.897902,10.330578,0
            123.897642,10.329673,0
            123.897473,10.329116,0
            123.897412,10.328749,0
            123.897425,10.328572,0
            123.897581,10.327989,0
            123.897779,10.327343,0
            123.8979,10.326976,0
            123.897951,10.326712,0
            123.898004,10.326377,0
            123.898034,10.326055,0
            123.898077,10.32553,0
            123.898101,10.325311,0
            123.898243,10.324598,0
            123.898391,10.323934,0
            123.898543,10.323276,0
            123.898704,10.32258,0
            123.898865,10.321841,0
            123.898981,10.321255,0
            123.89912,10.320622,0
            123.899305,10.319954,0
            123.899536,10.319392,0
            123.899767,10.318907,0
            123.899933,10.318532,0
            123.90015,10.318136,0
            123.90034,10.317806,0
            123.900509,10.317484,0
            123.900727,10.317051,0
            123.90121,10.316162,0
            123.901515,10.31559,0
            123.901682,10.315299,0
            123.901813,10.314998,0
            123.90203,10.314618,0
            123.902221,10.314246,0
            123.90239,10.313919,0
            123.902658,10.313365,0
            123.903149,10.312441,0
            123.90353,10.311681,0
            123.903929,10.310853,0
            123.903886,10.310763,0
            123.903551,10.310906,0
            123.903181,10.311035,0
            123.902934,10.311119,0
            123.902505,10.311272,0
            123.901931,10.311394,0
            123.901515,10.311447,0
            123.900619,10.311528,0
            123.900121,10.311544,0
            123.899826,10.311536,0
            123.89923,10.31146,0
            123.898726,10.311357,0
            123.898232,10.311249,0
            123.897495,10.31099,0
            123.896886,10.310763,0
            123.896003,10.310449,0
            123.895663,10.310336,0
            123.895429,10.310241,0
            123.89503,10.310127,0
            123.894743,10.31004,0
            123.89434,10.309913,0
            123.894595,10.30957,0
            123.894823,10.309283,0
            123.895089,10.30895,0
            123.895252,10.308728,0
            123.895354,10.30856,0
            123.895513,10.30833,0
            123.895749,10.308034,0
            123.895909,10.307858,0
            123.896186,10.307475,0
            123.896532,10.307034,0
            123.896811,10.306649,0
            123.897224,10.306119,0
            123.897532,10.30571,0
            123.897977,10.305129,0
            123.898222,10.304815,0
            123.898184,10.304638,0
            123.898205,10.304414,0
            123.898224,10.303852,0
            123.898256,10.303081,0
            123.898273,10.302532,0
            123.898283,10.301999,0
            123.898927,10.300812,0
            123.899222,10.30031,0
            123.900011,10.298885,0
            123.899603,10.298748,0
            123.898873,10.298463,0
            123.89838,10.298215,0
            123.89787,10.297935,0
            123.897521,10.29775,0
            123.897232,10.297634,0
            123.896931,10.29755,0
            123.896052,10.297318,0
            123.894812,10.296927,0
            123.893863,10.296653,0
            123.892672,10.29632,0
            123.893289,10.295586,0
            123.894185,10.294526,0
            123.894335,10.29452,0
            123.894989,10.293781,0
            123.895424,10.293248,0
            123.895488,10.293132,0
            123.897066,10.293486,0
            123.897285,10.293465,0
            123.897854,10.293623,0
            123.897972,10.293259,0
          </coordinates>
        </LineString>
      </Placemark>
      <Placemark>
        <name>Carbon to Lahug</name>
        <description><![CDATA[more cebu jeepneys route map at<br>cebujeepneys.weebly.com (http://cebujeepneys.weebly.com)<br><br> carbon public market - lincoln st. - f. gonzales st. - M.C. Briones st. - Cebu city hall - basilica del sto. nino - la nueva (sto nino) - prince warehouse club (sto. nino) - Lapulapu st. - MCWD - DFA - OWWA - Legaspi st. - cebu eastern college - d. jakosalem st. - gaisano main - university of the visayas - ramos public market - f. ramos st. - city suites - diplomat hotel - summit circle hotel - robinsons place - mango ave. - mango square - horizons 101 - usc north campus - g. maxilom st. - gorordo ave. - cebu city police office (camp sutero) - golden peak hotel - philhealth - harolds hotel - handuraw pizza - university of the philippines - lahug brgy hall - mormons church - cor. sudlon - jy - camp lapulapu.]]></description>
        <styleUrl>#line-FF0000-5000</styleUrl>
        <LineString>
          <tessellate>1</tessellate>
          <coordinates>
            123.89797,10.29326,0
            123.89883,10.29338,0
            123.90038,10.29297,0
            123.90018,10.29212,0
            123.90111,10.29239,0
            123.9023,10.29263,0
            123.90304,10.29232,0
            123.90377,10.29386,0
            123.90386,10.29393,0
            123.90412,10.29456,0
            123.90327,10.29495,0
            123.90177,10.29553,0
            123.90204,10.29634,0
            123.90221,10.29705,0
            123.90215,10.29759,0
            123.90206,10.29776,0
            123.90157,10.30013,0
            123.90132,10.30082,0
            123.90101,10.30132,0
            123.90066,10.3023,0
            123.90036,10.30281,0
            123.90018,10.30341,0
            123.89993,10.30516,0
            123.89842,10.30472,0
            123.89823,10.30482,0
            123.89436,10.3099,0
            123.89561,10.31028,0
            123.89821,10.31122,0
            123.89984,10.31152,0
            123.90112,10.31147,0
            123.90189,10.31137,0
            123.90272,10.31117,0
            123.90397,10.31075,0
            123.90323,10.31233,0
            123.90168,10.31534,0
            123.89996,10.31849,0
            123.89936,10.31986,0
            123.89907,10.32094,0
            123.89823,10.32472,0
            123.89792,10.32699,0
            123.89756,10.32814,0
            123.89743,10.32877,0
            123.89748,10.32909,0
            123.89791,10.33055,0
            123.89807,10.3307,0
            123.89835,10.33083,0
            123.89895,10.33073,0
            123.89938,10.33108,0
            123.900212,10.331815,0
            123.900743,10.332586,0
            123.901019,10.332958,0
            123.901781,10.332409,0
            123.902467,10.333359,0
            123.901663,10.333929,0
          </coordinates>
        </LineString>
      </Placemark>
    </Folder>
  </Document>
</kml>
