<?xml version="1.0" encoding="UTF-8"?>
<kml xmlns="http://www.opengis.net/kml/2.2">
  <Document>
    <name>Cebu Jeepney Route No. 04D</name>
    <description><![CDATA[More Cebu Jeepneys route map at cebujeepneys.weebly.com<br><br>Plaza Housing to Carbon<br><br>Plaza to jy<br>plaza to escario<br>plaza to fuente<br>plaza to sancianko<br>plaza to taboan<br>plaza to magallanes<br>plaza to carbon<br>plaza to sto. nino<br>jy to escario<br>jy to fuente<br>jy to sanciangko<br>jy to taboan<br>jy to carbon<br>lahug to carbon<br>lahug to taboan<br>lahug to sto, nino<br>fuente to carbon<br>fuente to taboan<br>fuente to sto. nino<br><br>Carbon to Plaza Housing<br><br>carbon to sto rosario<br>carbon to fuente osmena<br>carbon  to escario<br>carbon to jy square mall<br>carbon to lahug<br>carbon to busay<br>carbon to plaza housing <br>colon to fuente <br>colon to escario<br>colon to gorordo ave.<br>colon to up lahug<br>colon to lahug<br>colon to Jy <br>colon to Busay<br>colon to plaza housing<br>fuente to jy <br>fuente to plaza housing<br>fuente to busay<br>fuente to marco polo<br>lahug to jy <br>lahug to busay<br>lahug to plaza housing<br>]]></description>
    <Style id="line-0000FF-5000-normal">
      <LineStyle>
        <color>ffff0000</color>
        <width>5</width>
      </LineStyle>
    </Style>
    <Style id="line-0000FF-5000-highlight">
      <LineStyle>
        <color>ffff0000</color>
        <width>7.5</width>
      </LineStyle>
    </Style>
    <StyleMap id="line-0000FF-5000">
      <Pair>
        <key>normal</key>
        <styleUrl>#line-0000FF-5000-normal</styleUrl>
      </Pair>
      <Pair>
        <key>highlight</key>
        <styleUrl>#line-0000FF-5000-highlight</styleUrl>
      </Pair>
    </StyleMap>
    <Style id="line-33FF33-5000-normal">
      <LineStyle>
        <color>ff33ff33</color>
        <width>5</width>
      </LineStyle>
    </Style>
    <Style id="line-33FF33-5000-highlight">
      <LineStyle>
        <color>ff33ff33</color>
        <width>7.5</width>
      </LineStyle>
    </Style>
    <StyleMap id="line-33FF33-5000">
      <Pair>
        <key>normal</key>
        <styleUrl>#line-33FF33-5000-normal</styleUrl>
      </Pair>
      <Pair>
        <key>highlight</key>
        <styleUrl>#line-33FF33-5000-highlight</styleUrl>
      </Pair>
    </StyleMap>
    <Folder>
      <name>Untitled layer</name>
      <Placemark>
        <name>Plaza Housing to Carbon via Taboan</name>
        <description><![CDATA[more cebu jeepneys route maps at cebujeepneys.weebly.com (http://cebujeepneys.weebly.com)<br>or Like us in Facebook (http://www.facebook.com/cebujeepneysroutemap)<br><br> <br>Plaza Housing (Busay) - Cebu Transcentral Highway - Cebu Veterans Drive - Marco Polo Hotel - Jy Square Mall - Gorordo Ave. - Lahug - UP Lahug - Harolds Hotel - Morales St. - Escario St. - Cebu Provincial Capitol - S. Osmena Blvd. - Cebu Doctors University -  Fuente Osmena Circle - Robinsons Fuente Cebu - JOnes Ave. - - Abellana Sports Complex - Cebu NOrmal  University - SSS - Sancianko ST. - UC Main - E. Mall - Taboan PUblic Market - Lakandula St. - Tupas St. - Magallanes St. - Carbon Public Market - Basilica del Sto. Nino - Cebu City hall .]]></description>
        <styleUrl>#line-0000FF-5000</styleUrl>
        <LineString>
          <tessellate>1</tessellate>
          <coordinates>
            123.881686,10.363275,0
            123.881517,10.363085,0
            123.881522,10.362948,0
            123.881718,10.362595,0
            123.881831,10.362513,0
            123.882056,10.362521,0
            123.882504,10.362542,0
            123.882649,10.362492,0
            123.883094,10.362241,0
            123.883204,10.362228,0
            123.883494,10.362262,0
            123.883644,10.362323,0
            123.883818,10.362397,0
            123.883974,10.362407,0
            123.884215,10.36237,0
            123.88429,10.362315,0
            123.884448,10.362249,0
            123.884813,10.361956,0
            123.885344,10.361502,0
            123.8855,10.361394,0
            123.88554,10.361275,0
            123.8855,10.360861,0
            123.885476,10.360389,0
            123.88543,10.359661,0
            123.885387,10.359143,0
            123.88532,10.358919,0
            123.88528,10.358829,0
            123.885224,10.358745,0
            123.88514,10.358682,0
            123.885033,10.358632,0
            123.884813,10.35861,0
            123.884588,10.358574,0
            123.884392,10.358447,0
            123.884279,10.358326,0
            123.884231,10.358244,0
            123.884194,10.358128,0
            123.884178,10.35794,0
            123.884223,10.357798,0
            123.884317,10.357489,0
            123.884279,10.357249,0
            123.884153,10.357075,0
            123.884084,10.356917,0
            123.883984,10.356402,0
            123.883781,10.356254,0
            123.8837,10.35613,0
            123.883708,10.355954,0
            123.883756,10.355882,0
            123.88388,10.355843,0
            123.883974,10.355835,0
            123.884105,10.355848,0
            123.88429,10.35589,0
            123.884475,10.355919,0
            123.884564,10.355917,0
            123.884929,10.355756,0
            123.885052,10.355687,0
            123.885127,10.355531,0
            123.885173,10.355212,0
            123.885234,10.355059,0
            123.885352,10.354911,0
            123.88543,10.35484,0
            123.885599,10.35474,0
            123.8858,10.354647,0
            123.886071,10.354661,0
            123.886286,10.35469,0
            123.886452,10.35469,0
            123.886522,10.354711,0
            123.886675,10.3546,0
            123.886704,10.354455,0
            123.886683,10.354088,0
            123.886653,10.353753,0
            123.886613,10.353273,0
            123.886903,10.352948,0
            123.886991,10.352882,0
            123.887133,10.35284,0
            123.887356,10.352872,0
            123.887549,10.352872,0
            123.887699,10.352843,0
            123.887984,10.352742,0
            123.888112,10.352645,0
            123.888217,10.352413,0
            123.888453,10.352254,0
            123.888759,10.352151,0
            123.889014,10.352012,0
            123.889132,10.35188,0
            123.889199,10.3517,0
            123.889204,10.351579,0
            123.889118,10.351336,0
            123.889075,10.351246,0
            123.888917,10.351054,0
            123.888584,10.35069,0
            123.888311,10.350442,0
            123.888155,10.350275,0
            123.888083,10.350167,0
            123.888051,10.35007,0
            123.888056,10.349911,0
            123.888115,10.349655,0
            123.888362,10.349529,0
            123.888574,10.34956,0
            123.888775,10.349658,0
            123.888882,10.349658,0
            123.88896,10.349603,0
            123.889014,10.349484,0
            123.888971,10.349265,0
            123.888855,10.348745,0
            123.888863,10.348608,0
            123.888955,10.348537,0
            123.889105,10.348515,0
            123.889526,10.348637,0
            123.889858,10.348626,0
            123.890234,10.34869,0
            123.89047,10.348708,0
            123.890773,10.348658,0
            123.890988,10.348589,0
            123.891293,10.348431,0
            123.891492,10.348273,0
            123.891564,10.348151,0
            123.891647,10.347835,0
            123.8918,10.347576,0
            123.891862,10.347492,0
            123.892007,10.347391,0
            123.892103,10.347357,0
            123.89231,10.347307,0
            123.892482,10.347254,0
            123.89275,10.347183,0
            123.892946,10.347109,0
            123.893203,10.346943,0
            123.893549,10.346629,0
            123.893619,10.346341,0
            123.893622,10.346125,0
            123.89345,10.345729,0
            123.893386,10.345526,0
            123.893461,10.345138,0
            123.893576,10.34461,0
            123.893673,10.344193,0
            123.893756,10.343887,0
            123.893858,10.343732,0
            123.894019,10.343647,0
            123.894365,10.343539,0
            123.894611,10.343473,0
            123.894882,10.343354,0
            123.894998,10.343278,0
            123.895268,10.34298,0
            123.895558,10.342663,0
            123.895818,10.342357,0
            123.896255,10.341861,0
            123.896459,10.341658,0
            123.89662,10.341507,0
            123.89672,10.341267,0
            123.896762,10.340906,0
            123.896754,10.340695,0
            123.896658,10.340212,0
            123.896553,10.339476,0
            123.896521,10.339283,0
            123.896521,10.338687,0
            123.896607,10.337985,0
            123.896687,10.337745,0
            123.89691,10.337296,0
            123.897012,10.336979,0
            123.897052,10.336541,0
            123.896966,10.336175,0
            123.896953,10.336074,0
            123.896958,10.335438,0
            123.896985,10.335006,0
            123.896846,10.334818,0
            123.896666,10.334599,0
            123.89658,10.334404,0
            123.89658,10.334219,0
            123.89665,10.333966,0
            123.896894,10.333618,0
            123.897261,10.333201,0
            123.897495,10.332958,0
            123.897787,10.332686,0
            123.898104,10.332383,0
            123.898533,10.332198,0
            123.898694,10.332124,0
            123.898812,10.332029,0
            123.898855,10.33186,0
            123.898817,10.331734,0
            123.898656,10.331604,0
            123.898299,10.331377,0
            123.898122,10.331245,0
            123.898069,10.331158,0
            123.897972,10.330844,0
            123.897843,10.330427,0
            123.897728,10.330008,0
            123.897462,10.329129,0
            123.897412,10.32882,0
            123.897395,10.328607,0
            123.897462,10.328356,0
            123.897591,10.3279,0
            123.897819,10.327195,0
            123.8979,10.326926,0
            123.897975,10.32648,0
            123.897991,10.326385,0
            123.898039,10.325799,0
            123.898093,10.3253,0
            123.898179,10.324825,0
            123.898353,10.324028,0
            123.898431,10.323733,0
            123.898549,10.323197,0
            123.898629,10.32278,0
            123.898796,10.321991,0
            123.8989,10.321522,0
            123.899083,10.320701,0
            123.899187,10.320329,0
            123.899294,10.319941,0
            123.898844,10.319769,0
            123.898787,10.319704,0
            123.898798,10.319624,0
            123.898927,10.319326,0
            123.899107,10.318859,0
            123.899257,10.318424,0
            123.898787,10.318321,0
            123.89835,10.318207,0
            123.897763,10.318075,0
            123.897159,10.317959,0
            123.896537,10.317848,0
            123.895647,10.317709,0
            123.89507,10.317635,0
            123.894705,10.317545,0
            123.894171,10.317392,0
            123.893659,10.317218,0
            123.893278,10.317088,0
            123.892844,10.316972,0
            123.89238,10.316819,0
            123.892267,10.316769,0
            123.891937,10.316679,0
            123.891521,10.316524,0
            123.891055,10.316357,0
            123.890792,10.316257,0
            123.890899,10.315919,0
            123.891293,10.314808,0
            123.891395,10.314502,0
            123.89198,10.312988,0
            123.89257,10.311278,0
            123.892683,10.310935,0
            123.892774,10.310597,0
            123.892763,10.31047,0
            123.892618,10.310354,0
            123.892522,10.310222,0
            123.892425,10.309995,0
            123.892431,10.309758,0
            123.892484,10.309573,0
            123.892613,10.309341,0
            123.892844,10.30924,0
            123.893107,10.309167,0
            123.893273,10.309161,0
            123.893455,10.308707,0
            123.893804,10.307641,0
            123.894024,10.307055,0
            123.894448,10.306042,0
            123.894619,10.305551,0
            123.895263,10.303762,0
            123.895805,10.302253,0
            123.896347,10.300722,0
            123.89677,10.299534,0
            123.897377,10.29793,0
            123.897479,10.297766,0
            123.897312,10.297671,0
            123.896813,10.297534,0
            123.89596,10.297323,0
            123.894678,10.296938,0
            123.893825,10.296653,0
            123.892565,10.296325,0
            123.891723,10.29603,0
            123.891599,10.295945,0
            123.891782,10.295037,0
            123.89205,10.294029,0
            123.892152,10.293634,0
            123.89227,10.293085,0
            123.892447,10.292567,0
            123.893595,10.292747,0
            123.89433,10.292895,0
            123.894877,10.293063,0
            123.895354,10.293127,0
            123.895499,10.293111,0
            123.89566,10.293158,0
            123.896325,10.293275,0
            123.897049,10.293502,0
            123.8972,10.29348,0
            123.897811,10.29367,0
            123.898128,10.293787,0
            123.899013,10.29423,0
            123.899201,10.29432,0
            123.899458,10.294277,0
            123.899705,10.294262,0
            123.899946,10.294198,0
            123.90066,10.294019,0
            123.901164,10.293829,0
            123.901266,10.293734,0
            123.901142,10.293285,0
            123.901014,10.292852,0
            123.901089,10.292377,0
            123.902285,10.292641,0
          </coordinates>
        </LineString>
      </Placemark>
      <Placemark>
        <name>Carbon to Plaza Housing (Busay)</name>
        <description><![CDATA[More cebu jeepneys route maps at cebujeepneys.weebly.com<br> (http://cebujeepneys.weebly.com)or like us at Facebook (http://www.facebook.com/cebujeepneysroutemap)<br><br>Carbon - Cebu City Hall - Mc. Briones St. - MJ. Cuenco Ave. - Osmena Blvd. - Lapulapu St. - Legaspi St. - Cathedral - Colonnade Supermarket - Pelaez St. - Cebu Century Hotel - Hotel de Mercedez - Sto Rosario Church - University of San Carlos Main - Osmena Blvd. - Central Bank of the Philippines - Cebu Normal University - Abellane  Sports Center - Crown Regency HOtel and Suites - Robinsons Fuente Cebu - Fuente Osmena Circle - osmena Blvd - Cebu Provincial Capitol - Escario St. - Gorordo Ave. - UP Lahug - JY Square Mall - Cebu Veterans Drive - Marco Polo HOtel - dcebu Transcentral HIghway - Busay - Plaza Housing.]]></description>
        <styleUrl>#line-33FF33-5000</styleUrl>
        <LineString>
          <tessellate>1</tessellate>
          <coordinates>
            123.90229,10.292636,0
            123.903712,10.292061,0
            123.903894,10.29205,0
            123.904206,10.292778,0
            123.904431,10.293122,0
            123.904608,10.293523,0
            123.90383,10.29386,0
            123.90412,10.294541,0
            123.903363,10.294921,0
            123.902612,10.295201,0
            123.901775,10.295534,0
            123.901212,10.295766,0
            123.90007,10.296278,0
            123.899104,10.296769,0
            123.899002,10.296848,0
            123.898755,10.297376,0
            123.898358,10.298194,0
            123.898208,10.299207,0
            123.898069,10.300147,0
            123.89794,10.300147,0
            123.897623,10.300067,0
            123.896856,10.299719,0
            123.896438,10.300886,0
            123.895944,10.302226,0
            123.895644,10.303055,0
            123.895354,10.303773,0
            123.894904,10.305129,0
            123.894593,10.306047,0
            123.894292,10.306865,0
            123.894238,10.307119,0
            123.893976,10.307694,0
            123.893874,10.307953,0
            123.893681,10.308597,0
            123.893482,10.309098,0
            123.893471,10.30924,0
            123.893611,10.309346,0
            123.893734,10.309478,0
            123.893836,10.30962,0
            123.893879,10.309773,0
            123.893852,10.309958,0
            123.893772,10.310138,0
            123.893654,10.310312,0
            123.893541,10.310449,0
            123.893423,10.310507,0
            123.893219,10.310549,0
            123.893064,10.310581,0
            123.892962,10.310628,0
            123.89286,10.310797,0
            123.89271,10.311325,0
            123.892286,10.312528,0
            123.89213,10.313025,0
            123.891739,10.314006,0
            123.891433,10.314824,0
            123.891224,10.315357,0
            123.891095,10.315758,0
            123.89095,10.316181,0
            123.891556,10.316386,0
            123.891905,10.316508,0
            123.892109,10.316619,0
            123.892259,10.31673,0
            123.892439,10.316796,0
            123.892849,10.316925,0
            123.893308,10.317057,0
            123.893938,10.317257,0
            123.89437,10.317397,0
            123.894898,10.31754,0
            123.895258,10.3176,0
            123.89562,10.317648,0
            123.895995,10.317706,0
            123.896438,10.317782,0
            123.896867,10.317854,0
            123.89721,10.317904,0
            123.897924,10.31806,0
            123.89864,10.318228,0
            123.899193,10.318345,0
            123.899707,10.318476,0
            123.899876,10.318524,0
            123.899887,10.318598,0
            123.899807,10.318841,0
            123.899589,10.3193,0
            123.899501,10.319506,0
            123.899407,10.319775,0
            123.899348,10.319967,0
            123.89919,10.320487,0
            123.899115,10.320809,0
            123.899024,10.321173,0
            123.898967,10.321435,0
            123.898919,10.321701,0
            123.898801,10.322195,0
            123.89872,10.322596,0
            123.898597,10.323216,0
            123.898509,10.323606,0
            123.898433,10.323955,0
            123.898356,10.324282,0
            123.898219,10.324928,0
            123.898133,10.325343,0
            123.898087,10.325891,0
            123.898039,10.326419,0
            123.89801,10.326604,0
            123.897943,10.326984,0
            123.897728,10.327628,0
            123.897562,10.328182,0
            123.897497,10.328435,0
            123.897454,10.328612,0
            123.897441,10.328781,0
            123.897511,10.329142,0
            123.897674,10.329662,0
            123.897908,10.330478,0
            123.898015,10.330818,0
            123.898125,10.331156,0
            123.898216,10.331256,0
            123.898391,10.331385,0
            123.898707,10.331589,0
            123.898852,10.331702,0
            123.898897,10.331858,0
            123.898841,10.332003,0
            123.898817,10.332093,0
            123.89872,10.33218,0
            123.898133,10.33242,0
            123.897779,10.332768,0
            123.897363,10.333161,0
            123.896926,10.333655,0
            123.896706,10.333992,0
            123.896639,10.334219,0
            123.89662,10.334391,0
            123.896711,10.334573,0
            123.897015,10.33495,0
            123.897033,10.335016,0
            123.896998,10.335594,0
            123.89699,10.33599,0
            123.89702,10.336183,0
            123.897079,10.336441,0
            123.897095,10.336544,0
            123.897063,10.336982,0
            123.896972,10.337278,0
            123.896789,10.337652,0
            123.896725,10.337787,0
            123.896666,10.338016,0
            123.896585,10.338613,0
            123.896572,10.339275,0
            123.896698,10.340111,0
            123.896813,10.340718,0
            123.896808,10.341006,0
            123.896768,10.341317,0
            123.896671,10.341539,0
            123.896207,10.341988,0
            123.895751,10.34251,0
            123.895338,10.34298,0
            123.895014,10.343331,0
            123.894853,10.343441,0
            123.894606,10.343539,0
            123.894367,10.343594,0
            123.894129,10.343666,0
            123.89397,10.343724,0
            123.893892,10.343771,0
            123.893825,10.343893,0
            123.893723,10.344183,0
            123.893619,10.344634,0
            123.893482,10.345259,0
            123.893431,10.345505,0
            123.893485,10.345711,0
            123.893654,10.346109,0
            123.893664,10.346157,0
            123.893675,10.34631,0
            123.893648,10.346436,0
            123.893589,10.346655,0
            123.893278,10.346943,0
            123.892972,10.347159,0
            123.892723,10.347246,0
            123.892431,10.347323,0
            123.892243,10.347384,0
            123.892023,10.347444,0
            123.891886,10.347534,0
            123.891757,10.347737,0
            123.891672,10.347885,0
            123.891629,10.348077,0
            123.891588,10.348223,0
            123.891529,10.348299,0
            123.891419,10.348402,0
            123.891312,10.348484,0
            123.891132,10.348587,0
            123.890947,10.348663,0
            123.890778,10.348711,0
            123.890467,10.348758,0
            123.890226,10.348742,0
            123.889987,10.348698,0
            123.889845,10.348674,0
            123.889526,10.34869,0
            123.889183,10.348589,0
            123.889094,10.348576,0
            123.888987,10.348576,0
            123.888928,10.348618,0
            123.888906,10.348705,0
            123.888971,10.349014,0
            123.889064,10.34945,0
            123.889048,10.349558,0
            123.889011,10.349647,0
            123.888893,10.3497,0
            123.888786,10.349711,0
            123.888651,10.349669,0
            123.888533,10.349603,0
            123.888375,10.349576,0
            123.888161,10.349695,0
            123.888107,10.34988,0
            123.888102,10.350035,0
            123.888139,10.350165,0
            123.888359,10.350436,0
            123.888858,10.350909,0
            123.889089,10.351194,0
            123.889193,10.351397,0
            123.889263,10.351592,0
            123.889255,10.351647,0
            123.889217,10.351845,0
            123.889134,10.351956,0
            123.88904,10.352067,0
            123.888802,10.352188,0
            123.888533,10.352278,0
            123.88826,10.352423,0
            123.888161,10.352663,0
            123.888056,10.352735,0
            123.887874,10.352837,0
            123.887718,10.352885,0
            123.887549,10.352922,0
            123.887356,10.352919,0
            123.887136,10.352893,0
            123.886999,10.352943,0
            123.88686,10.353046,0
            123.88672,10.353202,0
            123.886664,10.353291,0
            123.886728,10.35393,0
            123.886747,10.354241,0
            123.886755,10.354542,0
            123.886752,10.354645,0
            123.886613,10.354732,0
            123.886503,10.354745,0
            123.886385,10.354732,0
            123.886237,10.354727,0
            123.886077,10.354711,0
            123.885808,10.354692,0
            123.885671,10.354758,0
            123.885444,10.354885,0
            123.885334,10.35503,0
            123.885256,10.355162,0
            123.885226,10.355318,0
            123.885202,10.355476,0
            123.885178,10.355547,0
            123.8851,10.355706,0
            123.884963,10.355795,0
            123.884781,10.355872,0
            123.884615,10.355948,0
            123.884465,10.355972,0
            123.884239,10.355935,0
            123.884097,10.355903,0
            123.88399,10.355893,0
            123.883874,10.355903,0
            123.883783,10.355922,0
            123.883775,10.355983,0
            123.883751,10.356101,0
            123.883805,10.356202,0
            123.883944,10.35632,0
            123.884019,10.356355,0
            123.884086,10.356661,0
            123.884129,10.356898,0
            123.884196,10.357046,0
            123.884336,10.357215,0
            123.884352,10.357357,0
            123.884363,10.357497,0
            123.884296,10.357764,0
            123.884234,10.35793,0
            123.884228,10.358099,0
            123.884277,10.358215,0
            123.884376,10.358347,0
            123.884478,10.358455,0
            123.884607,10.358523,0
            123.88488,10.358579,0
            123.885049,10.358595,0
            123.885189,10.358655,0
            123.885266,10.358727,0
            123.88535,10.358859,0
            123.885417,10.359067,0
            123.885446,10.359331,0
            123.885492,10.359703,0
            123.885513,10.360233,0
            123.885516,10.360555,0
            123.885548,10.360922,0
            123.885602,10.36126,0
            123.885545,10.361394,0
            123.885401,10.361539,0
            123.885001,10.36188,0
            123.884757,10.362072,0
            123.884478,10.362299,0
            123.884231,10.362415,0
            123.884035,10.36246,0
            123.883896,10.362468,0
            123.883732,10.362428,0
            123.883561,10.362365,0
            123.883392,10.36232,0
            123.883156,10.362302,0
            123.883038,10.362328,0
            123.88274,10.362502,0
            123.882547,10.362584,0
            123.882364,10.362603,0
            123.882118,10.362584,0
            123.88189,10.362555,0
            123.881777,10.36261,0
            123.881731,10.362703,0
            123.881565,10.36293,0
            123.88156,10.363062,0
            123.881721,10.363249,0
          </coordinates>
        </LineString>
      </Placemark>
    </Folder>
  </Document>
</kml>
