<?xml version="1.0" encoding="UTF-8"?>
<kml xmlns="http://www.opengis.net/kml/2.2">
  <Document>
    <name>Cebu Jeepney Route No. 04H</name>
    <description><![CDATA[more cebu jeepneys route maps at cebujeepneys.weebly.com<br><br>Plaza Housing to Carbon<br><br>busay to jy <br>busay to gorordo ave.<br>busay to up lahug<br>busay to lahug<br>busay to provincial capitol<br>busay to fuente osmena<br>busay to robinsons fuente<br>busay to abellana sports center<br>busay to colon<br>busay to e mall<br>busay to carbon<br>plaza housing to jy<br>plaza housing to capitol<br>plaza housing to fuente<br>plaza housing to colon<br>plaza housing to e mall<br>plaza housing to carbon<br>jy to escario st<br>jy to fuente osmena<br>jy to robinsons place<br>jy to crown regency<br>jy to colon<br>jy to emall<br>jy to carbon<br>jy to basilica del sto. nino<br>jy to cebu metropolitan cathedral<br>capitol to fuente<br>capitol to abellana<br>capitol to colon<br>capitol to e mall<br>capitol to carbon<br>fuente to sanciangko st.<br>fuente to e mall<br>fuente to carbon<br><br>Carbon to Plaza Housing<br><br>carbon to colon<br>carbon to jones ave.<br>carbon to cebu normal university<br>carbon to fuente osmena<br>carbon to provincial capitol<br>carbon to escario st.<br>carbon to lahug<br>carbon to jy<br>carbon to plaza housing]]></description>
    <Style id="line-0000FF-5000-normal">
      <LineStyle>
        <color>ffff0000</color>
        <width>5</width>
      </LineStyle>
    </Style>
    <Style id="line-0000FF-5000-highlight">
      <LineStyle>
        <color>ffff0000</color>
        <width>7.5</width>
      </LineStyle>
    </Style>
    <StyleMap id="line-0000FF-5000">
      <Pair>
        <key>normal</key>
        <styleUrl>#line-0000FF-5000-normal</styleUrl>
      </Pair>
      <Pair>
        <key>highlight</key>
        <styleUrl>#line-0000FF-5000-highlight</styleUrl>
      </Pair>
    </StyleMap>
    <Style id="line-FF0000-5000-normal">
      <LineStyle>
        <color>ff0000ff</color>
        <width>5</width>
      </LineStyle>
    </Style>
    <Style id="line-FF0000-5000-highlight">
      <LineStyle>
        <color>ff0000ff</color>
        <width>7.5</width>
      </LineStyle>
    </Style>
    <StyleMap id="line-FF0000-5000">
      <Pair>
        <key>normal</key>
        <styleUrl>#line-FF0000-5000-normal</styleUrl>
      </Pair>
      <Pair>
        <key>highlight</key>
        <styleUrl>#line-FF0000-5000-highlight</styleUrl>
      </Pair>
    </StyleMap>
    <Folder>
      <name>Untitled layer</name>
      <Placemark>
        <name>Plaza Housing to Carbon</name>
        <description><![CDATA[more cebu jeepneys route maps at cebujeepneys.weebly.com (http://cebujeepneys.weebly.com)<br>Like us on our Facebook Page (http://facebook.com/cebujeepneysroutemap)<br><br> <br>Plaza Housing to Carbon via Jones Ave.<br><br> <br>Plaza Housing (Busay) - Cebu Transcentral Highway - Cebu Veterans Drive - Marco Polo Plaza Hotel - Lahug - Jy Square Mall - Gorordo Ave. - Dep-ed - Beverly Hills - Mormons Church (church of Jesus Christ of Latter day Saints - Lahug Elem. School - Sugbo Cultural Center - University of the Philippines (Cebu) - Harolds Hotel - Molave St. - Morales St. - N. Escario St. - Our Lady of Sacred Heart Parish - Capitol Tourist Inn - Cebu Pension Plaza -  - The Maxwell Hotel - Escario Central - Cebu Provincial Capitol - Osmena Blvd (Jones Ave.) - Cebu Doctors Hospital - Fuente Osmena Circle - Robinsons Fuente - Crown Regency Hotel - Visayas Community Medical Center - Harrison Park - Cebu City Sports Center(Abellana) - Cebu Normal University - GV Tower Hotel - Sanciangko St. - Elizabeth Mall - New Cebu Coliseum - Panganiban St. - Magallanes St. - University of San Jose Recoletos - Carbon Public Market - Escano St. - El Filibusterismo St. - Progreso St. -]]></description>
        <styleUrl>#line-0000FF-5000</styleUrl>
        <LineString>
          <tessellate>1</tessellate>
          <coordinates>
            123.881847,10.363415,0
            123.881624,10.363223,0
            123.88154,10.363112,0
            123.881519,10.363075,0
            123.881516,10.362964,0
            123.881554,10.36284,0
            123.881707,10.362645,0
            123.881766,10.36255,0
            123.881833,10.362508,0
            123.882002,10.362521,0
            123.882291,10.362539,0
            123.882442,10.36255,0
            123.882557,10.362531,0
            123.882699,10.362473,0
            123.882927,10.362336,0
            123.883091,10.362265,0
            123.883217,10.36223,0
            123.883469,10.362281,0
            123.88371,10.36237,0
            123.883836,10.362405,0
            123.883965,10.362439,0
            123.884204,10.362365,0
            123.884421,10.362265,0
            123.884853,10.361932,0
            123.885245,10.3616,0
            123.885419,10.361457,0
            123.885507,10.361391,0
            123.88555,10.361262,0
            123.885518,10.361019,0
            123.885481,10.360626,0
            123.88547,10.360228,0
            123.885438,10.359758,0
            123.885414,10.359402,0
            123.885387,10.359151,0
            123.885336,10.35894,0
            123.885269,10.358853,0
            123.885229,10.358745,0
            123.885121,10.358679,0
            123.885017,10.35864,0
            123.884818,10.358616,0
            123.884601,10.358571,0
            123.884443,10.358492,0
            123.884354,10.358405,0
            123.884271,10.35831,0
            123.884182,10.35813,0
            123.88418,10.357909,0
            123.884311,10.357526,0
            123.884317,10.357418,0
            123.884276,10.35726,0
            123.884199,10.357112,0
            123.88411,10.356956,0
            123.884054,10.356835,0
            123.88404,10.356671,0
            123.883979,10.356402,0
            123.883828,10.356291,0
            123.883748,10.356225,0
            123.883702,10.356122,0
            123.883702,10.355972,0
            123.883767,10.355888,0
            123.883844,10.355856,0
            123.883989,10.355851,0
            123.884091,10.355874,0
            123.884236,10.35588,0
            123.884483,10.355919,0
            123.884671,10.35589,0
            123.884821,10.355816,0
            123.884968,10.355745,0
            123.885049,10.355682,0
            123.885135,10.355539,0
            123.885159,10.355434,0
            123.885188,10.355207,0
            123.885239,10.355072,0
            123.885317,10.354961,0
            123.885422,10.354851,0
            123.885521,10.354774,0
            123.885701,10.35469,0
            123.885824,10.354661,0
            123.886017,10.354661,0
            123.886269,10.354687,0
            123.886446,10.354692,0
            123.886527,10.354708,0
            123.886655,10.354653,0
            123.886706,10.354603,0
            123.886698,10.354397,0
            123.886693,10.354104,0
            123.886666,10.353819,0
            123.886631,10.353463,0
            123.886604,10.353265,0
            123.886763,10.35308,0
            123.886967,10.352901,0
            123.887138,10.352837,0
            123.887366,10.352874,0
            123.887538,10.35288,0
            123.887715,10.352843,0
            123.887967,10.352761,0
            123.888098,10.352655,0
            123.888216,10.352413,0
            123.888469,10.352249,0
            123.888699,10.352178,0
            123.889013,10.352017,0
            123.889134,10.351888,0
            123.889201,10.351663,0
            123.889187,10.351494,0
            123.889102,10.351289,0
            123.88878,10.350903,0
            123.888557,10.350671,0
            123.888187,10.350312,0
            123.888088,10.35018,0
            123.88805,10.350067,0
            123.888061,10.349877,0
            123.888117,10.349663,0
            123.888343,10.349534,0
            123.88849,10.349547,0
            123.888651,10.3496,0
            123.888726,10.349655,0
            123.888777,10.349671,0
            123.888898,10.349653,0
            123.888981,10.349618,0
            123.889005,10.349489,0
            123.888986,10.349307,0
            123.888906,10.348972,0
            123.888863,10.348724,0
            123.888882,10.348613,0
            123.888962,10.34855,0
            123.889043,10.348529,0
            123.889123,10.348518,0
            123.889316,10.348581,0
            123.889523,10.348642,0
            123.889847,10.348629,0
            123.889971,10.34865,0
            123.890266,10.348705,0
            123.890437,10.348705,0
            123.890673,10.348679,0
            123.890926,10.348613,0
            123.891084,10.348555,0
            123.891336,10.348402,0
            123.891489,10.348273,0
            123.891575,10.348138,0
            123.891615,10.347914,0
            123.891666,10.347787,0
            123.89176,10.347608,0
            123.891837,10.347497,0
            123.891998,10.347399,0
            123.892261,10.347315,0
            123.892605,10.347217,0
            123.892757,10.347178,0
            123.892951,10.347122,0
            123.893189,10.346951,0
            123.893543,10.346653,0
            123.893605,10.346397,0
            123.893618,10.34613,0
            123.893452,10.34575,0
            123.89339,10.345518,0
            123.893554,10.344692,0
            123.893761,10.343906,0
            123.893849,10.34374,0
            123.893997,10.343658,0
            123.894284,10.343568,0
            123.894573,10.343486,0
            123.894804,10.343399,0
            123.894989,10.343299,0
            123.895432,10.342795,0
            123.89596,10.342246,0
            123.896397,10.341753,0
            123.896558,10.3416,0
            123.89662,10.341534,0
            123.896724,10.341283,0
            123.896751,10.341093,0
            123.896762,10.340708,0
            123.896671,10.340291,0
            123.896577,10.339647,0
            123.896523,10.339291,0
            123.896537,10.338673,0
            123.896601,10.338132,0
            123.89669,10.337758,0
            123.89691,10.337296,0
            123.896995,10.33704,0
            123.897025,10.3369,0
            123.897049,10.336555,0
            123.896942,10.336051,0
            123.896958,10.33547,0
            123.896982,10.334982,0
            123.896802,10.334776,0
            123.896649,10.334568,0
            123.89659,10.334407,0
            123.89659,10.334209,0
            123.896649,10.333977,0
            123.896837,10.333697,0
            123.897108,10.333364,0
            123.897414,10.33304,0
            123.8981,10.332393,0
            123.898347,10.332267,0
            123.898704,10.332143,0
            123.898803,10.332027,0
            123.898857,10.331847,0
            123.898819,10.331736,0
            123.898699,10.331633,0
            123.898385,10.331435,0
            123.898202,10.331306,0
            123.898082,10.331182,0
            123.897862,10.33048,0
            123.897712,10.329918,0
            123.897626,10.32967,0
            123.897591,10.329639,0
            123.897441,10.329214,0
            123.897403,10.329053,0
            123.897376,10.328828,0
            123.897379,10.328594,0
            123.897473,10.328132,0
            123.897612,10.327783,0
            123.897821,10.327116,0
            123.897897,10.326923,0
            123.897977,10.326369,0
            123.897999,10.3261,0
            123.898082,10.325382,0
            123.898186,10.324862,0
            123.898294,10.324379,0
            123.898369,10.324028,0
            123.898479,10.323538,0
            123.898546,10.323208,0
            123.898618,10.322852,0
            123.898784,10.322184,0
            123.898924,10.321424,0
            123.899125,10.32058,0
            123.899307,10.319949,0
            123.898846,10.319756,0
            123.898817,10.319711,0
            123.898803,10.319635,0
            123.899026,10.319144,0
            123.899138,10.318825,0
            123.899275,10.318416,0
            123.898851,10.318321,0
            123.898621,10.318268,0
            123.898017,10.318123,0
            123.897218,10.317962,0
            123.8968,10.317885,0
            123.896209,10.317785,0
            123.895759,10.317714,0
            123.89518,10.317637,0
            123.894949,10.3176,0
            123.894707,10.31755,0
            123.894211,10.317389,0
            123.893704,10.317228,0
            123.893291,10.317086,0
            123.892849,10.316967,0
            123.892411,10.316838,0
            123.892264,10.316761,0
            123.891939,10.316679,0
            123.891524,10.316545,0
            123.891352,10.316479,0
            123.891148,10.316413,0
            123.890907,10.316302,0
            123.890826,10.316133,0
            123.890979,10.315677,0
            123.891272,10.314816,0
            123.891604,10.313938,0
            123.891969,10.312988,0
            123.892261,10.312143,0
            123.892556,10.311291,0
            123.892693,10.310898,0
            123.892776,10.310592,0
            123.892757,10.310491,0
            123.89265,10.310343,0
            123.892562,10.310217,0
            123.892489,10.310051,0
            123.89247,10.309987,0
            123.892476,10.309744,0
            123.892511,10.309586,0
            123.892567,10.309478,0
            123.892653,10.309349,0
            123.892953,10.309225,0
            123.893176,10.309182,0
            123.893286,10.309143,0
            123.893436,10.308715,0
            123.893656,10.30805,0
            123.893825,10.30752,0
            123.894037,10.307016,0
            123.894286,10.306414,0
            123.894437,10.306039,0
            123.894595,10.30557,0
            123.894874,10.304818,0
            123.895112,10.304142,0
            123.895426,10.303295,0
            123.895729,10.302424,0
            123.896038,10.30163,0
            123.896365,10.300661,0
            123.896698,10.299724,0
            123.896781,10.299484,0
            123.89699,10.298919,0
            123.897146,10.2985,0
            123.897341,10.297996,0
            123.897363,10.297917,0
            123.897487,10.297756,0
            123.897296,10.297671,0
            123.896663,10.297502,0
            123.895963,10.297312,0
            123.895316,10.297125,0
            123.894485,10.296872,0
            123.893844,10.296663,0
            123.893602,10.296581,0
            123.892556,10.296317,0
            123.892559,10.296275,0
            123.892916,10.295879,0
            123.893423,10.295344,0
            123.893887,10.294818,0
            123.894176,10.294528,0
            123.894305,10.294531,0
            123.894643,10.294132,0
            123.894927,10.293771,0
            123.895432,10.293211,0
            123.895501,10.293135,0
            123.895542,10.293108,0
            123.895681,10.29314,0
            123.896,10.29319,0
            123.896319,10.293267,0
            123.897049,10.293467,0
            123.897202,10.293467,0
            123.897344,10.292457,0
            123.897849,10.292457,0
            123.898117,10.292446,0
            123.898632,10.292303,0
            123.899313,10.292108,0
            123.899487,10.291974,0
          </coordinates>
        </LineString>
      </Placemark>
      <Placemark>
        <name>Carbon to Plaza Housing</name>
        <description><![CDATA[more cebu jeepneys route maps atcebujeepneys.weebly.com (http://cebujeepneys.weebly.com)<br>Like us on our Facebook Page (http://facebook.com/cebujeepneysroutemap)<br><br> <br>Carbon to Plaza Housing<br><br> <br>Carbon Public Market - MC. Briones St. - Cebu City Hall - La Nueva Supermarket(City Hall) - Basilica del Sto. Nino - Lapulapu St. - MCWD - DFA - Legaspi St. - Cebu Metropolitan Cathedral - Cebu Eastern College - Colonnade Supermarket - Pelaez St. - Hotel de Mercedes - P. del Rosario St. - University of San Carlos(Main) - Osmena Blvd.(Jones Ave.) - Cebu City Sports Center(Abellana) - Cebu Normal University - Visayas Community Medical Center - Crown Regency Hotel - Robinsons Place Cebu(fuente) - Fuente Osmena Circle - <br>Cebu Doctors Hospital - Cebu Provincial Capitol - N. Escario St. - Capitol Tourist Inn - Our Lady of Sacred Heart Parish - Golden Peak Hotel - PHILHEALTH - Gorordo Ave. - Harolds Hotel - University of the Philippines(Cebu) - Sugbo Cultural Center - Lahug Elem. School - Church of Jesus Christ of Latter Day Saints - Dep-ed - Beverly Hills - Lahug - Jy Square Mall - Cebu Veterans Drive - Marco Polo Plaza Hotel - Cebu Transcentral Highway - Busay - Plaza Housing]]></description>
        <styleUrl>#line-FF0000-5000</styleUrl>
        <LineString>
          <tessellate>1</tessellate>
          <coordinates>
            123.899493,10.291974,0
            123.900185,10.292106,0
            123.90111,10.292375,0
            123.902314,10.292623,0
            123.903038,10.292314,0
            123.903422,10.293127,0
            123.903816,10.293876,0
            123.904133,10.29457,0
            123.903363,10.294948,0
            123.902625,10.295225,0
            123.901762,10.295544,0
            123.901231,10.29579,0
            123.900099,10.296273,0
            123.899031,10.296745,0
            123.898621,10.297505,0
            123.898452,10.297882,0
            123.898315,10.298196,0
            123.898186,10.29902,0
            123.898106,10.2996,0
            123.898082,10.300173,0
            123.897929,10.300152,0
            123.897712,10.300107,0
            123.897548,10.300065,0
            123.897253,10.299925,0
            123.896971,10.299817,0
            123.896867,10.299745,0
            123.896649,10.300315,0
            123.896314,10.301244,0
            123.895973,10.302173,0
            123.895566,10.303245,0
            123.895365,10.303775,0
            123.895024,10.30476,0
            123.894799,10.305498,0
            123.894485,10.306367,0
            123.894278,10.306918,0
            123.894233,10.307158,0
            123.893897,10.3079,0
            123.893613,10.30876,0
            123.893479,10.309114,0
            123.893495,10.309275,0
            123.893624,10.309386,0
            123.893731,10.309496,0
            123.89382,10.309639,0
            123.893852,10.309805,0
            123.893844,10.309919,0
            123.893814,10.310029,0
            123.893736,10.310177,0
            123.893551,10.310404,0
            123.893326,10.310523,0
            123.893122,10.310589,0
            123.892977,10.310647,0
            123.892913,10.310737,0
            123.89287,10.310829,0
            123.892798,10.311101,0
            123.89272,10.311336,0
            123.8925,10.311985,0
            123.892189,10.312856,0
            123.892133,10.313019,0
            123.89191,10.313608,0
            123.891545,10.314555,0
            123.891427,10.314856,0
            123.89125,10.315349,0
            123.891129,10.315679,0
            123.890993,10.316167,0
            123.891553,10.316376,0
            123.891988,10.316532,0
            123.892288,10.316727,0
            123.892446,10.316801,0
            123.892859,10.31693,0
            123.893318,10.317057,0
            123.89423,10.317365,0
            123.894748,10.317516,0
            123.895053,10.31759,0
            123.895646,10.317661,0
            123.896016,10.317709,0
            123.896682,10.317822,0
            123.897202,10.31792,0
            123.898055,10.318096,0
            123.898709,10.318252,0
            123.899315,10.318397,0
            123.899852,10.318521,0
            123.899895,10.318595,0
            123.899793,10.318872,0
            123.899552,10.319403,0
            123.899356,10.319928,0
            123.899246,10.320297,0
            123.899157,10.320603,0
            123.899058,10.321041,0
            123.898967,10.321435,0
            123.898822,10.322202,0
            123.898699,10.322693,0
            123.898591,10.323232,0
            123.898444,10.323894,0
            123.898299,10.324533,0
            123.898119,10.32538,0
            123.898052,10.32596,0
            123.898015,10.326409,0
            123.897918,10.326944,0
            123.89773,10.327549,0
            123.897599,10.327931,0
            123.897521,10.328145,0
            123.897425,10.328625,0
            123.897414,10.328847,0
            123.897467,10.329161,0
            123.89762,10.329623,0
            123.897682,10.329683,0
            123.897907,10.330501,0
            123.898125,10.331158,0
            123.898221,10.331267,0
            123.898548,10.331496,0
            123.898723,10.331596,0
            123.898865,10.331718,0
            123.8989,10.331863,0
            123.898854,10.332053,0
            123.898717,10.332174,0
            123.898353,10.332317,0
            123.89813,10.332436,0
            123.897588,10.332945,0
            123.897352,10.333164,0
            123.897036,10.333533,0
            123.896856,10.333765,0
            123.896692,10.334,0
            123.896641,10.334238,0
            123.896633,10.334396,0
            123.896698,10.334568,0
            123.897028,10.335,0
            123.89699,10.335715,0
            123.89699,10.336072,0
            123.897092,10.336528,0
            123.897052,10.33699,0
            123.896955,10.337304,0
            123.896716,10.337766,0
            123.896655,10.338067,0
            123.896585,10.338557,0
            123.896569,10.339009,0
            123.896561,10.339267,0
            123.896703,10.340156,0
            123.896797,10.340687,0
            123.896792,10.341101,0
            123.896751,10.341333,0
            123.896671,10.341557,0
            123.89644,10.341774,0
            123.896209,10.342054,0
            123.895542,10.342761,0
            123.895083,10.343259,0
            123.894976,10.343354,0
            123.89486,10.343439,0
            123.894595,10.343536,0
            123.894158,10.343668,0
            123.894018,10.343711,0
            123.893892,10.343774,0
            123.893795,10.343903,0
            123.893661,10.344478,0
            123.893543,10.344964,0
            123.893423,10.34551,0
            123.893508,10.34575,0
            123.893656,10.346141,0
            123.893659,10.346383,0
            123.893584,10.346661,0
            123.893281,10.346946,0
            123.892951,10.347162,0
            123.892629,10.347265,0
            123.892293,10.347368,0
            123.891996,10.347449,0
            123.891902,10.347521,0
            123.891795,10.347679,0
            123.891671,10.347906,0
            123.891609,10.348157,0
            123.89155,10.348267,0
            123.89143,10.348376,0
            123.891175,10.348566,0
            123.890963,10.348653,0
            123.890711,10.348721,0
            123.890464,10.348758,0
            123.890231,10.348742,0
            123.889845,10.348671,0
            123.889536,10.348682,0
            123.889228,10.348608,0
            123.889118,10.348566,0
            123.889,10.348576,0
            123.888922,10.348634,0
            123.888898,10.348756,0
            123.888989,10.349104,0
            123.889069,10.34945,0
            123.889035,10.349558,0
            123.889008,10.349637,0
            123.888879,10.349703,0
            123.888761,10.349711,0
            123.888691,10.34969,0
            123.888557,10.349608,0
            123.888367,10.349576,0
            123.888174,10.349692,0
            123.888112,10.349895,0
            123.888112,10.350064,0
            123.888136,10.350162,0
            123.888206,10.350241,0
            123.888388,10.350452,0
            123.888796,10.350837,0
            123.889126,10.351238,0
            123.889233,10.351529,0
            123.889257,10.351679,0
            123.889187,10.35188,0
            123.889064,10.352019,0
            123.888965,10.352099,0
            123.888742,10.352202,0
            123.888485,10.352302,0
            123.888267,10.352439,0
            123.888144,10.352679,0
            123.88798,10.352798,0
            123.887811,10.352864,0
            123.887522,10.352922,0
            123.887296,10.352917,0
            123.887133,10.352895,0
            123.88698,10.352946,0
            123.886663,10.353283,0
            123.886709,10.353866,0
            123.886752,10.354518,0
            123.886741,10.35464,0
            123.886613,10.354737,0
            123.886468,10.354758,0
            123.886312,10.35474,0
            123.886071,10.354695,0
            123.885819,10.354703,0
            123.885647,10.354766,0
            123.885427,10.354895,0
            123.885312,10.355051,0
            123.885242,10.355178,0
            123.885202,10.355465,0
            123.885164,10.355563,0
            123.8851,10.355716,0
            123.884912,10.355808,0
            123.884719,10.355903,0
            123.884515,10.355977,0
            123.884343,10.355951,0
            123.884126,10.355903,0
            123.883893,10.355882,0
            123.883796,10.355922,0
            123.883745,10.355988,0
            123.883751,10.35612,0
            123.883783,10.356209,0
            123.883901,10.356278,0
            123.884027,10.356368,0
            123.884097,10.356766,0
            123.884129,10.356906,0
            123.884228,10.357104,0
            123.884319,10.357252,0
            123.884365,10.357539,0
            123.884295,10.357703,0
            123.88425,10.357911,0
            123.884223,10.358096,0
            123.884284,10.358236,0
            123.884394,10.358399,0
            123.88451,10.358473,0
            123.884644,10.358537,0
            123.884979,10.358579,0
            123.885129,10.35861,0
            123.885255,10.358729,0
            123.885328,10.358835,0
            123.885373,10.358959,0
            123.885435,10.359233,0
            123.885478,10.359613,0
            123.885494,10.359985,0
            123.885518,10.360484,0
            123.885556,10.361001,0
            123.885588,10.361257,0
            123.885558,10.361344,0
            123.885529,10.361439,0
            123.885381,10.361542,0
            123.8851,10.3618,0
            123.884778,10.362041,0
            123.884486,10.362278,0
            123.884201,10.362413,0
            123.883954,10.362468,0
            123.883743,10.362434,0
            123.883482,10.362362,0
            123.883297,10.362289,0
            123.88312,10.362304,0
            123.882992,10.362341,0
            123.882884,10.362418,0
            123.882707,10.36251,0
            123.882576,10.362568,0
            123.882479,10.362589,0
            123.882208,10.362587,0
            123.881905,10.362552,0
            123.881836,10.362566,0
            123.881777,10.362597,0
            123.881734,10.362661,0
            123.881599,10.362851,0
            123.881559,10.362953,0
            123.881559,10.36307,0
            123.881683,10.36322,0
            123.881886,10.363397,0
          </coordinates>
        </LineString>
      </Placemark>
    </Folder>
  </Document>
</kml>
