<?xml version="1.0" encoding="UTF-8"?>
<kml xmlns="http://www.opengis.net/kml/2.2">
  <Document>
    <name>Cebu Jeepney Route No. 04i</name>
    <description><![CDATA[Busay(plaza housing) to Carbon<br><br>Busay to jy <br>busay to gorordo<br>busay to mango<br>busay to robinsons fuente<br>busay to ramos<br>busay to junquera st.<br>busay to e mall<br>busay to carbon<br>busay to sto.nino<br>plaza housing to mango<br>plaza housing to ramos<br>plaza housing to sanciangko<br>plaza housing to carbon<br>plaza housing to sto.nino<br>jy to gorordo<br>jy to mango ave.<br>jy to robinsons fuente<br>jy to ramos<br>jy to sanciangko<br>jy to elizabeth mall<br>jy to carbon<br>jy to sto.nino<br>gorordo to mango<br>gorordo to robinsons fuente<br>gorordo to ramos<br>gorordo to sanciangko st.<br>gorordo to elizabeth mall<br>gorordo to carbon<br>gorordo to sto. nino<br>mango to carbon<br>mango to elizabeth mall<br>mango to sto. nino<br><br>CARBON TO BUSAY(plaza housing)<br>carbon to colon<br>carbon to ramos<br>carbon to robinsons fuente<br>carbon to mango ave<br>carbon to mango square <br>carbon to gorordo ave.<br>carbon to jy square<br>carbon to marco polo<br>carbon to busay<br>carbon to plaza housing<br>colon to ramos<br>colon to robinsons fuente<br>colon to mango ave<br>colon to the beat<br>colon to horizons 101 >>>]]></description>
    <Style id="line-0000FF-5000-normal">
      <LineStyle>
        <color>ffff0000</color>
        <width>5</width>
      </LineStyle>
    </Style>
    <Style id="line-0000FF-5000-highlight">
      <LineStyle>
        <color>ffff0000</color>
        <width>7.5</width>
      </LineStyle>
    </Style>
    <StyleMap id="line-0000FF-5000">
      <Pair>
        <key>normal</key>
        <styleUrl>#line-0000FF-5000-normal</styleUrl>
      </Pair>
      <Pair>
        <key>highlight</key>
        <styleUrl>#line-0000FF-5000-highlight</styleUrl>
      </Pair>
    </StyleMap>
    <Style id="line-33FF33-5000-normal">
      <LineStyle>
        <color>ff33ff33</color>
        <width>5</width>
      </LineStyle>
    </Style>
    <Style id="line-33FF33-5000-highlight">
      <LineStyle>
        <color>ff33ff33</color>
        <width>7.5</width>
      </LineStyle>
    </Style>
    <StyleMap id="line-33FF33-5000">
      <Pair>
        <key>normal</key>
        <styleUrl>#line-33FF33-5000-normal</styleUrl>
      </Pair>
      <Pair>
        <key>highlight</key>
        <styleUrl>#line-33FF33-5000-highlight</styleUrl>
      </Pair>
    </StyleMap>
    <Folder>
      <name>Untitled layer</name>
      <Placemark>
        <name>Plaza Housing to Carbon</name>
        <description><![CDATA[more cebu jeepneys route map at cebujeepneys.weebly.com (http://cebujeepneys.weebly.com)<br><br> <br>Busay -Plaza Housing - Trancentral Highway -  Cebu Veterans Drive - Marco Polo Hotel - Jy Square Mall - Gorordo Ave. - Lahug - UP(lahug) - Harolds Hotel - Golden Peak Hotel - Philhealth - Royal Concourse - Perpetual Soccor - Asilo dela Milagrosa - Mango Ave. - Gen. Maxilom Ave. - Fooda Mango - Horizon 101 - Robinsons Place (fuente) - F. Ramos St. - Junquera ext. - Junquera St. - Sancianko St. - elizabeth Mall -  Panganbiban ST. - Magallanes St. - Usjr - Manalili St. - Carbon Public Market - Progresso St. -]]></description>
        <styleUrl>#line-0000FF-5000</styleUrl>
        <LineString>
          <tessellate>1</tessellate>
          <coordinates>
            123.881796,10.363302,0
            123.881721,10.36331,0
            123.881552,10.363162,0
            123.881514,10.36308,0
            123.881517,10.362959,0
            123.881718,10.362595,0
            123.881849,10.362515,0
            123.88197,10.362515,0
            123.882386,10.36255,0
            123.882533,10.362534,0
            123.882694,10.362463,0
            123.883072,10.362244,0
            123.883209,10.36222,0
            123.883357,10.362249,0
            123.883689,10.362357,0
            123.883853,10.362407,0
            123.883971,10.362418,0
            123.884199,10.36236,0
            123.884448,10.362244,0
            123.88492,10.361872,0
            123.885323,10.361529,0
            123.885494,10.361389,0
            123.885545,10.361283,0
            123.88547,10.3607,0
            123.885465,10.360112,0
            123.885406,10.359368,0
            123.885382,10.359146,0
            123.885339,10.358946,0
            123.88524,10.358771,0
            123.885162,10.358705,0
            123.885038,10.35864,0
            123.88488,10.358618,0
            123.884604,10.358576,0
            123.884475,10.35851,0
            123.884341,10.358399,0
            123.884247,10.358267,0
            123.884188,10.358112,0
            123.884178,10.357919,0
            123.884266,10.357679,0
            123.884312,10.357505,0
            123.884304,10.357315,0
            123.884279,10.357241,0
            123.884164,10.357067,0
            123.884089,10.356922,0
            123.884046,10.356745,0
            123.884017,10.35655,0
            123.88399,10.356407,0
            123.883858,10.35632,0
            123.883751,10.35622,0
            123.883705,10.356112,0
            123.883722,10.355956,0
            123.883767,10.355882,0
            123.883866,10.355837,0
            123.884,10.355837,0
            123.884384,10.355917,0
            123.884529,10.355943,0
            123.88476,10.355835,0
            123.884988,10.355727,0
            123.885116,10.355545,0
            123.885159,10.355436,0
            123.885183,10.355183,0
            123.885226,10.355093,0
            123.885291,10.354985,0
            123.885395,10.354856,0
            123.885779,10.354655,0
            123.886026,10.354653,0
            123.886267,10.354687,0
            123.886506,10.354703,0
            123.88661,10.354676,0
            123.886693,10.354613,0
            123.886704,10.354513,0
            123.886696,10.354078,0
            123.886664,10.35384,0
            123.886656,10.353658,0
            123.886608,10.353278,0
            123.886972,10.352893,0
            123.887131,10.352843,0
            123.887326,10.352869,0
            123.88752,10.352874,0
            123.887694,10.35284,0
            123.887874,10.352779,0
            123.888104,10.35265,0
            123.888214,10.352394,0
            123.888493,10.352244,0
            123.888775,10.352143,0
            123.889005,10.352022,0
            123.889102,10.351909,0
            123.889166,10.351777,0
            123.889209,10.351616,0
            123.889115,10.35136,0
            123.889078,10.351262,0
            123.88885,10.350983,0
            123.888571,10.350687,0
            123.888228,10.350357,0
            123.888091,10.350188,0
            123.888051,10.350054,0
            123.888059,10.34989,0
            123.888118,10.349663,0
            123.888386,10.349513,0
            123.888558,10.34955,0
            123.88878,10.349663,0
            123.888866,10.349661,0
            123.888973,10.349595,0
            123.889024,10.34946,0
            123.888928,10.349025,0
            123.888853,10.348742,0
            123.888871,10.348616,0
            123.888984,10.348529,0
            123.88914,10.348523,0
            123.88933,10.348581,0
            123.88952,10.348637,0
            123.889875,10.348626,0
            123.890271,10.348695,0
            123.890462,10.348708,0
            123.890733,10.348666,0
            123.89106,10.348563,0
            123.891309,10.348431,0
            123.891519,10.34823,0
            123.891562,10.348146,0
            123.891647,10.347814,0
            123.891741,10.347658,0
            123.891854,10.347492,0
            123.892004,10.347389,0
            123.89216,10.347339,0
            123.892339,10.347302,0
            123.89271,10.347191,0
            123.892938,10.347114,0
            123.893243,10.346906,0
            123.893533,10.34665,0
            123.893616,10.346402,0
            123.893605,10.346135,0
            123.89345,10.345745,0
            123.893396,10.34555,0
            123.893394,10.345481,0
            123.893496,10.344956,0
            123.893603,10.344476,0
            123.89375,10.343919,0
            123.893777,10.343845,0
            123.893879,10.343726,0
            123.894013,10.343637,0
            123.894271,10.343536,0
            123.894804,10.343373,0
            123.89507,10.343402,0
            123.89547,10.342906,0
            123.895708,10.342594,0
            123.896368,10.341813,0
            123.896612,10.341523,0
            123.896711,10.341286,0
            123.896762,10.340718,0
            123.896661,10.340238,0
            123.896559,10.339528,0
            123.896513,10.339296,0
            123.896518,10.338718,0
            123.896593,10.338106,0
            123.896679,10.337755,0
            123.896913,10.33728,0
            123.897004,10.337003,0
            123.897044,10.336541,0
            123.896942,10.33608,0
            123.896956,10.335502,0
            123.896982,10.334992,0
            123.8968,10.334784,0
            123.896644,10.334581,0
            123.896583,10.334399,0
            123.896652,10.333984,0
            123.896905,10.333594,0
            123.897216,10.333243,0
            123.897409,10.33304,0
            123.898104,10.332375,0
            123.898683,10.33214,0
            123.898806,10.332024,0
            123.898855,10.331863,0
            123.89882,10.331744,0
            123.898659,10.331604,0
            123.898128,10.331251,0
            123.898066,10.331137,0
            123.89791,10.330654,0
            123.897768,10.330158,0
            123.897637,10.329678,0
            123.897454,10.329145,0
            123.897401,10.328776,0
            123.897403,10.328604,0
            123.897535,10.328084,0
            123.897795,10.327277,0
            123.897892,10.326965,0
            123.897986,10.326435,0
            123.898079,10.32538,0
            123.898189,10.324786,0
            123.898441,10.323672,0
            123.898549,10.323174,0
            123.898712,10.322392,0
            123.898887,10.32159,0
            123.899045,10.320867,0
            123.899278,10.320025,0
            123.899514,10.319363,0
            123.899799,10.318722,0
            123.899855,10.318564,0
            123.900118,10.318141,0
            123.900257,10.317925,0
            123.900496,10.317508,0
            123.900587,10.317281,0
            123.900965,10.316587,0
            123.901387,10.315822,0
            123.901652,10.315334,0
            123.901765,10.315054,0
            123.901942,10.31474,0
            123.90221,10.314254,0
            123.902516,10.313621,0
            123.902736,10.313193,0
            123.903047,10.312616,0
            123.903278,10.312143,0
            123.903744,10.311043,0
            123.903835,10.310834,0
            123.903843,10.310787,0
            123.903811,10.31075,0
            123.903752,10.310747,0
            123.903058,10.311032,0
            123.90251,10.311259,0
            123.901928,10.311407,0
            123.90133,10.311478,0
            123.901008,10.311526,0
            123.900193,10.311549,0
            123.899815,10.311552,0
            123.899214,10.311486,0
            123.89824,10.311267,0
            123.897377,10.310964,0
            123.895982,10.310478,0
            123.895389,10.310285,0
            123.894845,10.310095,0
            123.894327,10.309927,0
            123.894356,10.309842,0
            123.894783,10.309309,0
            123.89518,10.308823,0
            123.895513,10.308319,0
            123.895907,10.307852,0
            123.896537,10.307008,0
            123.896897,10.306491,0
            123.897369,10.305831,0
            123.897505,10.305615,0
            123.898138,10.304799,0
            123.898109,10.30462,0
            123.898125,10.303894,0
            123.898171,10.303176,0
            123.898192,10.302522,0
            123.898224,10.302134,0
            123.898192,10.301989,0
            123.898578,10.301355,0
            123.898991,10.300632,0
            123.899327,10.300036,0
            123.899549,10.299664,0
            123.899791,10.299197,0
            123.899938,10.298917,0
            123.899514,10.298724,0
            123.898669,10.298355,0
            123.898366,10.298207,0
            123.897513,10.29774,0
            123.897138,10.297613,0
            123.896599,10.297476,0
            123.89596,10.297315,0
            123.89467,10.296919,0
            123.893855,10.296655,0
            123.893718,10.296602,0
            123.892562,10.296309,0
            123.893131,10.295663,0
            123.894163,10.294528,0
            123.894249,10.294536,0
            123.894303,10.294533,0
            123.894917,10.293842,0
            123.895432,10.29323,0
            123.895494,10.293124,0
            123.895513,10.293098,0
            123.895649,10.29314,0
            123.896306,10.293277,0
            123.897052,10.29348,0
            123.897213,10.293491,0
            123.897808,10.293663,0
            123.898128,10.293784,0
            123.899029,10.294235,0
            123.89883,10.293634,0
            123.898737,10.293372,0
            123.89846,10.292398,0
            123.899327,10.292137,0
            123.899442,10.292,0
          </coordinates>
        </LineString>
      </Placemark>
      <Placemark>
        <name>Carbon to Busay(plaza housing)</name>
        <description><![CDATA[more cebu jeepneys route map at cebujeepneys.weebly.com (http://cebujeepneys.weebly.com)<br><br> <br>Carbon - M.C. Briones St. - Cebu City Hall - La Nueva Supermart (city hall) - Prince Warehouse Club (city hall) - Basilica del Sto. Nino - Lapu-lapu St.- Legaspi St. - Cebu Metropolitan Cathedral - D. Jakosalem St. - Gaisano Main - University of the Visayas - Cogon Ramos - Echavez Ext. - F. Ramos St. - Robinsons Place - Mango ave. - Gen. Maxilom Ave. - One Mango Ave. - The Beat - Horizons 101 - Fooaa Mango - Gorordo Ave. - Royal Concourse - Golden Peak Hotel - Philhealth - Harolds Hotel - UP(cebu) - Lahug - JY square Mall - Cebu Veterans Drive - Marco Polo - Cebu Transcentral Highway - Plaza Housing - Busay.]]></description>
        <styleUrl>#line-33FF33-5000</styleUrl>
        <LineString>
          <tessellate>1</tessellate>
          <coordinates>
            123.899445,10.292,0
            123.899493,10.291971,0
            123.899879,10.292066,0
            123.90019,10.292129,0
            123.90111,10.292396,0
            123.902317,10.292647,0
            123.903033,10.292325,0
            123.903406,10.293114,0
            123.903817,10.293868,0
            123.904125,10.294557,0
            123.903361,10.294935,0
            123.902615,10.295204,0
            123.90177,10.295539,0
            123.902057,10.296368,0
            123.90217,10.29679,0
            123.902167,10.296932,0
            123.902199,10.297067,0
            123.902154,10.297566,0
            123.902079,10.297761,0
            123.901918,10.298378,0
            123.901716,10.299249,0
            123.90169,10.299679,0
            123.90158,10.300125,0
            123.901274,10.300801,0
            123.901108,10.301023,0
            123.900995,10.301186,0
            123.900925,10.301305,0
            123.900791,10.301659,0
            123.900598,10.302192,0
            123.900343,10.302691,0
            123.900284,10.302823,0
            123.900099,10.303403,0
            123.900086,10.304245,0
            123.899914,10.305171,0
            123.898766,10.304831,0
            123.898441,10.304736,0
            123.898297,10.304733,0
            123.898146,10.304841,0
            123.897527,10.30567,0
            123.89739,10.305892,0
            123.89688,10.306578,0
            123.896545,10.307063,0
            123.896054,10.307715,0
            123.895547,10.308346,0
            123.895309,10.30871,0
            123.895,10.309111,0
            123.894378,10.30989,0
            123.895126,10.310143,0
            123.895403,10.310241,0
            123.896159,10.310489,0
            123.896937,10.310758,0
            123.897814,10.311069,0
            123.898254,10.311212,0
            123.899235,10.311425,0
            123.899826,10.31152,0
            123.900381,10.311499,0
            123.900925,10.311494,0
            123.901679,10.311386,0
            123.901912,10.311359,0
            123.902529,10.311196,0
            123.903835,10.310673,0
            123.903892,10.310671,0
            123.903911,10.310679,0
            123.903919,10.310705,0
            123.903924,10.310734,0
            123.903825,10.31099,0
            123.903497,10.311753,0
            123.903312,10.312196,0
            123.902945,10.312893,0
            123.902693,10.313383,0
            123.902481,10.313808,0
            123.902073,10.314624,0
            123.901808,10.315046,0
            123.901716,10.315326,0
            123.901607,10.315508,0
            123.901311,10.316078,0
            123.900965,10.316706,0
            123.900636,10.317292,0
            123.900542,10.317521,0
            123.9003,10.317957,0
            123.899909,10.318564,0
            123.899807,10.318846,0
            123.899584,10.319331,0
            123.899343,10.319952,0
            123.899104,10.320841,0
            123.89897,10.321416,0
            123.898879,10.321817,0
            123.898683,10.322706,0
            123.898506,10.323588,0
            123.898305,10.324472,0
            123.898168,10.325155,0
            123.898122,10.325403,0
            123.898047,10.326295,0
            123.898034,10.32649,0
            123.897951,10.326852,0
            123.897943,10.326973,0
            123.897712,10.327683,0
            123.897578,10.328119,0
            123.897511,10.32838,0
            123.89746,10.328588,0
            123.897446,10.328762,0
            123.897505,10.329113,0
            123.897664,10.32962,0
            123.897808,10.330132,0
            123.897921,10.33053,0
            123.897964,10.33066,0
            123.898023,10.330868,0
            123.898128,10.331145,0
            123.898227,10.331267,0
            123.898487,10.331435,0
            123.898715,10.331596,0
            123.89886,10.331713,0
            123.8989,10.331858,0
            123.89886,10.332037,0
            123.898699,10.332195,0
            123.898144,10.332417,0
            123.897551,10.332974,0
            123.897272,10.333256,0
            123.897031,10.333531,0
            123.896921,10.333655,0
            123.896816,10.333829,0
            123.896701,10.333982,0
            123.896644,10.334196,0
            123.896628,10.334386,0
            123.896693,10.334539,0
            123.897012,10.334926,0
            123.897036,10.335006,0
            123.897001,10.335557,0
            123.896985,10.335969,0
            123.897004,10.336088,0
            123.89709,10.336536,0
            123.897076,10.336787,0
            123.897055,10.33699,0
            123.896958,10.337317,0
            123.896725,10.33776,0
            123.896647,10.338061,0
            123.896569,10.338702,0
            123.896572,10.339286,0
            123.896701,10.340125,0
            123.896803,10.340689,0
            123.896803,10.341122,0
            123.896754,10.341333,0
            123.896671,10.341534,0
            123.896416,10.341824,0
            123.896036,10.342267,0
            123.895582,10.342842,0
            123.895094,10.343455,0
            123.894821,10.34342,0
            123.894362,10.343558,0
            123.89404,10.343684,0
            123.89389,10.343774,0
            123.893812,10.34389,0
            123.893622,10.3446,0
            123.893482,10.345215,0
            123.893436,10.345513,0
            123.893509,10.345771,0
            123.893654,10.346128,0
            123.893656,10.346402,0
            123.893573,10.346671,0
            123.893136,10.347059,0
            123.892948,10.347175,0
            123.892264,10.347365,0
            123.891961,10.347465,0
            123.89187,10.347542,0
            123.891688,10.347858,0
            123.891634,10.348001,0
            123.891605,10.348159,0
            123.891543,10.34827,0
            123.891379,10.348439,0
            123.891167,10.348571,0
            123.890998,10.348634,0
            123.89076,10.348708,0
            123.890465,10.348748,0
            123.890151,10.348729,0
            123.889896,10.348674,0
            123.889813,10.348676,0
            123.889534,10.348676,0
            123.889158,10.348589,0
            123.889056,10.348571,0
            123.888992,10.348574,0
            123.888936,10.348621,0
            123.888906,10.348716,0
            123.888936,10.348866,0
            123.889056,10.349397,0
            123.889062,10.349473,0
            123.88904,10.349568,0
            123.889011,10.349632,0
            123.888874,10.349711,0
            123.888743,10.349708,0
            123.888614,10.349655,0
            123.888536,10.3496,0
            123.888386,10.349574,0
            123.888174,10.349684,0
            123.888112,10.349895,0
            123.888102,10.350048,0
            123.888131,10.350141,0
            123.888364,10.350426,0
            123.888641,10.350671,0
            123.888987,10.351078,0
            123.889126,10.351244,0
            123.889252,10.351581,0
            123.889207,10.351832,0
            123.889038,10.352051,0
            123.888815,10.35217,0
            123.888525,10.352275,0
            123.888257,10.352434,0
            123.88815,10.352666,0
            123.887989,10.352793,0
            123.887798,10.352872,0
            123.88763,10.352901,0
            123.887525,10.352924,0
            123.887302,10.352922,0
            123.887117,10.35289,0
            123.887015,10.352922,0
            123.886769,10.353141,0
            123.886667,10.35327,0
            123.886691,10.353611,0
            123.886726,10.354001,0
            123.886739,10.354386,0
            123.886752,10.354552,0
            123.886739,10.354624,0
            123.886642,10.354713,0
            123.886527,10.354753,0
            123.886259,10.354742,0
            123.885921,10.354692,0
            123.885787,10.3547,0
            123.88546,10.354866,0
            123.885325,10.355019,0
            123.885275,10.355091,0
            123.885237,10.355178,0
            123.885218,10.355344,0
            123.885197,10.355479,0
            123.885162,10.355597,0
            123.885076,10.355721,0
            123.884977,10.355787,0
            123.884754,10.355898,0
            123.884569,10.355959,0
            123.884462,10.355969,0
            123.884242,10.355938,0
            123.883998,10.35589,0
            123.883872,10.355898,0
            123.883783,10.355919,0
            123.883751,10.355985,0
            123.883743,10.356101,0
            123.883789,10.356196,0
            123.884019,10.356357,0
            123.884065,10.356605,0
            123.884124,10.356877,0
            123.884237,10.357107,0
            123.884322,10.35722,0
            123.884355,10.357355,0
            123.884363,10.35751,0
            123.88425,10.357885,0
            123.884223,10.357959,0
            123.884234,10.358122,0
            123.884328,10.358297,0
            123.884408,10.358405,0
            123.884585,10.358518,0
            123.884886,10.358568,0
            123.885047,10.358579,0
            123.885197,10.358663,0
            123.88528,10.358732,0
            123.885336,10.358853,0
            123.885385,10.358985,0
            123.885419,10.35917,0
            123.885473,10.359502,0
            123.885494,10.360048,0
            123.885524,10.360336,0
            123.885529,10.360719,0
            123.885596,10.361246,0
            123.885562,10.361344,0
            123.885532,10.361423,0
            123.88539,10.361542,0
            123.884958,10.361903,0
            123.884483,10.362291,0
            123.884228,10.362394,0
            123.883984,10.36246,0
            123.883815,10.362449,0
            123.883563,10.36237,0
            123.883249,10.362286,0
            123.883086,10.362304,0
            123.882651,10.362544,0
            123.882437,10.362603,0
            123.881941,10.362566,0
            123.881849,10.362568,0
            123.881742,10.362618,0
            123.881688,10.36275,0
            123.88156,10.362946,0
            123.881549,10.363075,0
            123.881659,10.363199,0
            123.881753,10.363259,0
            123.881796,10.363244,0
            123.881852,10.363186,0
          </coordinates>
        </LineString>
      </Placemark>
    </Folder>
  </Document>
</kml>
