<?xml version="1.0" encoding="UTF-8"?>
<kml xmlns="http://www.opengis.net/kml/2.2">
  <Document>
    <name>Cebu Jeepney Route No. 06B</name>
    <description><![CDATA[More Cebu Jeepney Routes @ cebujeepneys.weebly.com<br><br>Guadalupe to Carbon<br><br>guadalupe to capitol<br>guadalupe to osmena blvd.<br>guadalupe to fuente osmena<br>guadalupe to robinsons fuente<br>guadalupe to jones ave.<br>guadalupe to abellana sports center<br>guadalupe to metro colon<br>guadalupe to colon<br>guadalupe to USJ-R<br>guadalupe to Carbon <br>guadalupe to cebu city hall<br>guadalupe to basilica del sto. nino<br>capitol to fuente<br>capitol to jones ave.<br>capitol to colon<br>capitol to metro colon<br>capitol to usjr<br>capitol to carbon<br>capitol to cebu city hall<br>capitol to basilica del sto. nino<br>fuente to abellana<br>fuente to colon<br>fuente to metro colon<br>fuente to usjr<br>fuente to carbon<br>fuente to basilica del sto. nino<br><br>]]></description>
    <Style id="line-0000FF-5000-normal">
      <LineStyle>
        <color>ffff0000</color>
        <width>5</width>
      </LineStyle>
    </Style>
    <Style id="line-0000FF-5000-highlight">
      <LineStyle>
        <color>ffff0000</color>
        <width>7.5</width>
      </LineStyle>
    </Style>
    <StyleMap id="line-0000FF-5000">
      <Pair>
        <key>normal</key>
        <styleUrl>#line-0000FF-5000-normal</styleUrl>
      </Pair>
      <Pair>
        <key>highlight</key>
        <styleUrl>#line-0000FF-5000-highlight</styleUrl>
      </Pair>
    </StyleMap>
    <Style id="line-33FF33-5000-normal">
      <LineStyle>
        <color>ff33ff33</color>
        <width>5</width>
      </LineStyle>
    </Style>
    <Style id="line-33FF33-5000-highlight">
      <LineStyle>
        <color>ff33ff33</color>
        <width>7.5</width>
      </LineStyle>
    </Style>
    <StyleMap id="line-33FF33-5000">
      <Pair>
        <key>normal</key>
        <styleUrl>#line-33FF33-5000-normal</styleUrl>
      </Pair>
      <Pair>
        <key>highlight</key>
        <styleUrl>#line-33FF33-5000-highlight</styleUrl>
      </Pair>
    </StyleMap>
    <Style id="line-FF0000-5000-normal">
      <LineStyle>
        <color>ff0000ff</color>
        <width>5</width>
      </LineStyle>
    </Style>
    <Style id="line-FF0000-5000-highlight">
      <LineStyle>
        <color>ff0000ff</color>
        <width>7.5</width>
      </LineStyle>
    </Style>
    <StyleMap id="line-FF0000-5000">
      <Pair>
        <key>normal</key>
        <styleUrl>#line-FF0000-5000-normal</styleUrl>
      </Pair>
      <Pair>
        <key>highlight</key>
        <styleUrl>#line-FF0000-5000-highlight</styleUrl>
      </Pair>
    </StyleMap>
    <Folder>
      <name>Walang pamagat na layer</name>
      <Placemark>
        <name>Guadalupe to Cebu City Downtown Area</name>
        <description><![CDATA[more cebu jeepneys route maps at cebujeepneys.weebly.com (http://cebujeepneys.weebly.com\)<br>Like us on our Facebook Page (http://www.facebook.com/cebujeepneysroutemap)<br><br> <br>Guadalupe to Carbon<br><br> <br>Guadalupe Church - Fooda (guadalupe0 - PRC - M. Velez St. - Provincial Capitol - Jones Ave. - Fuente Osmena Circle - Robinsons Place - Crown Regency Hotel - Osmena Blvd. - Abellana Sports Complex - Metro Gaisano - USJR - Carbon Public Market - Cebu City Hall - Basilica Menore del Snr. Snto. Nino - Osmena Blvd.]]></description>
        <styleUrl>#line-0000FF-5000</styleUrl>
        <LineString>
          <tessellate>1</tessellate>
          <coordinates>
            123.880264,10.331011,0
            123.88005,10.330715,0
            123.880334,10.329982,0
            123.880484,10.329697,0
            123.880683,10.329438,0
            123.880827,10.329396,0
            123.881015,10.329422,0
            123.881407,10.328588,0
            123.881755,10.327834,0
            123.882383,10.326609,0
            123.882501,10.326366,0
            123.882576,10.326203,0
            123.883215,10.324836,0
            123.88329,10.324525,0
            123.883359,10.324224,0
            123.883612,10.323765,0
            123.883703,10.323522,0
            123.883778,10.323174,0
            123.883832,10.322947,0
            123.884137,10.321617,0
            123.884368,10.320392,0
            123.884572,10.319558,0
            123.884797,10.318492,0
            123.885001,10.317621,0
            123.885226,10.31655,0
            123.885591,10.315648,0
            123.886868,10.316255,0
            123.887978,10.31664,0
            123.889797,10.317252,0
            123.890086,10.316445,0
            123.890129,10.316207,0
            123.890231,10.316059,0
            123.890253,10.315917,0
            123.890682,10.314587,0
            123.891304,10.314787,0
            123.891985,10.312982,0
            123.892576,10.311267,0
            123.89279,10.310602,0
            123.892779,10.310486,0
            123.89271,10.310391,0
            123.892618,10.31027,0
            123.892495,10.310058,0
            123.892484,10.3097,0
            123.89257,10.309478,0
            123.892635,10.30933,0
            123.89301,10.309188,0
            123.893262,10.309145,0
            123.893461,10.308702,0
            123.89352,10.308502,0
            123.893911,10.307388,0
            123.894013,10.307066,0
            123.894196,10.306644,0
            123.894453,10.306031,0
            123.894619,10.305551,0
            123.894947,10.304633,0
            123.895274,10.303746,0
            123.895859,10.302089,0
            123.896787,10.299508,0
            123.896883,10.299281,0
            123.897414,10.297867,0
            123.8975,10.29774,0
            123.897704,10.297349,0
            123.898224,10.296257,0
            123.898101,10.295824,0
            123.89802,10.295602,0
            123.897886,10.295027,0
            123.897859,10.294821,0
            123.898122,10.293797,0
            123.897854,10.293618,0
            123.897977,10.293248,0
            123.898809,10.293375,0
            123.899683,10.293153,0
            123.900381,10.292953,0
            123.900198,10.292156,0
            123.901148,10.292377,0
            123.902301,10.292647,0
            123.903047,10.292319,0
            123.903422,10.2931,0
            123.903798,10.293866,0
          </coordinates>
        </LineString>
      </Placemark>
      <Placemark>
        <name>Basilica del Snto. Nino - Guadalupe</name>
        <description><![CDATA[more cebu jeepneys route maps at cebujeepneys.weebly.com (http://cebujeepneys.weebly.com)<br>Like us on our Facebook Page (http://www.facebook.com/cebujeepneysroutemap)<br><br> <br>Carbon to Guadalupe<br><br> <br>Osmena Blvd. - Basilica del sto. Nino - Metro Gaisano (colon) - Abellana Sports Complex - Cebu Normal University - Crown Regency Hotel - Robinsons Place Cebu - Fuente Osmena Circle - Cebu Doctors University - Provincial Capitol - M. Velez St. - PRC - Fooda (guadalupe) - Guadalupe Church.]]></description>
        <styleUrl>#line-33FF33-5000</styleUrl>
        <LineString>
          <tessellate>1</tessellate>
          <coordinates>
            123.903755,10.293887,0
            123.903036,10.294188,0
            123.902371,10.294489,0
            123.901598,10.294847,0
            123.901008,10.29509,0
            123.900746,10.295217,0
            123.900332,10.295396,0
            123.899539,10.295761,0
            123.898895,10.295993,0
            123.89824,10.296209,0
            123.898181,10.296389,0
            123.897795,10.297165,0
            123.897586,10.297613,0
            123.897505,10.297761,0
            123.897516,10.297956,0
            123.897216,10.298769,0
            123.896915,10.299561,0
            123.896384,10.301023,0
            123.895977,10.302131,0
            123.895445,10.30353,0
            123.895145,10.304438,0
            123.894775,10.305551,0
            123.894356,10.306691,0
            123.894287,10.306881,0
            123.894233,10.307108,0
            123.894083,10.307462,0
            123.893992,10.307668,0
            123.893901,10.307873,0
            123.893815,10.308127,0
            123.893729,10.308385,0
            123.893632,10.308723,0
            123.893504,10.309003,0
            123.893455,10.30913,0
            123.893477,10.309246,0
            123.8936,10.309304,0
            123.893686,10.309404,0
            123.893793,10.309547,0
            123.893858,10.309678,0
            123.893874,10.309837,0
            123.893852,10.309948,0
            123.893815,10.310085,0
            123.893761,10.31018,0
            123.893713,10.310248,0
            123.893627,10.310328,0
            123.893568,10.310417,0
            123.893461,10.310497,0
            123.893337,10.310528,0
            123.893176,10.310549,0
            123.893074,10.31056,0
            123.892989,10.310618,0
            123.892919,10.310692,0
            123.89286,10.310808,0
            123.892715,10.311304,0
            123.892275,10.312608,0
            123.89213,10.313035,0
            123.891417,10.31483,0
            123.891234,10.315347,0
            123.890961,10.316165,0
            123.890907,10.316286,0
            123.890285,10.316123,0
            123.890183,10.316165,0
            123.890097,10.316371,0
            123.889909,10.317062,0
            123.889818,10.317252,0
            123.888332,10.316782,0
            123.887361,10.316439,0
            123.886621,10.316165,0
            123.886095,10.315901,0
            123.885612,10.315669,0
            123.885446,10.316043,0
            123.885339,10.316339,0
            123.885248,10.316555,0
            123.885167,10.316893,0
            123.885001,10.317743,0
            123.884899,10.318133,0
            123.884819,10.318513,0
            123.884556,10.319696,0
            123.884405,10.320387,0
            123.883923,10.322609,0
            123.883858,10.322931,0
            123.883772,10.323342,0
            123.883719,10.323538,0
            123.883628,10.323744,0
            123.883402,10.324176,0
            123.883392,10.32424,0
            123.883349,10.324298,0
            123.883268,10.324752,0
            123.883016,10.325311,0
            123.882759,10.325881,0
            123.882303,10.326783,0
            123.8819,10.327601,0
            123.881514,10.328425,0
            123.881053,10.329417,0
            123.881219,10.32966,0
            123.881058,10.329992,0
            123.880806,10.330472,0
            123.880634,10.33081,0
            123.880495,10.330953,0
            123.880307,10.331005,0
          </coordinates>
        </LineString>
      </Placemark>
      <Placemark>
        <name>From Capitol to Guadalupe Re-route on other days</name>
        <description>From M. Velez St. right turn to E. Osmena St.</description>
        <styleUrl>#line-FF0000-5000</styleUrl>
        <LineString>
          <tessellate>1</tessellate>
          <coordinates>
            123.886868,10.316276,0
            123.886728,10.31703,0
            123.886557,10.317648,0
            123.886444,10.318276,0
            123.886224,10.318893,0
            123.88528,10.318603,0
            123.884813,10.318524,0
          </coordinates>
        </LineString>
      </Placemark>
    </Folder>
  </Document>
</kml>
