<?xml version="1.0" encoding="UTF-8"?>
<kml xmlns="http://www.opengis.net/kml/2.2">
  <Document>
    <name>Cebu Jeepneys Route No. 06G</name>
    <description><![CDATA[<br>more cebu jeepneys route map at cebujeepneys.weebly.com<br><br>GUADALUPE TO C. PADILLA<br><br>Guadalupe to Calamba<br>guadalupe to katipunan<br>guadalupe to labangon<br>guadalupe to tres de abril <br>guadalupe to taboan <br>guadalupe to pasil<br>guadalupe to c. padilla<br>labangon to taboan<br>labangon to pasil<br>labangon to c. padilla<br><br>C. PADILLA ST. TO GUADALUPE<br><br>taboan to guadalupe <br>pasil to hiway<br>pasil to c. padilla<br>pasil to guadalupe<br>c. padilla to hiway<br>c. padilla to guadalup<br>c. padilla to v. rama<br>c. padilla to PRC<br>]]></description>
    <Style id="line-3333FF-5000-normal">
      <LineStyle>
        <color>ffff3333</color>
        <width>5</width>
      </LineStyle>
    </Style>
    <Style id="line-3333FF-5000-highlight">
      <LineStyle>
        <color>ffff3333</color>
        <width>7.5</width>
      </LineStyle>
    </Style>
    <StyleMap id="line-3333FF-5000">
      <Pair>
        <key>normal</key>
        <styleUrl>#line-3333FF-5000-normal</styleUrl>
      </Pair>
      <Pair>
        <key>highlight</key>
        <styleUrl>#line-3333FF-5000-highlight</styleUrl>
      </Pair>
    </StyleMap>
    <Style id="line-33FFFF-5000-normal">
      <LineStyle>
        <color>ffffff33</color>
        <width>5</width>
      </LineStyle>
    </Style>
    <Style id="line-33FFFF-5000-highlight">
      <LineStyle>
        <color>ffffff33</color>
        <width>7.5</width>
      </LineStyle>
    </Style>
    <StyleMap id="line-33FFFF-5000">
      <Pair>
        <key>normal</key>
        <styleUrl>#line-33FFFF-5000-normal</styleUrl>
      </Pair>
      <Pair>
        <key>highlight</key>
        <styleUrl>#line-33FFFF-5000-highlight</styleUrl>
      </Pair>
    </StyleMap>
    <Folder>
      <name>Untitled layer</name>
      <Placemark>
        <name>Guadalupe to C. Padilla St.</name>
        <description><![CDATA[more cebu jeepneys route map at cebujeepneys.weebly.com (http://cebujeepneys.weebly.com)<br><br> <br>Guadalupe Church - V. rama Ave. - Fooda Saversmart - PRC - Securities and Exchange Commission - Calamba Cemetery - University of San Carlos (girls high school) - Katipunan st. - tres de abril st. - Carlock st. - San Nicolas Elementary school - B. aranas St. - Taboan Public Market - Pasil Fish Market - San Nicolas Church - Carlos Gothong HS - C. Padilla St.]]></description>
        <styleUrl>#line-3333FF-5000</styleUrl>
        <LineString>
          <tessellate>1</tessellate>
          <coordinates>
            123.88026,10.33102,0
            123.88004,10.33072,0
            123.88038,10.3299,0
            123.88066,10.32944,0
            123.881,10.3294,0
            123.88319,10.32485,0
            123.88333,10.3242,0
            123.88364,10.32357,0
            123.88523,10.31655,0
            123.88555,10.31565,0
            123.88573,10.31465,0
            123.88613,10.31298,0
            123.88609,10.31243,0
            123.88644,10.31021,0
            123.88664,10.3083,0
            123.88667,10.30508,0
            123.8868,10.30361,0
            123.88666,10.30082,0
            123.88671,10.30045,0
            123.88715,10.29942,0
            123.88817,10.29751,0
            123.888413,10.297133,0
            123.88859,10.296874,0
            123.886562,10.296389,0
            123.8865,10.2963,0
            123.88685,10.29443,0
            123.88797,10.29453,0
            123.89185,10.29502,0
            123.89224,10.29362,0
            123.89244,10.2926,0
            123.89136,10.29238,0
            123.89095,10.2938,0
            123.89088,10.29386,0
            123.88595,10.29296,0
            123.88373,10.29238,0
          </coordinates>
        </LineString>
      </Placemark>
      <Placemark>
        <name>C. Padilla St. to Guadalupe </name>
        <description><![CDATA[more cebu jeepneys route map at cebujeepneys.weebly.com (http://cebujeepneys.weebly.conm)<br><br> <br>C. Padilla St. - R. Padilla st. - N. Bacalso Hi-way - Salazar Colleges - V. rama Ave. - USC (girls HS) - Queensland Hotel - Calamba Cemetery - Securities and Exchange Commission - PRC - Fooda saversmart - Guadalupe Church.]]></description>
        <styleUrl>#line-33FFFF-5000</styleUrl>
        <LineString>
          <tessellate>1</tessellate>
          <coordinates>
            123.883718,10.292414,0
            123.883536,10.292847,0
            123.88338,10.293343,0
            123.883192,10.29386,0
            123.883106,10.294082,0
            123.882913,10.294668,0
            123.882865,10.295022,0
            123.88367,10.295571,0
            123.88426,10.295998,0
            123.884485,10.296151,0
            123.885225,10.296478,0
            123.885826,10.29669,0
            123.886094,10.296774,0
            123.886631,10.296911,0
            123.887291,10.297011,0
            123.888235,10.297149,0
            123.888331,10.29717,0
            123.888353,10.297286,0
            123.88816,10.297587,0
            123.88802,10.297872,0
            123.887795,10.298315,0
            123.887591,10.298695,0
            123.887301,10.299186,0
            123.887087,10.299666,0
            123.886894,10.300094,0
            123.886754,10.300437,0
            123.886685,10.30078,0
            123.886722,10.301413,0
            123.88676,10.302369,0
            123.886813,10.303181,0
            123.886829,10.303767,0
            123.88677,10.304395,0
            123.886711,10.304939,0
            123.886711,10.305303,0
            123.886685,10.30581,0
            123.886701,10.306269,0
            123.886679,10.306844,0
            123.886685,10.307509,0
            123.88669,10.307968,0
            123.886679,10.308343,0
            123.886626,10.308787,0
            123.886545,10.30952,0
            123.886508,10.310037,0
            123.886406,10.310592,0
            123.886298,10.311357,0
            123.886223,10.311927,0
            123.886132,10.312433,0
            123.88618,10.312982,0
            123.886025,10.313547,0
            123.885891,10.314128,0
            123.885762,10.314634,0
            123.88566,10.315199,0
            123.88559,10.315637,0
            123.88551,10.315832,0
            123.885338,10.316307,0
            123.885231,10.316582,0
            123.885177,10.316861,0
            123.885081,10.317331,0
            123.885011,10.317648,0
            123.884904,10.318165,0
            123.884818,10.318524,0
            123.8847,10.319115,0
            123.884533,10.319828,0
            123.884383,10.320456,0
            123.884249,10.321184,0
            123.884067,10.321928,0
            123.88389,10.32283,0
            123.883777,10.323205,0
            123.883648,10.323664,0
            123.883482,10.324028,0
            123.883364,10.324234,0
            123.883267,10.324736,0
            123.883047,10.325248,0
            123.882656,10.326039,0
            123.882189,10.327,0
            123.881497,10.328451,0
            123.881025,10.329422,0
            123.881218,10.329681,0
            123.88088,10.33033,0
            123.880591,10.330868,0
            123.880462,10.330984,0
            123.880279,10.331016,0
          </coordinates>
        </LineString>
      </Placemark>
    </Folder>
  </Document>
</kml>
