<?xml version="1.0" encoding="UTF-8"?>
<kml xmlns="http://www.opengis.net/kml/2.2">
  <Document>
    <name>Cebu Jeepney Route No. 06H</name>
    <description><![CDATA[more cebu jeepneys route map at cebujeepneys.weebly.com<br><br><br>Guadalupe Church - V. rama ave. - crown regency residences - Fooda Saversmart (guadalupe branch) -corner banawa - cebu provincial capitol - bo's coffee (jones ave.) - cebu doctors university (jones ave.) - n. escario st. - philhealth - ayala center cebu - cabantan st. - juan luna avenue (mabolo) - mabolo church - Sm City cebu puj terminal<br><br>sm terminal - mabolo church - ayala center terminal - asilo - fooda mango - mango avenue - robinsons fuente - fuente circle - vicente sotto hospital - b. rodriguez st. - v. rama avenue. corner banawa - PRC (professional regulations commission) - fooda (guadalupe branch) - guadalupe church.]]></description>
    <Style id="line-0000FF-5000-normal">
      <LineStyle>
        <color>ffff0000</color>
        <width>5</width>
      </LineStyle>
    </Style>
    <Style id="line-0000FF-5000-highlight">
      <LineStyle>
        <color>ffff0000</color>
        <width>7.5</width>
      </LineStyle>
    </Style>
    <StyleMap id="line-0000FF-5000">
      <Pair>
        <key>normal</key>
        <styleUrl>#line-0000FF-5000-normal</styleUrl>
      </Pair>
      <Pair>
        <key>highlight</key>
        <styleUrl>#line-0000FF-5000-highlight</styleUrl>
      </Pair>
    </StyleMap>
    <Style id="line-FF0000-5000-normal">
      <LineStyle>
        <color>ff0000ff</color>
        <width>5</width>
      </LineStyle>
    </Style>
    <Style id="line-FF0000-5000-highlight">
      <LineStyle>
        <color>ff0000ff</color>
        <width>7.5</width>
      </LineStyle>
    </Style>
    <StyleMap id="line-FF0000-5000">
      <Pair>
        <key>normal</key>
        <styleUrl>#line-FF0000-5000-normal</styleUrl>
      </Pair>
      <Pair>
        <key>highlight</key>
        <styleUrl>#line-FF0000-5000-highlight</styleUrl>
      </Pair>
    </StyleMap>
    <Folder>
      <name>Walang pamagat na layer</name>
      <Placemark>
        <name>Guadalupe to Sm</name>
        <description><![CDATA[more cebu jeepneys route map at cebujeepneys.weebly.com (http://cebujeepneys.weebly.com)<br><br> <br>Guadalupe Church - V. rama ave. - crown regency residences - Fooda Saversmart (guadalupe branch) -corner banawa - cebu provincial capitol - bo's coffee (jones ave.) - cebu doctors university (jones ave.) - n. escario st. - philhealth - ayala center cebu - cabantan st. - juan luna avenue (mabolo) - mabolo church - Sm City cebu puj terminal]]></description>
        <styleUrl>#line-0000FF-5000</styleUrl>
        <LineString>
          <tessellate>1</tessellate>
          <coordinates>
            123.88028,10.33101,0
            123.88004,10.33071,0
            123.88011,10.33047,0
            123.88048,10.32969,0
            123.88067,10.32942,0
            123.88102,10.3294,0
            123.88318,10.32484,0
            123.88334,10.3242,0
            123.8837,10.32349,0
            123.88522,10.31655,0
            123.88558,10.31564,0
            123.88629,10.31593,0
            123.88689,10.31624,0
            123.8898,10.31723,0
            123.88993,10.31699,0
            123.89002,10.31657,0
            123.8907,10.31457,0
            123.89143,10.31483,0
            123.89095,10.31619,0
            123.89198,10.31654,0
            123.89229,10.31674,0
            123.89497,10.31756,0
            123.89718,10.31791,0
            123.89994,10.31851,0
            123.90075,10.31885,0
            123.90192,10.31948,0
            123.90269,10.31801,0
            123.90256,10.31763,0
            123.90325,10.31736,0
            123.90432,10.31656,0
            123.90568,10.31615,0
            123.905836,10.31608,0
            123.906464,10.315917,0
            123.90714,10.315648,0
            123.907698,10.315389,0
            123.907934,10.315368,0
            123.908138,10.315405,0
            123.908379,10.315532,0
            123.908663,10.315795,0
            123.908948,10.316123,0
            123.909082,10.316497,0
            123.909157,10.316925,0
            123.909082,10.317231,0
            123.908889,10.317537,0
            123.90803,10.318403,0
            123.908567,10.318962,0
            123.90911,10.31947,0
            123.91082,10.3206,0
            123.91227,10.31815,0
            123.91324,10.31665,0
            123.91491,10.31376,0
            123.91618,10.31236,0
            123.91632,10.31241,0
            123.91784,10.31361,0
            123.91833,10.31326,0
            123.91958,10.31299,0
            123.91991,10.31286,0
            123.92009,10.31273,0
            123.92069,10.31209,0
            123.92079,10.3119,0
            123.92159,10.31092,0
            123.91914,10.30896,0
            123.91828,10.31003,0
            123.91831,10.31013,0
            123.9181,10.31044,0
          </coordinates>
        </LineString>
      </Placemark>
      <Placemark>
        <name>from sm terminal to guadalupe church</name>
        <description><![CDATA[more cebu jeepneys route map at cebujeepneys.weebly.com (http://cebujeepneys.weebly.com)<br><br> <br>sm terminal - mabolo church - ayala center terminal - asilo - fooda mango - mango avenue - robinsons fuente - fuente circle - vicente sotto hospital - b. rodriguez st. - v. rama avenue. corner banawa - PRC (professional regulations commission) - fooda (guadalupe branch) - guadalupe church.]]></description>
        <styleUrl>#line-FF0000-5000</styleUrl>
        <LineString>
          <tessellate>1</tessellate>
          <coordinates>
            123.91799,10.31054,0
            123.91787,10.31054,0
            123.91776,10.31065,0
            123.91632,10.31239,0
            123.91498,10.31387,0
            123.91429,10.31509,0
            123.91085,10.32068,0
            123.91074,10.32069,0
            123.90904,10.31961,0
            123.90818,10.31873,0
            123.907918,10.318487,0
            123.907966,10.318313,0
            123.908384,10.317896,0
            123.908792,10.317484,0
            123.908958,10.317247,0
            123.909034,10.316898,0
            123.908942,10.316529,0
            123.908824,10.316212,0
            123.908631,10.316006,0
            123.908492,10.315816,0
            123.908132,10.315579,0
            123.907746,10.315537,0
            123.907526,10.31559,0
            123.906727,10.315948,0
            123.905901,10.316207,0
            123.90571,10.31628,0
            123.90497,10.31643,0
            123.90448,10.3166,0
            123.90432,10.31667,0
            123.90365,10.31726,0
            123.90262,10.31774,0
            123.90314,10.31873,0
            123.90322,10.319,0
            123.90357,10.3188,0
            123.90372,10.31883,0
            123.90374,10.3189,0
            123.9037,10.31894,0
            123.90361,10.31896,0
            123.90358,10.31892,0
            123.90356,10.319,0
            123.90335,10.31907,0
            123.90388,10.3203,0
            123.90447,10.32007,0
            123.90332,10.31748,0
            123.90266,10.31776,0
            123.90258,10.31777,0
            123.90255,10.31773,0
            123.90165,10.3153,0
            123.90175,10.315,0
            123.90168,10.3149,0
            123.90162,10.31462,0
            123.90167,10.31424,0
            123.90162,10.31401,0
            123.90126,10.31355,0
            123.90055,10.3129,0
            123.89985,10.31287,0
            123.8993,10.31278,0
            123.89922,10.31143,0
            123.89823,10.31125,0
            123.89547,10.31027,0
            123.89423,10.30989,0
            123.8939,10.30988,0
            123.89375,10.31021,0
            123.89342,10.31051,0
            123.89314,10.31055,0
            123.89283,10.31051,0
            123.89273,10.31046,0
            123.89244,10.31007,0
            123.89244,10.30968,0
            123.89263,10.30933,0
            123.89219,10.30908,0
            123.88941,10.30816,0
            123.88669,10.30788,0
            123.88644,10.31043,0
            123.88614,10.31241,0
            123.88617,10.31298,0
            123.88573,10.31469,0
            123.88556,10.31557,0
            123.88537,10.31597,0
            123.8853,10.31641,0
            123.88462,10.31926,0
            123.88373,10.32347,0
            123.88335,10.32429,0
            123.88322,10.32484,0
            123.88109,10.32928,0
            123.88103,10.32942,0
            123.8812,10.32963,0
            123.8812,10.32973,0
            123.88058,10.33086,0
            123.88048,10.33097,0
            123.88032,10.33101,0
          </coordinates>
        </LineString>
      </Placemark>
    </Folder>
  </Document>
</kml>
