<?xml version="1.0" encoding="UTF-8"?>
<kml xmlns="http://www.opengis.net/kml/2.2">
  <Document>
    <name>Cebu Jeepney Route no. 09C</name>
    <description><![CDATA[more cebu jeepneys route map at cebujeepneys.weebly.com<br><br><br>Quiot - Sabellano St. - Basak - Mambaling - Shopwise - Fooda Mambaling - Mambaling Flyover - CIT - SCSIT - Citilink Terminal - CCMC - Cebu South Bus Terminal - E.mall - P.del Rosario St. - University of San Carlos - Sikatuna St. - Colon Obelisk - P. Burgos St.- Shamrock - University of Southern Philippines Foundation - Metropolitan Cathedral <br><br>Metropolitan Cathedral - Basilica Menore del Santo Nin o - Magellan's Cross - Cebu City Hall - D. Jakosalem St. - Magallanes St. - Carbon Public Market - University of San Jose Recoletos - Tres de Abril St. - C. Padilla St. - R. Padilla St. - Cebu Institute of Technology-University - N. Bacalso Ave. (hi-way) - Mambaling Flyover - Mambaling - Fooda (Mambaling) - Shopwise - Basak - Bayanihan Village - Sabellano St. - Brgy Quiot (Basak/Ibabao)]]></description>
    <Style id="line-0000FF-5000-normal">
      <LineStyle>
        <color>ffff0000</color>
        <width>5</width>
      </LineStyle>
    </Style>
    <Style id="line-0000FF-5000-highlight">
      <LineStyle>
        <color>ffff0000</color>
        <width>7.5</width>
      </LineStyle>
    </Style>
    <StyleMap id="line-0000FF-5000">
      <Pair>
        <key>normal</key>
        <styleUrl>#line-0000FF-5000-normal</styleUrl>
      </Pair>
      <Pair>
        <key>highlight</key>
        <styleUrl>#line-0000FF-5000-highlight</styleUrl>
      </Pair>
    </StyleMap>
    <Style id="line-33FF33-5000-normal">
      <LineStyle>
        <color>ff33ff33</color>
        <width>5</width>
      </LineStyle>
    </Style>
    <Style id="line-33FF33-5000-highlight">
      <LineStyle>
        <color>ff33ff33</color>
        <width>7.5</width>
      </LineStyle>
    </Style>
    <StyleMap id="line-33FF33-5000">
      <Pair>
        <key>normal</key>
        <styleUrl>#line-33FF33-5000-normal</styleUrl>
      </Pair>
      <Pair>
        <key>highlight</key>
        <styleUrl>#line-33FF33-5000-highlight</styleUrl>
      </Pair>
    </StyleMap>
    <Folder>
      <name>Walang pamagat na layer</name>
      <Placemark>
        <name>Cebu Jeepney Route no. 09C</name>
        <description><![CDATA[Quiot - Sabellano St. - Basak - Mambaling - Shopwise - Fooda Mambaling - Mambaling Flyover - CIT - SCSIT - Citilink Terminal - CCMC - Cebu South Bus Terminal - E.mall - P.del Rosario St. - University of San Carlos - Sikatuna St. - Colon Obelisk - P. Burgos St.- Shamrock - University of Southern Philippines Foundation - Metropolitan Cathedral <br><br>Metropolitan Cathedral - Basilica Menore del Santo Nin o - Magellan's Cross - Cebu City Hall - D. Jakosalem St. - Magallanes St. - Carbon Public Market - University of San Jose Recoletos - Tres de Abril St. - C. Padilla St. - R. Padilla St. - Cebu Institute of Technology-University - N. Bacalso Ave. (hi-way) - Mambaling Flyover - Mambaling - Fooda (Mambaling) - Shopwise - Basak - Bayanihan Village - Sabellano St. - Brgy Quiot (Basak/Ibabao)]]></description>
        <styleUrl>#line-0000FF-5000</styleUrl>
        <LineString>
          <tessellate>1</tessellate>
          <coordinates>
            123.860415,10.292699,0
            123.860903,10.292831,0
            123.861273,10.292958,0
            123.861563,10.293053,0
            123.861799,10.293074,0
            123.861901,10.293079,0
            123.862121,10.293048,0
            123.862759,10.292815,0
            123.863408,10.292588,0
            123.864449,10.292641,0
            123.865259,10.292683,0
            123.86571,10.292145,0
            123.86594,10.291638,0
            123.866203,10.290921,0
            123.866316,10.290472,0
            123.866439,10.290076,0
            123.866632,10.2893,0
            123.866718,10.288947,0
            123.866756,10.288836,0
            123.86778,10.289105,0
            123.868907,10.2894,0
            123.86961,10.28958,0
            123.870205,10.289712,0
            123.870763,10.28977,0
            123.871342,10.28978,0
            123.871771,10.289802,0
            123.872512,10.289807,0
            123.873257,10.289881,0
            123.873735,10.289971,0
            123.874325,10.290108,0
            123.875221,10.290229,0
            123.875661,10.290298,0
            123.876052,10.290393,0
            123.876358,10.290504,0
            123.876648,10.290667,0
            123.877104,10.290952,0
            123.877635,10.291279,0
            123.878166,10.291691,0
            123.878665,10.292061,0
            123.878938,10.292314,0
            123.879115,10.29233,0
            123.880076,10.293016,0
            123.880703,10.293486,0
            123.881433,10.293977,0
            123.882125,10.294494,0
            123.882881,10.295022,0
            123.883428,10.295433,0
            123.884136,10.295935,0
            123.884496,10.296141,0
            123.885027,10.296399,0
            123.885402,10.296521,0
            123.885735,10.296653,0
            123.88588,10.296721,0
            123.88654,10.296895,0
            123.887098,10.296985,0
            123.887956,10.297096,0
            123.888439,10.297186,0
            123.888986,10.297212,0
            123.889474,10.297238,0
            123.889737,10.29727,0
            123.890059,10.297339,0
            123.890531,10.297455,0
            123.890912,10.297587,0
            123.891196,10.297729,0
            123.891566,10.29793,0
            123.891936,10.298109,0
            123.892205,10.298199,0
            123.892516,10.298283,0
            123.89288,10.298373,0
            123.893374,10.298437,0
            123.89413,10.298526,0
            123.89486,10.298627,0
            123.895101,10.298663,0
            123.895332,10.298711,0
            123.895434,10.298764,0
            123.895557,10.298827,0
            123.896185,10.299117,0
            123.89663,10.29935,0
            123.896754,10.299492,0
            123.896931,10.299577,0
            123.897236,10.29973,0
            123.898073,10.300189,0
            123.898942,10.300685,0
            123.899731,10.301107,0
            123.900176,10.301339,0
            123.900482,10.301498,0
            123.900916,10.301661,0
            123.901667,10.301888,0
            123.902059,10.30202,0
            123.902209,10.302047,0
            123.90244,10.301667,0
            123.903008,10.300664,0
            123.903121,10.300379,0
            123.903218,10.300099,0
            123.903277,10.29984,0
            123.903314,10.299561,0
            123.903357,10.299249,0
            123.903411,10.299091,0
            123.903459,10.298933,0
            123.903711,10.298357,0
            123.903738,10.297988,0
            123.903835,10.297798,0
            123.903872,10.297391,0
            123.903856,10.297201,0
            123.903749,10.296378,0
            123.903647,10.295708,0
            123.903582,10.29546,0
            123.903368,10.294932,0
            123.903051,10.294214,0
            123.902601,10.293317,0
            123.902483,10.293085,0
            123.902354,10.292821,0
            123.9023,10.292641,0
            123.901115,10.292383,0
            123.901072,10.292615,0
            123.901045,10.292742,0
            123.901045,10.292879,0
            123.901158,10.29329,0
            123.901287,10.29376,0
            123.901174,10.29386,0
            123.900659,10.294024,0
            123.90001,10.294219,0
            123.899699,10.294272,0
            123.899457,10.294277,0
            123.899205,10.294314,0
            123.89905,10.294246,0
            123.898717,10.294056,0
            123.898127,10.293787,0
            123.897859,10.293628,0
            123.897553,10.293544,0
            123.897285,10.293475,0
            123.897049,10.293486,0
            123.896303,10.29328,0
            123.896024,10.293211,0
            123.895654,10.293148,0
            123.895488,10.293111,0
            123.895278,10.293111,0
            123.894881,10.293063,0
            123.894613,10.293285,0
            123.894173,10.293787,0
            123.89369,10.294225,0
            123.893492,10.294283,0
            123.892998,10.294204,0
            123.892484,10.294082,0
            123.892108,10.294029,0
            123.890998,10.293882,0
            123.890311,10.293771,0
            123.889603,10.293639,0
            123.888353,10.293407,0
            123.887071,10.29319,0
            123.886057,10.292968,0
            123.885365,10.292815,0
            123.884716,10.292647,0
            123.883756,10.292377,0
            123.883418,10.29318,0
            123.883337,10.293449,0
            123.883219,10.293802,0
            123.883101,10.294093,0
            123.882999,10.294394,0
            123.882913,10.294657,0
            123.882876,10.294953,0
            123.882779,10.295101,0
            123.882522,10.29489,0
            123.882018,10.294531,0
            123.881567,10.294219,0
            123.880757,10.293634,0
            123.880167,10.293243,0
            123.879657,10.292873,0
            123.87904,10.29243,0
            123.878574,10.292098,0
            123.877442,10.291279,0
            123.876932,10.290942,0
            123.876487,10.290657,0
            123.876122,10.290493,0
            123.875757,10.290398,0
            123.875339,10.290329,0
            123.874931,10.290287,0
            123.874303,10.290176,0
            123.873724,10.29005,0
            123.87322,10.289944,0
            123.872978,10.289902,0
            123.872506,10.289891,0
            123.871766,10.289891,0
            123.871332,10.28986,0
            123.870758,10.289849,0
            123.87028,10.289828,0
            123.870012,10.289775,0
            123.869551,10.289664,0
            123.868864,10.28949,0
            123.867743,10.2892,0
            123.86682,10.288962,0
            123.86637,10.288846,0
            123.86579,10.288693,0
            123.864369,10.288091,0
            123.863714,10.287833,0
            123.862684,10.287405,0
            123.861906,10.286904,0
            123.861493,10.286497,0
            123.861284,10.287025,0
            123.861161,10.287168,0
            123.861005,10.28721,0
            123.860689,10.287062,0
            123.860458,10.286957,0
            123.859358,10.288234,0
            123.858838,10.288873,0
            123.858736,10.288962,0
            123.858967,10.289459,0
            123.859015,10.289675,0
            123.85924,10.290472,0
            123.859342,10.290884,0
            123.859417,10.291142,0
            123.859551,10.29157,0
            123.859664,10.291802,0
            123.859879,10.292171,0
            123.860115,10.292478,0
            123.860335,10.292647,0
          </coordinates>
        </LineString>
      </Placemark>
      <Placemark>
        <name>Cathedral to Basak</name>
        <description><![CDATA[Metropolitan Cathedral - Basilica Menore del Santo Nin o - Magellan's Cross - Cebu City Hall - D. Jakosalem St. - Magallanes St. - Carbon Public Market - University of San Jose Recoletos - Tres de Abril St. - C. Padilla St. - R. Padilla St. - Cebu Institute of Technology-University - N. Bacalso Ave. (hi-way) - Mambaling Flyover - Mambaling - Fooda (Mambaling) - Shopwise - Basak - Bayanihan Village - Sabellano St. - Brgy Quiot (Basak/Ibabao)]]></description>
        <styleUrl>#line-33FF33-5000</styleUrl>
        <LineString>
          <tessellate>1</tessellate>
          <coordinates>
            123.903727,10.297972,0
            123.90384,10.297798,0
            123.903861,10.297165,0
            123.903625,10.295708,0
            123.903566,10.295444,0
            123.903051,10.294204,0
            123.902311,10.292641,0
            123.901109,10.292393,0
            123.901034,10.292683,0
            123.90105,10.292868,0
            123.901147,10.293296,0
            123.901281,10.293765,0
            123.901163,10.29386,0
            123.899999,10.294204,0
            123.899205,10.294304,0
            123.898352,10.293876,0
            123.897848,10.293623,0
            123.897295,10.293475,0
            123.897049,10.29348,0
            123.896008,10.293211,0
            123.894881,10.293053,0
            123.893701,10.294214,0
            123.893497,10.294283,0
            123.891577,10.293955,0
            123.890268,10.293755,0
            123.888353,10.293417,0
            123.887065,10.293195,0
            123.885692,10.292895,0
            123.883761,10.292383,0
            123.883407,10.293169,0
            123.883026,10.294288,0
            123.882903,10.294663,0
            123.882881,10.294932,0
            123.882774,10.295096,0
            123.881631,10.294293,0
            123.879239,10.292573,0
            123.878118,10.291765,0
            123.877517,10.291322,0
            123.876868,10.290884,0
            123.87646,10.290636,0
            123.876127,10.290477,0
            123.874835,10.290234,0
            123.872984,10.289907,0
            123.870656,10.289839,0
            123.870275,10.289823,0
            123.868429,10.289364,0
            123.867743,10.289195,0
            123.866772,10.288941,0
            123.866595,10.288894,0
            123.865796,10.288693,0
            123.86329,10.287653,0
            123.862679,10.287405,0
            123.861922,10.286914,0
            123.861493,10.286492,0
            123.861279,10.28702,0
            123.861161,10.287168,0
            123.86101,10.28721,0
            123.860453,10.286951,0
            123.858731,10.288957,0
            123.858967,10.289443,0
            123.85902,10.28968,0
            123.859541,10.291565,0
            123.859873,10.292193,0
            123.860125,10.292499,0
            123.860324,10.292636,0
          </coordinates>
        </LineString>
      </Placemark>
    </Folder>
  </Document>
</kml>
