<?xml version="1.0" encoding="UTF-8"?>
<kml xmlns="http://www.opengis.net/kml/2.2">
  <Document>
    <name>Cebu Jeepney Route No. 09F</name>
    <description><![CDATA[more cebu jeepneys route maps at cebujeepneys.weebly.com<br><br>Basak-Ibabao to Colon<br><br>ibabao to mambaling<br>ibabao to cit<br>ibabao to hiway<br>ibabao to south bus terminal<br>ibabao  to e mall<br>ibabao to San carlos<br>ibabao to colon<br>ibabao to UV<br>ibabao to zulueta St<br>ibabao to metropolitan cathedral<br>basak to mambaling<br>basak to cit<br>basak to highway<br>basak to citilink<br>basak to south bus terminal<br>basak to e mall<br>basak to act<br>basak to university of san carlos<br>basak to junquera st<br>basak to colon<br>basak to gaisano main<br>basak to UV<br>basak to zulueta st<br>basak to CTU<br>basak to metropolitan cathedral<br>mambaling to CIT<br>mambaling to south bus terminal<br>mambaling to e mall<br>mambaling to USC<br>mambaling to colon <br>mambaling to CTU<br>mambaling to cathedral<br>cit to e mall<br>cit to san carlos<br>cit to colon<br>cit to UV<br>e mall to zulueta st<br>e mall to cathedral<br>south bus terminal to colon <br>south bus terminal to gaisano main<br>south bus terminal to UV<br>south bus terminal to CTU<br>south bus terminal to Cathedral<br><br>Colon to Basak-Ibabao<br><br>see website.]]></description>
    <Style id="line-0000FF-5000-normal">
      <LineStyle>
        <color>ffff0000</color>
        <width>5</width>
      </LineStyle>
    </Style>
    <Style id="line-0000FF-5000-highlight">
      <LineStyle>
        <color>ffff0000</color>
        <width>7.5</width>
      </LineStyle>
    </Style>
    <StyleMap id="line-0000FF-5000">
      <Pair>
        <key>normal</key>
        <styleUrl>#line-0000FF-5000-normal</styleUrl>
      </Pair>
      <Pair>
        <key>highlight</key>
        <styleUrl>#line-0000FF-5000-highlight</styleUrl>
      </Pair>
    </StyleMap>
    <Style id="line-33FF33-5000-normal">
      <LineStyle>
        <color>ff33ff33</color>
        <width>5</width>
      </LineStyle>
    </Style>
    <Style id="line-33FF33-5000-highlight">
      <LineStyle>
        <color>ff33ff33</color>
        <width>7.5</width>
      </LineStyle>
    </Style>
    <StyleMap id="line-33FF33-5000">
      <Pair>
        <key>normal</key>
        <styleUrl>#line-33FF33-5000-normal</styleUrl>
      </Pair>
      <Pair>
        <key>highlight</key>
        <styleUrl>#line-33FF33-5000-highlight</styleUrl>
      </Pair>
    </StyleMap>
    <Folder>
      <name>Untitled layer</name>
      <Placemark>
        <name>Basak-Ibabao (Quiot) to Colon</name>
        <description><![CDATA[more cebu jeepneys route maps at cebujeepneys.weebly.com (http://cebujeepneys.weebly.com)<br>Like us on our Facebook Page (http://facebook.com/cebujeepneysroutemap)<br><br> <br>Basak-Ibabao (Quiot) to Colon<br><br> <br>Quiot - Ibabao - Sabellano St. - Southwestern University - Don Vicente Rama Memorial National High School - Basak - Mambaling - Shopwise - Mambaling Flyover - CIT - SCSIT - Natalio Bacalso Ave. - E.mall - ACT - P. del Rosario - University of San Carlos - Junquera St. - Colon St. - Gaisano Main - University of the Visayas - Zulueta St. -M.J. Cuenco Ave. - Legaspi St. - Cebu Metropolitan Cathedral.]]></description>
        <styleUrl>#line-0000FF-5000</styleUrl>
        <LineString>
          <tessellate>1</tessellate>
          <coordinates>
            123.860329,10.292647,0
            123.861429,10.29299,0
            123.861601,10.293053,0
            123.861869,10.293079,0
            123.862239,10.293016,0
            123.862668,10.292852,0
            123.863108,10.292694,0
            123.863446,10.292578,0
            123.864143,10.29262,0
            123.865087,10.292673,0
            123.865264,10.292689,0
            123.865576,10.292309,0
            123.86572,10.292145,0
            123.865951,10.291649,0
            123.866316,10.290461,0
            123.866439,10.290076,0
            123.866525,10.289685,0
            123.866627,10.28929,0
            123.866713,10.288936,0
            123.86674,10.288836,0
            123.867775,10.28911,0
            123.868907,10.289395,0
            123.869604,10.28958,0
            123.870066,10.289685,0
            123.870286,10.289722,0
            123.870672,10.289744,0
            123.871358,10.289791,0
            123.871771,10.289796,0
            123.872512,10.289807,0
            123.872775,10.289828,0
            123.873064,10.289865,0
            123.87337,10.289902,0
            123.873729,10.28996,0
            123.874336,10.290102,0
            123.874867,10.290171,0
            123.875516,10.290266,0
            123.87573,10.290308,0
            123.876025,10.290409,0
            123.876272,10.290488,0
            123.876707,10.290699,0
            123.877066,10.290947,0
            123.87749,10.291221,0
            123.877865,10.291438,0
            123.878439,10.291876,0
            123.878794,10.292124,0
            123.879003,10.292261,0
            123.879089,10.292325,0
            123.879582,10.292668,0
            123.880344,10.293211,0
            123.881154,10.293797,0
            123.881964,10.294378,0
            123.882876,10.295016,0
            123.88345,10.295423,0
            123.88367,10.295608,0
            123.884163,10.29594,0
            123.884512,10.296146,0
            123.885102,10.29641,0
            123.885547,10.296584,0
            123.885885,10.296726,0
            123.886341,10.296837,0
            123.886786,10.296932,0
            123.887495,10.297027,0
            123.888455,10.29718,0
            123.889077,10.297228,0
            123.889592,10.297238,0
            123.889903,10.297291,0
            123.890268,10.297386,0
            123.890858,10.297581,0
            123.891212,10.297756,0
            123.891555,10.29794,0
            123.89191,10.298099,0
            123.892344,10.298236,0
            123.892741,10.298352,0
            123.893154,10.2984,0
            123.894168,10.298526,0
            123.894801,10.298611,0
            123.895101,10.298653,0
            123.895321,10.298722,0
            123.895536,10.298822,0
            123.895938,10.299012,0
            123.896416,10.299239,0
            123.896662,10.299355,0
            123.896796,10.299534,0
            123.896931,10.299587,0
            123.897387,10.29983,0
            123.898068,10.300184,0
            123.899023,10.300722,0
            123.899355,10.300083,0
            123.899693,10.299455,0
            123.90001,10.298869,0
            123.900348,10.298262,0
            123.900605,10.297655,0
            123.901222,10.297745,0
            123.902059,10.297777,0
            123.902488,10.297814,0
            123.903035,10.297882,0
            123.903405,10.29794,0
            123.903749,10.297983,0
            123.903733,10.2984,0
            123.903829,10.29879,0
            123.906066,10.298384,0
            123.905948,10.297587,0
            123.905712,10.296484,0
            123.905498,10.29565,0
            123.905235,10.294884,0
            123.905444,10.295391,0
            123.905197,10.294758,0
            123.905106,10.294478,0
            123.905015,10.294336,0
            123.904897,10.294193,0
            123.90413,10.294568,0
            123.903363,10.294927,0
            123.902622,10.295212,0
            123.901775,10.295534,0
          </coordinates>
        </LineString>
      </Placemark>
      <Placemark>
        <name>Colon to Basak-Ibabao</name>
        <description><![CDATA[more cebu jeepneys route maps at cebujeepneys.weebly.com (http://cebujeepneys.weebly.com)<br>Like us on our Facebook Page (http://facebook.com/cebujeepneysroutemap)<br><br>Colon to Basak-Ibabao<br><br><br>Cebu Metropolitan Cathedral - Basilica Menore del Santo Nino - Legaspit St. - Manalili St. - Magallanes St. - University of San Jose Recoletos - Carbon Public Market - C. Padilla St.  - Duljo Fatima (R. Padilla St.) - CIT - N. Bacalso Ave. - Mambaling Flyover - Mambaling - Shopwise - Basak - Basak Night High School - USJR (Hight School) - Bayanihan Village - Sabellano St. - Brgy. Quiot]]></description>
        <styleUrl>#line-33FF33-5000</styleUrl>
        <LineString>
          <tessellate>1</tessellate>
          <coordinates>
            123.901764,10.295534,0
            123.901201,10.295787,0
            123.900069,10.296278,0
            123.899559,10.295755,0
            123.899066,10.294409,0
            123.899039,10.29423,0
            123.898744,10.294066,0
            123.898454,10.293924,0
            123.898116,10.293765,0
            123.897848,10.293612,0
            123.897285,10.29347,0
            123.897043,10.293486,0
            123.896298,10.293275,0
            123.895643,10.293153,0
            123.895493,10.293111,0
            123.8953,10.293106,0
            123.895128,10.2931,0
            123.894865,10.293069,0
            123.894613,10.293275,0
            123.894227,10.293729,0
            123.893905,10.294056,0
            123.893685,10.294235,0
            123.893481,10.294277,0
            123.89265,10.29413,0
            123.89214,10.294029,0
            123.891008,10.293876,0
            123.890483,10.293808,0
            123.890209,10.29375,0
            123.889603,10.293634,0
            123.888353,10.293412,0
            123.887082,10.29318,0
            123.88632,10.293021,0
            123.885901,10.292947,0
            123.885301,10.292794,0
            123.884791,10.292647,0
            123.884448,10.292567,0
            123.88374,10.292372,0
            123.883439,10.293148,0
            123.883225,10.293802,0
            123.883042,10.294304,0
            123.882903,10.294663,0
            123.88287,10.294958,0
            123.882806,10.295106,0
            123.882565,10.294932,0
            123.88168,10.294304,0
            123.881272,10.293998,0
            123.88043,10.293422,0
            123.879646,10.292863,0
            123.879207,10.292557,0
            123.878992,10.292398,0
            123.878751,10.292214,0
            123.878418,10.291987,0
            123.877409,10.291248,0
            123.87712,10.291058,0
            123.876846,10.290884,0
            123.876696,10.290794,0
            123.876514,10.290673,0
            123.87631,10.290577,0
            123.875752,10.290419,0
            123.87528,10.290335,0
            123.87432,10.290208,0
            123.873735,10.290055,0
            123.873198,10.289949,0
            123.872995,10.289923,0
            123.872496,10.289891,0
            123.871745,10.289881,0
            123.871332,10.289876,0
            123.870758,10.289854,0
            123.870269,10.289817,0
            123.870033,10.289786,0
            123.86954,10.289659,0
            123.868859,10.289485,0
            123.867748,10.289205,0
            123.866793,10.288957,0
            123.866525,10.288888,0
            123.865892,10.28872,0
            123.865796,10.288698,0
            123.865334,10.288493,0
            123.864497,10.28815,0
            123.864111,10.287996,0
            123.863805,10.287865,0
            123.86351,10.287743,0
            123.863156,10.287601,0
            123.862695,10.287389,0
            123.862411,10.287231,0
            123.862207,10.287094,0
            123.861853,10.286851,0
            123.86167,10.286661,0
            123.861488,10.286492,0
            123.861343,10.286888,0
            123.861268,10.287052,0
            123.861043,10.287226,0
            123.860683,10.287068,0
            123.860447,10.286957,0
            123.859948,10.287537,0
            123.859412,10.28816,0
            123.85909,10.288561,0
            123.858892,10.288799,0
            123.858731,10.288952,0
            123.858961,10.289453,0
            123.859015,10.289696,0
            123.85924,10.290467,0
            123.859444,10.291232,0
            123.859535,10.291565,0
            123.859868,10.292177,0
            123.860061,10.292414,0
            123.860265,10.292615,0
          </coordinates>
        </LineString>
      </Placemark>
    </Folder>
  </Document>
</kml>
