<?xml version="1.0" encoding="UTF-8"?>
<kml xmlns="http://www.opengis.net/kml/2.2">
  <Document>
    <name>Cebu Jeepney Route No. 09G</name>
    <description><![CDATA[more cebu jeepneys route maps at cebujeepneys.weebly.com<br><br>Basak (Ibabao) to Colon<br><br>ibabao to mambaling<br>ibabao to c. padilla st.<br>ibabao to jai-alai<br>ibabao to pasil<br>ibabao to taboan<br>ibabao to colon <br>ibabao to usjr<br>ibabao to carbon<br>ibabao to magallanes<br>ibabao to basilica del sto. nino<br>basak to mambaling<br>basak to c. padilla st.<br>basak to pasil<br>basak to taboan<br>basak to colon<br>basak to USJR<br>basak to carbon<br>basak to magallanes<br>basak to magellans cross<br>basak to basilica del sto. nino<br>basak to cebu city hall<br>mambaling to c. padilla st.<br>mambaling to pasil<br>mambaling to taboan<br>mambaling to san nicolas church<br>mambaling to colon<br>mambaling to USJR<br>mambaling to carbon<br>mambaling to magallanes<br>mambaling to magellans cross<br>mambaling to basilica del sto. nino<br>mambaling to cathedral<br>c. padilla st. to pasil<br>c. padilla st. to taboan<br>c. padilla st. to san nicolas church<br>c. padilla st. to colon<br>c. padilla st. to USJR<br>c. padilla st. to carbon<br>c. padilla st. to Magallanes<br>c. padilla st. to basilica del sto.nino]]></description>
    <Style id="line-3333FF-5000-normal">
      <LineStyle>
        <color>ffff3333</color>
        <width>5</width>
      </LineStyle>
    </Style>
    <Style id="line-3333FF-5000-highlight">
      <LineStyle>
        <color>ffff3333</color>
        <width>7.5</width>
      </LineStyle>
    </Style>
    <StyleMap id="line-3333FF-5000">
      <Pair>
        <key>normal</key>
        <styleUrl>#line-3333FF-5000-normal</styleUrl>
      </Pair>
      <Pair>
        <key>highlight</key>
        <styleUrl>#line-3333FF-5000-highlight</styleUrl>
      </Pair>
    </StyleMap>
    <Style id="line-FF0000-5000-normal">
      <LineStyle>
        <color>ff0000ff</color>
        <width>5</width>
      </LineStyle>
    </Style>
    <Style id="line-FF0000-5000-highlight">
      <LineStyle>
        <color>ff0000ff</color>
        <width>7.5</width>
      </LineStyle>
    </Style>
    <StyleMap id="line-FF0000-5000">
      <Pair>
        <key>normal</key>
        <styleUrl>#line-FF0000-5000-normal</styleUrl>
      </Pair>
      <Pair>
        <key>highlight</key>
        <styleUrl>#line-FF0000-5000-highlight</styleUrl>
      </Pair>
    </StyleMap>
    <Folder>
      <name>Walang pamagat na layer</name>
      <Placemark>
        <name>Basak (Ibabao) to Magalllanes </name>
        <description><![CDATA[more cebu jeepneys route maps at cebujeepneys.weebly.com (http://cebujeepneys.weebly.com)<br>Like us on our Facebook Page (http://facebook.com/cebujeepneysroutemap)<br><br>Basak(Ibabao) to Colon<br> <br>Basak (Ibabao) - Hi way - Shopwise - Fooda (mambaling) - Mambaling flyover - C. Padilla St. - Carlock St. - Spoliarium St. - Pasil - San Nicolas Parish Church - Colon St. - L. Kilat St. - USJR - Carbon Public Market - Magallanes St. - Basilica Menore Del Sto. Nino - Cebu City Hall - MCWD - Lucky 7 supermarket - Legaspi St.]]></description>
        <styleUrl>#line-3333FF-5000</styleUrl>
        <LineString>
          <tessellate>1</tessellate>
          <coordinates>
            123.859885,10.292193,0
            123.860303,10.292636,0
            123.860743,10.292789,0
            123.861419,10.292979,0
            123.861853,10.293074,0
            123.862127,10.293048,0
            123.862658,10.292847,0
            123.863425,10.292583,0
            123.865255,10.292683,0
            123.865732,10.292145,0
            123.865947,10.291649,0
            123.866091,10.291269,0
            123.866322,10.290461,0
            123.86644,10.290066,0
            123.866719,10.288941,0
            123.866751,10.288841,0
            123.868897,10.28939,0
            123.869616,10.28958,0
            123.870174,10.289712,0
            123.870442,10.289738,0
            123.870801,10.289749,0
            123.871359,10.28977,0
            123.871772,10.289807,0
            123.872518,10.289823,0
            123.872856,10.289823,0
            123.873124,10.28987,0
            123.873725,10.289976,0
            123.874224,10.290087,0
            123.874347,10.290097,0
            123.875173,10.290213,0
            123.875774,10.290314,0
            123.876075,10.290361,0
            123.876337,10.290446,0
            123.876525,10.290519,0
            123.87675,10.290657,0
            123.876976,10.290815,0
            123.877121,10.290926,0
            123.877217,10.290942,0
            123.877314,10.290947,0
            123.877453,10.290915,0
            123.877518,10.290815,0
            123.877566,10.290725,0
            123.878151,10.290836,0
            123.878596,10.290905,0
            123.879095,10.291037,0
            123.880033,10.291301,0
            123.88101,10.29158,0
            123.881884,10.291839,0
            123.882802,10.292092,0
            123.883574,10.292319,0
            123.884105,10.292462,0
            123.885237,10.292768,0
            123.88653,10.293058,0
            123.887082,10.293158,0
            123.887211,10.292214,0
            123.887737,10.292171,0
            123.888488,10.292145,0
            123.889325,10.292145,0
            123.889845,10.292193,0
            123.89058,10.292256,0
            123.890757,10.292277,0
            123.891363,10.292383,0
            123.890961,10.293787,0
            123.890945,10.293829,0
            123.890998,10.293882,0
            123.892141,10.29404,0
            123.893251,10.294219,0
            123.893504,10.294272,0
            123.893793,10.294388,0
            123.894201,10.294515,0
            123.89434,10.294578,0
            123.894968,10.294789,0
            123.895413,10.294964,0
            123.896551,10.295444,0
            123.896604,10.295402,0
            123.896856,10.294272,0
            123.89706,10.293507,0
            123.897291,10.29347,0
            123.897859,10.293618,0
            123.898149,10.293787,0
            123.899034,10.29424,0
            123.899217,10.294314,0
            123.899496,10.294277,0
            123.899769,10.294288,0
            123.900027,10.294204,0
            123.900665,10.294019,0
            123.901175,10.29385,0
            123.901282,10.293755,0
            123.901148,10.29329,0
            123.901051,10.292884,0
            123.901035,10.292705,0
            123.901132,10.292393,0
            123.902242,10.292641,0
            123.902366,10.292631,0
            123.902779,10.292441,0
            123.903058,10.292325,0
            123.903401,10.293122,0
            123.903814,10.293876,0
            123.904147,10.294552,0
            123.903353,10.294932,0
          </coordinates>
        </LineString>
      </Placemark>
      <Placemark>
        <name>Colon To Basak (Ibabao)</name>
        <description><![CDATA[more cebu jeepneys route maps at cebujeepneys.weebly.com (http://cebujeepneys.weebly.com)<br>Like us on our Facebook Page (http://facebook.com/cebujeepneysroutemap)<br><br>Colon to Basak(Ibabao)<br><br>Legaspi St. - Collonade Mall (Oriente) - Colon St. - Metro Gaisano - C. Padilla St. - Jai-alai - Mambling Flyover - Hi-way - Mambaling - Fooda (Mambaling) - Shopwise - Basak - Bayanihan Village - Sabellano St. - Brgy. Quiot.]]></description>
        <styleUrl>#line-FF0000-5000</styleUrl>
        <LineString>
          <tessellate>1</tessellate>
          <coordinates>
            123.903299,10.294958,0
            123.902607,10.295217,0
            123.901775,10.295534,0
            123.900429,10.296109,0
            123.90008,10.296262,0
            123.899732,10.296441,0
            123.899109,10.296779,0
            123.898246,10.296257,0
            123.898079,10.29613,0
            123.897098,10.295681,0
            123.896583,10.295497,0
            123.895435,10.295016,0
            123.89456,10.294673,0
            123.894185,10.294536,0
            123.893536,10.294314,0
            123.893117,10.294235,0
            123.892447,10.294109,0
            123.891921,10.294029,0
            123.891245,10.29394,0
            123.89102,10.293903,0
            123.890617,10.293829,0
            123.89006,10.293713,0
            123.889883,10.293681,0
            123.889314,10.29357,0
            123.888595,10.293438,0
            123.888364,10.293396,0
            123.887066,10.29318,0
            123.885811,10.292932,0
            123.885022,10.292742,0
            123.884566,10.29261,0
            123.883719,10.292393,0
            123.88175,10.291828,0
            123.880704,10.291517,0
            123.879738,10.291248,0
            123.878848,10.29101,0
            123.878236,10.290873,0
            123.877577,10.290768,0
            123.877432,10.290973,0
            123.87733,10.29119,0
            123.876767,10.290831,0
            123.876386,10.290614,0
            123.876144,10.29053,0
            123.875608,10.290403,0
            123.874937,10.290282,0
            123.874342,10.290197,0
            123.873736,10.29005,0
            123.873172,10.289949,0
            123.872958,10.289923,0
            123.872475,10.289891,0
            123.871767,10.289881,0
            123.871327,10.289881,0
            123.870758,10.28986,0
            123.870361,10.289833,0
            123.87004,10.289786,0
            123.869535,10.289649,0
            123.868881,10.289506,0
            123.867754,10.289216,0
            123.866794,10.288962,0
            123.866558,10.288894,0
            123.865807,10.288693,0
            123.864858,10.288313,0
            123.863726,10.287833,0
            123.862701,10.287416,0
            123.862331,10.287168,0
            123.862025,10.286994,0
            123.861719,10.286709,0
            123.861505,10.286513,0
            123.861371,10.286851,0
            123.861285,10.286999,0
            123.861178,10.287126,0
            123.861027,10.287205,0
            123.860705,10.287062,0
            123.860475,10.286957,0
            123.859954,10.287532,0
            123.858828,10.288878,0
            123.858726,10.288957,0
            123.859016,10.289501,0
            123.859026,10.289649,0
            123.859246,10.290461,0
            123.859429,10.291216,0
            123.859547,10.29158,0
            123.859863,10.29215,0
          </coordinates>
        </LineString>
      </Placemark>
    </Folder>
  </Document>
</kml>
