<?xml version="1.0" encoding="UTF-8"?>
<kml xmlns="http://www.opengis.net/kml/2.2">
  <Document>
    <name>Cebu Jeepneys Route No. 10F</name>
    <description><![CDATA[more cebu jeepneys route map at cebujeepneys.weebly.com<br><br><br>Bulacao - Pardo - Basak - Mambaling - CIT - SCSIT - Cor. V. Rama Ave.<br><br>Cor. V. Rama Ave. - Citilink Terminal - CCMC - Cebu South Bus Terminal - E.mall - P.del Rosario St. - University of San Carlos - Junquera St.<br><br>Junquera St. - Colon St. - Metro Gaisano - Borromeo St. - Sancianco St. - Panganiban St. -  CCMC - N. Bacalso Ave. (hi-way) - CIT - Mambaling - Fooda (Basak) - Shopwise - Basak - Pardo - Bulacao<br>]]></description>
    <Style id="line-000099-5000-normal">
      <LineStyle>
        <color>ff990000</color>
        <width>5</width>
      </LineStyle>
    </Style>
    <Style id="line-000099-5000-highlight">
      <LineStyle>
        <color>ff990000</color>
        <width>7.5</width>
      </LineStyle>
    </Style>
    <StyleMap id="line-000099-5000">
      <Pair>
        <key>normal</key>
        <styleUrl>#line-000099-5000-normal</styleUrl>
      </Pair>
      <Pair>
        <key>highlight</key>
        <styleUrl>#line-000099-5000-highlight</styleUrl>
      </Pair>
    </StyleMap>
    <Style id="line-3333FF-5000-normal">
      <LineStyle>
        <color>ffff3333</color>
        <width>5</width>
      </LineStyle>
    </Style>
    <Style id="line-3333FF-5000-highlight">
      <LineStyle>
        <color>ffff3333</color>
        <width>7.5</width>
      </LineStyle>
    </Style>
    <StyleMap id="line-3333FF-5000">
      <Pair>
        <key>normal</key>
        <styleUrl>#line-3333FF-5000-normal</styleUrl>
      </Pair>
      <Pair>
        <key>highlight</key>
        <styleUrl>#line-3333FF-5000-highlight</styleUrl>
      </Pair>
    </StyleMap>
    <Style id="line-FF0000-5000-normal">
      <LineStyle>
        <color>ff0000ff</color>
        <width>5</width>
      </LineStyle>
    </Style>
    <Style id="line-FF0000-5000-highlight">
      <LineStyle>
        <color>ff0000ff</color>
        <width>7.5</width>
      </LineStyle>
    </Style>
    <StyleMap id="line-FF0000-5000">
      <Pair>
        <key>normal</key>
        <styleUrl>#line-FF0000-5000-normal</styleUrl>
      </Pair>
      <Pair>
        <key>highlight</key>
        <styleUrl>#line-FF0000-5000-highlight</styleUrl>
      </Pair>
    </StyleMap>
    <Folder>
      <name>Walang pamagat na layer</name>
      <Placemark>
        <name>Bulacao - cor. V. Rama Ave.</name>
        <description>Bulacao - Pardo - Basak - Mambaling - CIT - SCSIT - Cor. V. Rama Ave.</description>
        <styleUrl>#line-000099-5000</styleUrl>
        <LineString>
          <tessellate>1</tessellate>
          <coordinates>
            123.848168,10.272315,0
            123.848361,10.272489,0
            123.849257,10.273407,0
            123.849456,10.273576,0
            123.85033,10.27441,0
            123.850539,10.274642,0
            123.851505,10.275603,0
            123.852089,10.276205,0
            123.852878,10.276975,0
            123.853291,10.277382,0
            123.85379,10.277873,0
            123.854836,10.278913,0
            123.855303,10.279372,0
            123.856837,10.28105,0
            123.857459,10.281821,0
            123.85835,10.28284,0
            123.859101,10.283663,0
            123.860249,10.284972,0
            123.860742,10.285532,0
            123.861525,10.286392,0
            123.861842,10.286693,0
            123.862094,10.28692,0
            123.862298,10.287057,0
            123.862464,10.287152,0
            123.862727,10.287289,0
            123.863623,10.287685,0
            123.864508,10.28807,0
            123.865629,10.288519,0
            123.865828,10.288614,0
            123.866756,10.288852,0
            123.867448,10.289031,0
            123.867754,10.289115,0
            123.868896,10.28939,0
            123.869604,10.28959,0
            123.869878,10.289649,0
            123.8702,10.289717,0
            123.870661,10.289754,0
            123.871589,10.28978,0
            123.871777,10.289791,0
            123.872517,10.289812,0
            123.872823,10.289823,0
            123.873075,10.289876,0
            123.87344,10.289923,0
            123.873724,10.289965,0
            123.874223,10.290087,0
            123.87433,10.290097,0
            123.875242,10.290224,0
            123.875709,10.290303,0
            123.876052,10.290377,0
            123.876283,10.29044,0
            123.876514,10.290541,0
            123.876739,10.290673,0
            123.876996,10.290857,0
            123.8772,10.290994,0
            123.877458,10.291163,0
            123.877656,10.291301,0
            123.877935,10.291512,0
            123.879067,10.292309,0
            123.879475,10.292588,0
            123.880017,10.293,0
            123.88184,10.294288,0
            123.88287,10.295069,0
            123.88367,10.295602,0
            123.884126,10.295951,0
            123.884485,10.296141,0
            123.884828,10.296304,0
            123.885301,10.296505,0
            123.885708,10.296637,0
            123.885901,10.296716,0
            123.886379,10.296848,0
            123.886609,10.296906,0
            123.887216,10.296996,0
            123.887688,10.297059,0
            123.888133,10.297138,0
            123.888439,10.297186,0
          </coordinates>
        </LineString>
      </Placemark>
      <Placemark>
        <name>Cor. V. Rama Ave - Junquera St.</name>
        <description>Cor. V. Rama Ave. - Citilink Terminal - CCMC - Cebu South Bus Terminal - E.mall - P.del Rosario St. - University of San Carlos - Junquera St.</description>
        <styleUrl>#line-3333FF-5000</styleUrl>
        <LineString>
          <tessellate>1</tessellate>
          <coordinates>
            123.888455,10.297191,0
            123.888863,10.297201,0
            123.889227,10.297233,0
            123.889485,10.297254,0
            123.889839,10.297286,0
            123.890053,10.297344,0
            123.890279,10.297391,0
            123.890831,10.29756,0
            123.891153,10.297708,0
            123.891572,10.29794,0
            123.892033,10.298136,0
            123.892306,10.298225,0
            123.892575,10.298305,0
            123.892891,10.298363,0
            123.893369,10.298447,0
            123.894114,10.298521,0
            123.894849,10.298621,0
            123.89515,10.298663,0
            123.895402,10.298748,0
            123.89552,10.298827,0
            123.89597,10.299017,0
            123.896389,10.299239,0
            123.896593,10.299339,0
            123.896662,10.299376,0
            123.896786,10.299513,0
            123.896909,10.299566,0
            123.897644,10.299967,0
            123.898068,10.300194,0
            123.898964,10.300669,0
            123.899023,10.300669,0
            123.899345,10.300104,0
            123.900021,10.298875,0
          </coordinates>
        </LineString>
      </Placemark>
      <Placemark>
        <name>Junquera St. - Bulacao</name>
        <description>Junquera St. - Colon St. - Metro Gaisano - Borromeo St. - Sancianco St. - Panganiban St. -  CCMC - N. Bacalso Ave. (hi-way) - CIT - Mambaling - Fooda (Basak) - Shopwise - Basak - Pardo - Bulacao</description>
        <styleUrl>#line-FF0000-5000</styleUrl>
        <LineString>
          <tessellate>1</tessellate>
          <coordinates>
            123.900026,10.298853,0
            123.900611,10.297661,0
            123.900165,10.297413,0
            123.899484,10.297006,0
            123.899098,10.296769,0
            123.898234,10.296257,0
            123.898079,10.296141,0
            123.897848,10.296014,0
            123.897505,10.29585,0
            123.897102,10.295671,0
            123.896571,10.295465,0
            123.895573,10.295871,0
            123.894973,10.296135,0
            123.893841,10.296653,0
            123.893642,10.296568,0
            123.893052,10.29642,0
            123.89265,10.29632,0
            123.892494,10.29688,0
            123.891791,10.297624,0
            123.891652,10.297793,0
            123.891582,10.297888,0
            123.891502,10.298035,0
            123.890949,10.297772,0
            123.890563,10.29764,0
            123.890171,10.297545,0
            123.889828,10.297481,0
            123.889292,10.297391,0
            123.888745,10.297328,0
            123.888353,10.297296,0
            123.888117,10.297249,0
            123.887516,10.297201,0
            123.886851,10.297043,0
            123.886347,10.296948,0
            123.885816,10.296843,0
            123.885451,10.296679,0
            123.884979,10.296494,0
            123.884603,10.29632,0
            123.884313,10.296146,0
            123.88404,10.295993,0
            123.883697,10.295755,0
            123.883369,10.295518,0
            123.88257,10.294942,0
            123.880993,10.293808,0
            123.879534,10.292794,0
            123.879207,10.292578,0
            123.878965,10.292377,0
            123.878166,10.291791,0
            123.877286,10.291137,0
            123.876664,10.290762,0
            123.876251,10.290556,0
            123.875763,10.290393,0
            123.87535,10.290329,0
            123.874717,10.290224,0
            123.874336,10.290182,0
            123.874078,10.290124,0
            123.873729,10.290044,0
            123.873198,10.289944,0
            123.872834,10.289912,0
            123.872512,10.289897,0
            123.871777,10.289891,0
            123.871326,10.289865,0
            123.870758,10.289865,0
            123.870071,10.289796,0
            123.869529,10.289664,0
            123.868864,10.28949,0
            123.867754,10.28921,0
            123.867426,10.289121,0
            123.866707,10.288941,0
            123.86579,10.288698,0
            123.864412,10.288123,0
            123.863864,10.287901,0
            123.863312,10.287659,0
            123.86269,10.2874,0
            123.862325,10.287199,0
            123.861992,10.286967,0
            123.86174,10.286761,0
            123.861493,10.286497,0
            123.86093,10.285869,0
            123.860458,10.285363,0
            123.859702,10.284502,0
            123.859154,10.283858,0
            123.858714,10.283362,0
            123.857792,10.282328,0
            123.857153,10.281573,0
            123.85696,10.281362,0
            123.856585,10.280908,0
            123.856386,10.280691,0
            123.855662,10.279905,0
            123.855233,10.279456,0
            123.854772,10.278965,0
            123.853232,10.277461,0
            123.851939,10.276157,0
            123.851022,10.275234,0
            123.850593,10.274843,0
            123.849654,10.273903,0
            123.849198,10.273455,0
            123.848104,10.27241,0
          </coordinates>
        </LineString>
      </Placemark>
    </Folder>
  </Document>
</kml>
