<?xml version="1.0" encoding="UTF-8"?>
<kml xmlns="http://www.opengis.net/kml/2.2">
  <Document>
    <name>Cebu Jeepney Route No. 10G</name>
    <description><![CDATA[More Cebu jeepney route maps at cebujeepneys.weebly.com<br><br>Pardo to Magallanes (Basilica del Sto. Nino)<br><br>pardo to basak<br>pardo to mambaling<br>pardo to c. padilla st.<br>pardo to pasil<br>pardo to taboan<br>pardo to colon<br>pardo to usjr<br>pardo to carbon public market<br>pardo to magallanes st.<br>pardo to basilica del sto. nino<br>basak to mambaling<br>basak to c. padilla st.<br>basak to jai-alai<br>basak to pasil<br>basak to taboan<br>basak to colon<br>basak to usjr<br>basak to carbon<br>basak to magallanes st.<br>basak to cebu city hall<br>basak to basilica del sto. nino<br>mambaling to c. padilla st.<br>mambaling to pasil<br>mambaling to colon<br>mambaling to carbon<br>mambaling to basilica del sto. nino<br>c. padilla st. to colon st.<br>c. padilla st. to magallanes st.<br>c. padilla st. to usjr<br>c. padilla st. to carbon<br>c. padilla st. to sto.nino<br><br><br>Magallanes st. to Pardo<br><br>carbon to colon<br>carbon to c.padilla st.<br>carbon to jai-alai<br>carbon to mambaling<br>carbon to fooda (mambaling)<br>carbon to Shopwise<br>carbon to Super Metro - mambaling<br>carbon to basak<br>carbon to pardo]]></description>
    <Style id="line-0000FF-5000-normal">
      <LineStyle>
        <color>ffff0000</color>
        <width>5</width>
      </LineStyle>
    </Style>
    <Style id="line-0000FF-5000-highlight">
      <LineStyle>
        <color>ffff0000</color>
        <width>7.5</width>
      </LineStyle>
    </Style>
    <StyleMap id="line-0000FF-5000">
      <Pair>
        <key>normal</key>
        <styleUrl>#line-0000FF-5000-normal</styleUrl>
      </Pair>
      <Pair>
        <key>highlight</key>
        <styleUrl>#line-0000FF-5000-highlight</styleUrl>
      </Pair>
    </StyleMap>
    <Style id="line-FF0000-5000-normal">
      <LineStyle>
        <color>ff0000ff</color>
        <width>5</width>
      </LineStyle>
    </Style>
    <Style id="line-FF0000-5000-highlight">
      <LineStyle>
        <color>ff0000ff</color>
        <width>7.5</width>
      </LineStyle>
    </Style>
    <StyleMap id="line-FF0000-5000">
      <Pair>
        <key>normal</key>
        <styleUrl>#line-FF0000-5000-normal</styleUrl>
      </Pair>
      <Pair>
        <key>highlight</key>
        <styleUrl>#line-FF0000-5000-highlight</styleUrl>
      </Pair>
    </StyleMap>
    <Folder>
      <name>Walang pamagat na layer</name>
      <Placemark>
        <name>Pardo to Magallanes (santo Nino)</name>
        <description><![CDATA[more cebu jeepneys route maps at cebujeepneys.weebly.com (http://cebujeepneys.weebly.com)<br>Like us on our Facebook Page (http://facebook.com/cebujeepneysroutemap)<br><br> <br>Pardo - Basak - Shopwise - Fooda (mambaling) - Mambaling - C. Padilla St. - Jai-alai - Pasil - San Nicolas Church - Colon St. - L. Kilat St. - USJR - Carbon Public Market - Magallanes St. - Basilica Menore del Santo Nino - Cebu City Hall - Prince MC - La Nueva - MCWD - Legaspi St.]]></description>
        <styleUrl>#line-0000FF-5000</styleUrl>
        <LineString>
          <tessellate>1</tessellate>
          <coordinates>
            123.854837,10.278907,0
            123.855293,10.279356,0
            123.855738,10.279836,0
            123.856682,10.280887,0
            123.857321,10.281631,0
            123.858345,10.282834,0
            123.859112,10.283658,0
            123.859933,10.284608,0
            123.860507,10.285268,0
            123.861451,10.286307,0
            123.861542,10.286397,0
            123.861891,10.286719,0
            123.862208,10.286983,0
            123.86247,10.287131,0
            123.862739,10.287273,0
            123.86416,10.287923,0
            123.864954,10.288255,0
            123.86526,10.288377,0
            123.865823,10.288593,0
            123.866735,10.288846,0
            123.867454,10.289031,0
            123.86776,10.289115,0
            123.868892,10.289406,0
            123.869605,10.289596,0
            123.870142,10.289707,0
            123.870302,10.289733,0
            123.870694,10.289765,0
            123.87078,10.28977,0
            123.871349,10.289786,0
            123.871788,10.289796,0
            123.872513,10.289812,0
            123.872883,10.289844,0
            123.873188,10.289876,0
            123.873489,10.289918,0
            123.873741,10.289971,0
            123.874229,10.290092,0
            123.87432,10.290108,0
            123.875297,10.290229,0
            123.875908,10.290335,0
            123.87616,10.290393,0
            123.876504,10.29053,0
            123.876649,10.290599,0
            123.876868,10.29072,0
            123.876992,10.290773,0
            123.877088,10.290878,0
            123.87718,10.290931,0
            123.87726,10.290952,0
            123.8774,10.290936,0
            123.877453,10.290921,0
            123.877544,10.290746,0
            123.878043,10.29082,0
            123.878376,10.290873,0
            123.8788,10.290963,0
            123.87925,10.291079,0
            123.880436,10.291411,0
            123.881198,10.291644,0
            123.882201,10.291918,0
            123.883059,10.292166,0
            123.883746,10.292372,0
            123.884947,10.292683,0
            123.885908,10.292947,0
            123.887077,10.293174,0
            123.887227,10.292214,0
            123.887742,10.292161,0
            123.888102,10.292145,0
            123.888477,10.292135,0
            123.889121,10.292145,0
            123.889571,10.292166,0
            123.889845,10.292193,0
            123.89043,10.292245,0
            123.8911,10.29233,0
            123.891385,10.292398,0
            123.89095,10.293839,0
            123.890998,10.293882,0
            123.892152,10.294035,0
            123.893048,10.294198,0
            123.893423,10.294251,0
            123.89352,10.294293,0
            123.894297,10.294562,0
            123.895413,10.294958,0
            123.896545,10.295454,0
            123.896593,10.295423,0
            123.897066,10.293507,0
            123.897285,10.293459,0
            123.897843,10.293618,0
            123.898122,10.293792,0
            123.899034,10.294246,0
            123.899211,10.29432,0
            123.899555,10.294277,0
            123.899791,10.294277,0
            123.900005,10.294214,0
            123.90067,10.294035,0
            123.901175,10.293845,0
            123.901277,10.293765,0
            123.901153,10.29329,0
            123.901046,10.292879,0
            123.901035,10.292726,0
            123.901121,10.292404,0
            123.902333,10.292657,0
            123.903031,10.292325,0
            123.90339,10.293074,0
            123.903787,10.293876,0
            123.903835,10.293876,0
            123.90413,10.294552,0
          </coordinates>
        </LineString>
      </Placemark>
      <Placemark>
        <name>Magallanes to Pardo</name>
        <description><![CDATA[more cebu jeepneys route maps at cebujeepneys.weebly.com (http://cebujeepneys.weebly.com)<br>Like us on our Facebook Page (http://facebook.com/cebujeepneysroutemap)<br><br> <br>Legaspi St. - D. Jakosalem St. - Colon St. - Gaisano Main - University of the Visayas - Colonnade Supermarket - Metro Gaisano - C. Padilla St. - Cebu South Road - Mambaling - Fooda (Mambaling) - Shopwise - Basak - Pardo]]></description>
        <styleUrl>#line-FF0000-5000</styleUrl>
        <LineString>
          <tessellate>1</tessellate>
          <coordinates>
            123.904098,10.294584,0
            123.903353,10.294927,0
            123.902612,10.295212,0
            123.901786,10.295528,0
            123.902054,10.296362,0
            123.90214,10.296711,0
            123.902172,10.296785,0
            123.902167,10.296943,0
            123.902215,10.297101,0
            123.902194,10.297402,0
            123.902135,10.297613,0
            123.902076,10.297782,0
            123.90169,10.297766,0
            123.901207,10.297724,0
            123.900606,10.297666,0
            123.899109,10.296779,0
            123.89823,10.296251,0
            123.898074,10.296141,0
            123.896744,10.295534,0
            123.8964,10.295418,0
            123.895403,10.294995,0
            123.894673,10.294731,0
            123.894158,10.294547,0
            123.893466,10.294309,0
            123.892136,10.294056,0
            123.890972,10.293897,0
            123.890623,10.293839,0
            123.889909,10.293686,0
            123.889325,10.293586,0
            123.888354,10.293401,0
            123.887077,10.29319,0
            123.886637,10.293122,0
            123.885956,10.292974,0
            123.885457,10.292847,0
            123.884706,10.292641,0
            123.88373,10.292398,0
            123.881857,10.291855,0
            123.881187,10.291681,0
            123.879846,10.291279,0
            123.879288,10.291116,0
            123.87843,10.290899,0
            123.877904,10.290826,0
            123.877566,10.290773,0
            123.877448,10.290973,0
            123.877303,10.291174,0
            123.876815,10.290863,0
            123.876557,10.290694,0
            123.87637,10.290614,0
            123.876176,10.29053,0
            123.875999,10.290477,0
            123.87557,10.290393,0
            123.875152,10.290324,0
            123.874921,10.290298,0
            123.874626,10.290245,0
            123.874326,10.290203,0
            123.873714,10.290055,0
            123.873226,10.289965,0
            123.873011,10.289918,0
            123.872502,10.289902,0
            123.871762,10.289886,0
            123.871338,10.289865,0
            123.870758,10.289854,0
            123.870345,10.289823,0
            123.870034,10.289786,0
            123.869541,10.289659,0
            123.868886,10.28949,0
            123.86776,10.28921,0
            123.866719,10.288941,0
            123.865802,10.288693,0
            123.862696,10.287389,0
            123.862331,10.287194,0
            123.862047,10.287004,0
            123.861794,10.286783,0
            123.861483,10.286487,0
            123.860062,10.28493,0
            123.859348,10.284075,0
            123.858721,10.283378,0
            123.858163,10.282755,0
            123.857439,10.281895,0
            123.856966,10.281346,0
            123.856521,10.280844,0
            123.856215,10.280512,0
            123.855824,10.280074,0
            123.855658,10.27991,0
            123.854762,10.278976,0
          </coordinates>
        </LineString>
      </Placemark>
    </Folder>
  </Document>
</kml>
