<?xml version="1.0" encoding="UTF-8"?>
<kml xmlns="http://www.opengis.net/kml/2.2">
  <Document>
    <name>Cebu Jeepney Route no. 10H</name>
    <description><![CDATA[more cebu jeepneys route map at cebujeepneys.weebly.com<br><br><br>From bulacao (Saint Paul College foundation) - Pardo - Basak - mambaling - CIT -SCSIT - Citilink - CCMC - Cebu South Bus terminal - E. mall - ACT - P.del Rosario - Sikatun st. -  T. padilla st. - white gold house - white gold club - Sm.<br><br>sm - white gold - cebu city registrars office - DSWD - Imus ave. - M. J. Cuenco Ave. - cor. t. Padilla St. - NSO - Legaspi St. - Cebu Metropolitan Cathedral - Manalili st. - Borromeo St. - Sancianko st. - Aerol Pensione House - CCMC - N. Bacalso Avenue - Citilink - SCSIT - Napolcom - CIT - Mambaling - Shopwise - Basak - Pardo - Bulacao.]]></description>
    <Style id="line-0000FF-5000-normal">
      <LineStyle>
        <color>ffff0000</color>
        <width>5</width>
      </LineStyle>
    </Style>
    <Style id="line-0000FF-5000-highlight">
      <LineStyle>
        <color>ffff0000</color>
        <width>7.5</width>
      </LineStyle>
    </Style>
    <StyleMap id="line-0000FF-5000">
      <Pair>
        <key>normal</key>
        <styleUrl>#line-0000FF-5000-normal</styleUrl>
      </Pair>
      <Pair>
        <key>highlight</key>
        <styleUrl>#line-0000FF-5000-highlight</styleUrl>
      </Pair>
    </StyleMap>
    <Style id="line-33FF33-5000-normal">
      <LineStyle>
        <color>ff33ff33</color>
        <width>5</width>
      </LineStyle>
    </Style>
    <Style id="line-33FF33-5000-highlight">
      <LineStyle>
        <color>ff33ff33</color>
        <width>7.5</width>
      </LineStyle>
    </Style>
    <StyleMap id="line-33FF33-5000">
      <Pair>
        <key>normal</key>
        <styleUrl>#line-33FF33-5000-normal</styleUrl>
      </Pair>
      <Pair>
        <key>highlight</key>
        <styleUrl>#line-33FF33-5000-highlight</styleUrl>
      </Pair>
    </StyleMap>
    <Folder>
      <name>Untitled layer</name>
      <Placemark>
        <name>10H route bulacao  - SM</name>
        <description>From bulacao (Saint Paul College foundation) - Pardo - Basak - mambaling - CIT -SCSIT - Citilink - CCMC - Cebu South Bus terminal - E. mall - ACT - P.del Rosario - Sikatun st. -  T. padilla st. - white gold house - white gold club - Sm.</description>
        <styleUrl>#line-0000FF-5000</styleUrl>
        <LineString>
          <tessellate>1</tessellate>
          <coordinates>
            123.84789,10.272088,0
            123.848341,10.272462,0
            123.849252,10.273386,0
            123.849451,10.273566,0
            123.850594,10.274674,0
            123.851849,10.275962,0
            123.853297,10.277387,0
            123.853796,10.277868,0
            123.854837,10.278913,0
            123.855314,10.279382,0
            123.855958,10.280063,0
            123.857042,10.281304,0
            123.858345,10.282813,0
            123.859118,10.283658,0
            123.85989,10.284576,0
            123.860362,10.285099,0
            123.860716,10.285489,0
            123.860963,10.285764,0
            123.861553,10.286408,0
            123.861907,10.286746,0
            123.862191,10.286967,0
            123.862352,10.287068,0
            123.862755,10.287289,0
            123.864841,10.288197,0
            123.865829,10.288588,0
            123.866762,10.288846,0
            123.86777,10.289115,0
            123.868908,10.289395,0
            123.869621,10.289559,0
            123.870329,10.289722,0
            123.870764,10.289749,0
            123.871338,10.289775,0
            123.871783,10.289791,0
            123.872513,10.289812,0
            123.873188,10.28987,0
            123.873741,10.289965,0
            123.874336,10.290102,0
            123.87505,10.290203,0
            123.875447,10.29025,0
            123.875876,10.290329,0
            123.876311,10.290446,0
            123.876708,10.290657,0
            123.877367,10.291089,0
            123.878376,10.291791,0
            123.879063,10.292303,0
            123.879406,10.29253,0
            123.880736,10.293496,0
            123.882861,10.295016,0
            123.883692,10.295602,0
            123.884164,10.295929,0
            123.884513,10.296146,0
            123.884926,10.296336,0
            123.885173,10.296447,0
            123.885886,10.296695,0
            123.886503,10.29688,0
            123.888434,10.297175,0
            123.889024,10.297217,0
            123.889679,10.297265,0
            123.890001,10.297312,0
            123.890419,10.297423,0
            123.891014,10.297629,0
            123.891572,10.297914,0
            123.89198,10.298109,0
            123.89212,10.298162,0
            123.892538,10.298283,0
            123.892876,10.298378,0
            123.893638,10.298463,0
            123.894233,10.298542,0
            123.895242,10.298685,0
            123.895542,10.298822,0
            123.896647,10.29935,0
            123.896787,10.299508,0
            123.896921,10.299561,0
            123.898058,10.300173,0
            123.89897,10.300685,0
            123.899732,10.301107,0
            123.900332,10.301429,0
            123.900917,10.301661,0
            123.902044,10.301989,0
            123.902199,10.302041,0
            123.902435,10.301672,0
            123.905493,10.301846,0
            123.906603,10.301925,0
            123.907365,10.301973,0
            123.908519,10.301946,0
            123.90906,10.301915,0
            123.909023,10.302179,0
            123.909066,10.302406,0
            123.909109,10.302516,0
            123.909259,10.302918,0
            123.909468,10.303546,0
            123.909768,10.30448,0
            123.909844,10.304855,0
            123.91009,10.305087,0
            123.910949,10.305746,0
            123.911024,10.30581,0
            123.909978,10.307135,0
            123.912697,10.309404,0
            123.914382,10.310776,0
            123.915718,10.311863,0
            123.916265,10.312302,0
            123.916356,10.312439,0
            123.916962,10.31293,0
            123.917638,10.313521,0
            123.917863,10.313653,0
            123.918014,10.31389,0
            123.918255,10.314059,0
            123.91855,10.314297,0
            123.918684,10.31437,0
            123.919355,10.31427,0
            123.919559,10.314238,0
            123.92002,10.314117,0
            123.920202,10.314064,0
            123.920562,10.313906,0
            123.92083,10.313684,0
          </coordinates>
        </LineString>
      </Placemark>
      <Placemark>
        <name>10H route SM - bulacao</name>
        <description>sm - white gold - cebu city registrars office - DSWD - Imus ave. - M. J. Cuenco Ave. - cor. t. Padilla St. - NSO - Legaspi St. - Cebu Metropolitan Cathedral - Manalili st. - Borromeo St. - Sancianko st. - Aerol Pensione House - CCMC - N. Bacalso Avenue - Citilink - SCSIT - Napolcom - CIT - Mambaling - Shopwise - Basak - Pardo - Bulacao.</description>
        <styleUrl>#line-33FF33-5000</styleUrl>
        <LineString>
          <tessellate>1</tessellate>
          <coordinates>
            123.920857,10.313721,0
            123.920578,10.313922,0
            123.920181,10.314112,0
            123.919623,10.314249,0
            123.919017,10.31436,0
            123.918636,10.314392,0
            123.91825,10.314101,0
            123.917992,10.313922,0
            123.917847,10.313679,0
            123.91759,10.313537,0
            123.916318,10.312433,0
            123.916163,10.312338,0
            123.914264,10.310861,0
            123.912338,10.309256,0
            123.909886,10.307198,0
            123.908105,10.308264,0
            123.907263,10.308755,0
            123.907124,10.308765,0
            123.906721,10.308275,0
            123.905531,10.306749,0
            123.905632,10.306649,0
            123.90611,10.306332,0
            123.906094,10.30571,0
            123.906206,10.304939,0
            123.906233,10.304638,0
            123.906384,10.303699,0
            123.906502,10.30287,0
            123.906598,10.301962,0
            123.906587,10.301572,0
            123.906593,10.301324,0
            123.906437,10.300279,0
            123.906384,10.299941,0
            123.906094,10.298373,0
            123.905954,10.297592,0
            123.905724,10.2965,0
            123.905504,10.29565,0
            123.905252,10.29489,0
            123.905096,10.294473,0
            123.905032,10.294336,0
            123.904908,10.294209,0
            123.904125,10.294557,0
            123.903369,10.294921,0
            123.902634,10.295201,0
            123.901781,10.295534,0
            123.901266,10.295734,0
            123.900086,10.296278,0
            123.899549,10.295745,0
            123.899093,10.294409,0
            123.898492,10.294657,0
            123.897913,10.294858,0
            123.896588,10.295465,0
            123.896164,10.295629,0
            123.895011,10.296114,0
            123.893863,10.296647,0
            123.892667,10.29632,0
            123.8925,10.296869,0
            123.891594,10.297867,0
            123.891508,10.29802,0
            123.890966,10.297766,0
            123.889512,10.297428,0
            123.888386,10.297281,0
            123.888107,10.29726,0
            123.887522,10.297191,0
            123.885816,10.296821,0
            123.884985,10.296484,0
            123.884373,10.296193,0
            123.883376,10.295523,0
            123.881546,10.294188,0
            123.880452,10.293417,0
            123.879207,10.292578,0
            123.878982,10.292388,0
            123.878939,10.292314,0
            123.877405,10.291206,0
            123.876638,10.290694,0
            123.876262,10.290519,0
            123.875839,10.290419,0
            123.87542,10.290345,0
            123.875055,10.290319,0
            123.874336,10.290203,0
            123.873725,10.29006,0
            123.872496,10.289907,0
            123.871751,10.289891,0
            123.871338,10.289886,0
            123.870758,10.28987,0
            123.870335,10.289817,0
            123.870029,10.289791,0
            123.869551,10.289664,0
            123.868876,10.289485,0
            123.867749,10.289205,0
            123.865796,10.288693,0
            123.864504,10.28815,0
            123.863533,10.287754,0
            123.862696,10.2874,0
            123.862047,10.286999,0
            123.861521,10.286524,0
            123.860099,10.284946,0
            123.859048,10.283732,0
            123.858345,10.282935,0
            123.857353,10.281789,0
            123.8568,10.281161,0
            123.856339,10.280623,0
            123.855867,10.280116,0
            123.855668,10.279905,0
            123.854756,10.278971,0
            123.853233,10.277461,0
            123.851168,10.275381,0
            123.850116,10.274326,0
            123.849226,10.273455,0
            123.84907,10.273323,0
            123.848512,10.272763,0
            123.848185,10.272468,0
            123.847772,10.272156,0
          </coordinates>
        </LineString>
      </Placemark>
    </Folder>
  </Document>
</kml>
