<?xml version="1.0" encoding="UTF-8"?>
<kml xmlns="http://www.opengis.net/kml/2.2">
  <Document>
    <name>Cebu Jeepney Route No. 10M</name>
    <description><![CDATA[more cebu jeepneys route map at cebujeepneys.weebly.com<br><br>BULACAO TO SM<br>bulacao to basak  <br>bulacao to mambaling <br>bulacao to cit<br>bulacao to ccmc<br>bulacao to e mall <br>bulacao to colon<br>bulacao to t. padilla<br>bulacao to white gold<br>bulacao to SM<br>basak to colon <br>basak to mambaling <br>basak to sm<br>colon to sm<br>colon to white gold club<br>colon to t. padilla<br><br>SM TO BULACAO<br>sm to t. padilla<br>sm to CTU<br>sm to cathedral <br>sm to basilica del sto. nino<br>sm to colon<br>sm to ccmc<br>sm to basak<br>sm to mambaling<br>sm to pardo<br>sm to bulacao<br><br>]]></description>
    <Style id="line-0000FF-5000-normal">
      <LineStyle>
        <color>ffff0000</color>
        <width>5</width>
      </LineStyle>
    </Style>
    <Style id="line-0000FF-5000-highlight">
      <LineStyle>
        <color>ffff0000</color>
        <width>7.5</width>
      </LineStyle>
    </Style>
    <StyleMap id="line-0000FF-5000">
      <Pair>
        <key>normal</key>
        <styleUrl>#line-0000FF-5000-normal</styleUrl>
      </Pair>
      <Pair>
        <key>highlight</key>
        <styleUrl>#line-0000FF-5000-highlight</styleUrl>
      </Pair>
    </StyleMap>
    <Style id="line-33FF33-5000-normal">
      <LineStyle>
        <color>ff33ff33</color>
        <width>5</width>
      </LineStyle>
    </Style>
    <Style id="line-33FF33-5000-highlight">
      <LineStyle>
        <color>ff33ff33</color>
        <width>7.5</width>
      </LineStyle>
    </Style>
    <StyleMap id="line-33FF33-5000">
      <Pair>
        <key>normal</key>
        <styleUrl>#line-33FF33-5000-normal</styleUrl>
      </Pair>
      <Pair>
        <key>highlight</key>
        <styleUrl>#line-33FF33-5000-highlight</styleUrl>
      </Pair>
    </StyleMap>
    <Folder>
      <name>Untitled layer</name>
      <Placemark>
        <name>Bulacao to SM</name>
        <description><![CDATA[more cebu jeepneys route map at cebujeepneys.weebly.com (http://cebujeepneys.weebly.com)<br>Like us on our Facebook Page (http://facebook.com/cebujeepneysroutemap)<br><br> <br>Bulcao - St. Paul College (bulacao) - Cit Hardware - Prince Warehouse Club -  Pardo - Basak - USJR (High School) - Mamabaling - Shopwise - Fooda - Mambaling Flyover - CIT - Salazar College - Napolcom - CCMC - Cebu South Bus Terminal - E mall - L. Kilat St. - Colon St. - Metro Colon - Colonnade Supermarket - 138 Mall - Gaisano Main - University of the visayas - Colon Obelisk - Zulueta St. - MJ. Cuenco Ave. - NSO - T. Padilla St. - B. Benedicto St. - White Gold House - A. Soriano Ave. - White Gold Club - Queen City Memorial Garden - Sm City Cebu (terminal).]]></description>
        <styleUrl>#line-0000FF-5000</styleUrl>
        <LineString>
          <tessellate>1</tessellate>
          <coordinates>
            123.84758,10.27189,0
            123.84835,10.27247,0
            123.84864,10.27282,0
            123.8497,10.27382,0
            123.85567,10.27976,0
            123.85845,10.28298,0
            123.86151,10.28639,0
            123.86215,10.28697,0
            123.86247,10.28715,0
            123.86375,10.28775,0
            123.86582,10.2886,0
            123.87011,10.2897,0
            123.87076,10.28977,0
            123.87251,10.2898,0
            123.87335,10.28989,0
            123.87432,10.2901,0
            123.87578,10.29031,0
            123.87597,10.29042,0
            123.87628,10.2905,0
            123.87678,10.29076,0
            123.87729,10.29111,0
            123.87895,10.29233,0
            123.87913,10.29235,0
            123.88414,10.29592,0
            123.88492,10.29634,0
            123.88587,10.2967,0
            123.88651,10.29689,0
            123.88843,10.29718,0
            123.88967,10.29726,0
            123.89009,10.29734,0
            123.89096,10.29762,0
            123.89155,10.29794,0
            123.8923,10.29824,0
            123.89291,10.29836,0
            123.895,10.29863,0
            123.895258,10.298663,0
            123.895424,10.298637,0
            123.895553,10.298571,0
            123.895665,10.298442,0
            123.895998,10.297278,0
            123.896492,10.29547,0
            123.89674,10.29553,0
            123.89799,10.29608,0
            123.9006,10.29765,0
            123.90206,10.29776,0
            123.90374,10.29795,0
            123.90372,10.29835,0
            123.90381,10.29879,0
            123.90608,10.29838,0
            123.90643,10.30027,0
            123.90657,10.30131,0
            123.90659,10.30192,0
            123.90736,10.30198,0
            123.908983,10.301917,0
            123.90901,10.30215,0
            123.90907,10.3024,0
            123.90947,10.30352,0
            123.909857,10.304786,0
            123.910055,10.305023,0
            123.910509,10.305385,0
            123.910954,10.305733,0
            123.911579,10.304963,0
            123.9131,10.306216,0
            123.916053,10.308665,0
            123.916648,10.308005,0
            123.91852,10.30953,0
            123.91858,10.30962,0
            123.91822,10.31007,0
            123.91829,10.31014,0
            123.91815,10.31032,0
          </coordinates>
        </LineString>
      </Placemark>
      <Placemark>
        <name>Sm (terminal) to Bulacao</name>
        <description><![CDATA[more cebu jeepneys route map at cebujeepneys.weebly.com (http://cebujeepneys.weebly.com)<br>Like us on our Facebook Page (http://facebook.com/cebujeepneysroutemap)<br><br> Sm Terminal - A. Soriano Ave. - White Gold Club - Queen City Memorial Garden - Queensland - White Gold House - B. Benedecto St. - T. Padilla St. - Mj. Cuenco ave. - NSO - CTU - Plaza Independecia - Legaspi st. - V. gullas St. - Manalili St. - A. Borromeo St. - Sanciangko St. - Panganiban st. - CCMC - N. Bacalso St. - Cebu South Road - CIT - Mambaling - Fooda - Shopwise - Basak - Pardo - Citi Hardware -  Prince warehouse club - Bulacao (saint Paul college).]]></description>
        <styleUrl>#line-33FF33-5000</styleUrl>
        <LineString>
          <tessellate>1</tessellate>
          <coordinates>
            123.91809,10.31041,0
            123.91798,10.31053,0
            123.91788,10.3105,0
            123.9163,10.31241,0
            123.91616,10.31237,0
            123.91432,10.3109,0
            123.90988,10.3072,0
            123.9099,10.30706,0
            123.910919,10.305762,0
            123.910388,10.305345,0
            123.910136,10.30515,0
            123.90997,10.304981,0
            123.909841,10.304831,0
            123.909771,10.304662,0
            123.90974,10.30447,0
            123.909001,10.302276,0
            123.908956,10.301954,0
            123.90737,10.30199,0
            123.90657,10.30192,0
            123.90656,10.30133,0
            123.90642,10.30025,0
            123.90586,10.29724,0
            123.90548,10.29563,0
            123.9051,10.29447,0
            123.9049,10.2942,0
            123.90335,10.29493,0
            123.90178,10.29553,0
            123.90006,10.29626,0
            123.89954,10.29575,0
            123.89907,10.29443,0
            123.89777,10.29489,0
            123.896516,10.295431,0
            123.895813,10.295753,0
            123.89386,10.29665,0
            123.892551,10.296323,0
            123.892396,10.296866,0
            123.89146,10.298027,0
            123.89095,10.29777,0
            123.88973,10.29746,0
            123.88707,10.2971,0
            123.88581,10.29683,0
            123.88443,10.29624,0
            123.87999,10.29312,0
            123.87722,10.2911,0
            123.87666,10.29072,0
            123.8762,10.2905,0
            123.87587,10.2904,0
            123.8744,10.2902,0
            123.87323,10.28996,0
            123.8725,10.28989,0
            123.87013,10.2898,0
            123.86885,10.28949,0
            123.86579,10.28869,0
            123.86268,10.28741,0
            123.86203,10.287,0
            123.86148,10.2865,0
            123.86059,10.28552,0
            123.85567,10.2799,0
            123.85404,10.27823,0
            123.84867,10.27293,0
            123.84792,10.27225,0
            123.84742,10.27194,0
          </coordinates>
        </LineString>
      </Placemark>
    </Folder>
  </Document>
</kml>
