<?xml version="1.0" encoding="UTF-8"?>
<kml xmlns="http://www.opengis.net/kml/2.2">
  <Document>
    <name>Cebu Jeepney Route No. 12G</name>
    <description><![CDATA[more cebu jeepneys route maps at cebujeepneys.weebly.com<br><br>Sm City Cebu to Labangon via Katipunan St.<br><br>Sm to pier 4 <br>sm to sugbutel<br>sm to t. padilla st.<br>sm to sancianko<br>sm to e mall<br>sm to ccmc<br>sm to labangon<br>sm to katipunan st.<br>sm to tisa <br>sm  to punta princesa<br>t. padilla to e mall<br>t. padilla to sancianko<br>t. padilla to labangon<br>pier 4 to labangon<br>e mall to labangon<br>sancianko st to labangon<br><br>Labangon to SM<br><br>Labangon to taboan<br>labangon to pasil<br>labangon to carbon<br>labangon to magallanes<br>labangon to sto. nino<br>labangon  to plaza independencia<br>labangon to pier 1, 2, 3, 4, 5, 6<br>labangon to sm<br>taboan to sto nino<br>taboan to plaza independencia<br>taboan to pier 1, 2, 3, 4, 5, 6<br>taboan to sm<br>carbon to plaza independencia<br>carbon to pier 1, 2, 3, 4, 5, 6<br>carbon to sm<br>carbon to sugbutel<br>carbon to pcso<br>magallanes to sm<br>magallanes to pier 1, 2, 3, 4, 5, 6<br>magallanes to sugbutel<br>magallanes to pcso<br>labangon to usjr<br>plaza independencia  to sm<br>plaza independencia to pier 1, 2, 3, 4, 5, 6<br>usjr to SM <br><br><br><br><br><br><br><br><br><br>]]></description>
    <Style id="line-0000FF-5000-normal">
      <LineStyle>
        <color>ffff0000</color>
        <width>5</width>
      </LineStyle>
    </Style>
    <Style id="line-0000FF-5000-highlight">
      <LineStyle>
        <color>ffff0000</color>
        <width>7.5</width>
      </LineStyle>
    </Style>
    <StyleMap id="line-0000FF-5000">
      <Pair>
        <key>normal</key>
        <styleUrl>#line-0000FF-5000-normal</styleUrl>
      </Pair>
      <Pair>
        <key>highlight</key>
        <styleUrl>#line-0000FF-5000-highlight</styleUrl>
      </Pair>
    </StyleMap>
    <Style id="line-CC33CC-5000-normal">
      <LineStyle>
        <color>ffcc33cc</color>
        <width>5</width>
      </LineStyle>
    </Style>
    <Style id="line-CC33CC-5000-highlight">
      <LineStyle>
        <color>ffcc33cc</color>
        <width>7.5</width>
      </LineStyle>
    </Style>
    <StyleMap id="line-CC33CC-5000">
      <Pair>
        <key>normal</key>
        <styleUrl>#line-CC33CC-5000-normal</styleUrl>
      </Pair>
      <Pair>
        <key>highlight</key>
        <styleUrl>#line-CC33CC-5000-highlight</styleUrl>
      </Pair>
    </StyleMap>
    <Folder>
      <name>Untitled layer</name>
      <Placemark>
        <name>SM City Cebu  to Labangon (Katipunan St. )</name>
        <description><![CDATA[more cebu jeepneys route map at cebujeepneys.weebly.com (http://cebujeepneys.weebly.com)<br>Like our Facebook Page (http://www.facebook.com/cebujeepneysroutemap)<br><br> <br>SM City Cebu PUJ Terminal - J. Luna Ave. - F. Cabahug St. - APM Mall - Cebu Institute Academy - Sergio Osmena Blvd. - Cebu Daily News - Pier 6 - Sugbutel - Pier 5 - PCSO - Pier 4 - T. Padilla st. - Martires - MJ. Cuenco Ave. - A. Bonifacio St. - Sikatuna St. - Parian Brgy. Hall - JC. Zamora st. - Sancianko St. - University of Cebu - Sogo Hotel - GV Tower Hotel - University of Cebu - E mall - Panganiban St. - CCMC - N. Bacalso Ave. - One Citilink Terminal - Katipunan St. - Labangon - F. Llamas st. - Brgy. Tisa - Punta Prinsesa - Tres De Abril st.]]></description>
        <styleUrl>#line-0000FF-5000</styleUrl>
        <LineString>
          <tessellate>1</tessellate>
          <coordinates>
            123.918073,10.310491,0
            123.917955,10.310544,0
            123.917871,10.310526,0
            123.917442,10.311024,0
            123.916324,10.312402,0
            123.916984,10.31293,0
            123.917649,10.313494,0
            123.91789,10.313647,0
            123.918024,10.313864,0
            123.918716,10.314344,0
            123.919682,10.314191,0
            123.920213,10.314038,0
            123.920513,10.313895,0
            123.920825,10.313668,0
            123.921205,10.313315,0
            123.921602,10.312808,0
            123.922241,10.312032,0
            123.922536,10.311679,0
            123.921302,10.310718,0
            123.919639,10.309367,0
            123.918673,10.308586,0
            123.917182,10.307346,0
            123.915911,10.306338,0
            123.913958,10.304749,0
            123.912622,10.303683,0
            123.911378,10.30259,0
            123.91075,10.302115,0
            123.9103,10.301688,0
            123.910171,10.301793,0
            123.909962,10.301862,0
            123.909017,10.301925,0
            123.907451,10.301981,0
            123.906563,10.301894,0
            123.90652,10.301886,0
            123.906491,10.301308,0
            123.90633,10.300273,0
            123.905131,10.300292,0
            123.903779,10.300292,0
            123.903033,10.300352,0
            123.903178,10.300038,0
            123.903302,10.299764,0
            123.903347,10.299405,0
            123.903446,10.29893,0
            123.903272,10.298885,0
            123.902594,10.298985,0
            123.901808,10.298983,0
            123.901698,10.299249,0
            123.901075,10.299223,0
            123.900601,10.299117,0
            123.900193,10.299025,0
            123.899842,10.298869,0
            123.898924,10.298468,0
            123.898656,10.298357,0
            123.898342,10.298181,0
            123.897972,10.298001,0
            123.897516,10.297753,0
            123.896824,10.297537,0
            123.895942,10.297302,0
            123.895083,10.297038,0
            123.894499,10.296864,0
            123.893863,10.296663,0
            123.893697,10.296592,0
            123.892994,10.296418,0
            123.892551,10.296328,0
            123.892404,10.296893,0
            123.89217,10.297183,0
            123.891664,10.297727,0
            123.891505,10.297935,0
            123.891433,10.298041,0
            123.890813,10.297756,0
            123.890532,10.297655,0
            123.890092,10.297545,0
            123.889585,10.297434,0
            123.888963,10.297355,0
            123.888348,10.297291,0
            123.88752,10.297199,0
            123.887367,10.297481,0
            123.886449,10.297708,0
            123.885103,10.298059,0
            123.883571,10.298439,0
            123.88197,10.298822,0
            123.880913,10.299065,0
            123.879926,10.299294,0
            123.878894,10.299558,0
            123.877805,10.29983,0
            123.876662,10.30012,0
            123.876174,10.300202,0
            123.875849,10.300279,0
            123.87524,10.300418,0
            123.874514,10.300627,0
            123.873754,10.300825,0
            123.872649,10.301078,0
            123.871563,10.301345,0
            123.870568,10.301582,0
            123.870251,10.301434,0
            123.870005,10.301305,0
            123.869635,10.301068,0
            123.869565,10.300917,0
            123.869549,10.300809,0
            123.869745,10.299978,0
            123.869833,10.299606,0
            123.869771,10.298851,0
            123.869736,10.298476,0
            123.869718,10.298225,0
            123.869747,10.297729,0
            123.869804,10.297075,0
            123.869809,10.296726,0
            123.869787,10.296104,0
            123.86983,10.295526,0
            123.870032,10.294325,0
          </coordinates>
        </LineString>
      </Placemark>
      <Placemark>
        <name>Labangon to Sm City Cebu</name>
        <description><![CDATA[more cebu jeepneys route maps at cebujeepneys.weebly.com (http://cebujeepneys.weebly.com)<br>Like us on our Facebook Page. (http://www.facebook.com/cebujeepneysroutemap)<br> <br>Punta Prinsesa - Tres de Abril St. - Labangon - Carlock St. - B. Aranas St. - Taboan Public Market - Lakandula St. - San Nicolas Parish Church - Pasil Fish Market - Spolarium St - Magallanes St. - University of  San Jose Recoletos - Carbon Public market - Magellans Cross - Basilica del Sto. Nino - D. Jakosalem st. - MC. Briones St. - Cebu City Hall - Senior Citizens Park - La Nueva City Hall - Plaza Independencia - MJ. Cuenco ave. - Legaspi Ext. - Sergio Osmena Blvd. - Pier 3 - Pier 4 - Sugbutel Bed and Bath - Pier 5 - Pier 6 - Radisson Blu - Juan Luna Ave. - SM City Cebu - Sm Puj Terminal.]]></description>
        <styleUrl>#line-CC33CC-5000</styleUrl>
        <LineString>
          <tessellate>1</tessellate>
          <coordinates>
            123.870023,10.29433,0
            123.870088,10.294314,0
            123.870343,10.294489,0
            123.8713,10.294979,0
            123.871874,10.295317,0
            123.872218,10.295542,0
            123.872974,10.296072,0
            123.873197,10.296275,0
            123.873706,10.296507,0
            123.874741,10.296616,0
            123.875629,10.296726,0
            123.876067,10.296827,0
            123.876775,10.297083,0
            123.877542,10.297299,0
            123.877775,10.297362,0
            123.878081,10.297421,0
            123.879038,10.297455,0
            123.879379,10.297518,0
            123.879848,10.297576,0
            123.880192,10.297555,0
            123.880849,10.29741,0
            123.881112,10.297389,0
            123.881603,10.297476,0
            123.882329,10.297616,0
            123.883011,10.297603,0
            123.883681,10.297579,0
            123.883987,10.297568,0
            123.884542,10.297621,0
            123.884802,10.297647,0
            123.885106,10.297737,0
            123.885371,10.297552,0
            123.885548,10.297275,0
            123.885781,10.29684,0
            123.885873,10.296663,0
            123.885953,10.29647,0
            123.886023,10.296381,0
            123.886101,10.29632,0
            123.886272,10.296288,0
            123.886543,10.296328,0
            123.88657,10.295885,0
            123.886656,10.294953,0
            123.886755,10.294407,0
            123.887509,10.294486,0
            123.888646,10.294615,0
            123.889381,10.294702,0
            123.890596,10.294892,0
            123.891409,10.294979,0
            123.891798,10.295032,0
            123.89205,10.294172,0
            123.892179,10.293604,0
            123.892291,10.293056,0
            123.892449,10.292546,0
            123.892954,10.292617,0
            123.893592,10.292712,0
            123.894359,10.292876,0
            123.894775,10.292987,0
            123.894914,10.29305,0
            123.895325,10.293093,0
            123.895507,10.293087,0
            123.895687,10.293145,0
            123.896001,10.293188,0
            123.896344,10.293267,0
            123.897074,10.293457,0
            123.897243,10.293467,0
            123.897846,10.293644,0
            123.898168,10.293765,0
            123.898999,10.294198,0
            123.899217,10.294293,0
            123.899407,10.294267,0
            123.899721,10.294251,0
            123.89997,10.294185,0
            123.900641,10.293992,0
            123.901164,10.293824,0
            123.901247,10.293736,0
            123.901164,10.293467,0
            123.901121,10.293293,0
            123.901014,10.292881,0
            123.901011,10.292694,0
            123.901065,10.292391,0
            123.90114,10.292377,0
            123.901743,10.292504,0
            123.902315,10.292615,0
            123.903033,10.292296,0
            123.903632,10.292063,0
            123.903827,10.292026,0
            123.903927,10.292037,0
            123.904141,10.292567,0
            123.904251,10.292789,0
            123.904436,10.293116,0
            123.904519,10.293306,0
            123.904814,10.293932,0
            123.90494,10.294198,0
            123.905026,10.294314,0
            123.906142,10.293776,0
            123.906443,10.294362,0
            123.906915,10.295254,0
            123.907304,10.29604,0
            123.907365,10.296246,0
            123.907682,10.296861,0
            123.908232,10.297835,0
            123.908814,10.298859,0
            123.909283,10.299764,0
            123.909803,10.300748,0
            123.910227,10.301397,0
            123.910407,10.301603,0
            123.911166,10.302216,0
            123.912078,10.302986,0
            123.912899,10.303654,0
            123.913955,10.304535,0
            123.914991,10.305406,0
            123.91598,10.306266,0
            123.916935,10.307021,0
            123.917909,10.307807,0
            123.918915,10.308602,0
            123.919175,10.308805,0
            123.91914,10.309,0
            123.91858,10.309655,0
            123.918268,10.310061,0
            123.918279,10.310167,0
            123.918099,10.310431,0
          </coordinates>
        </LineString>
      </Placemark>
    </Folder>
  </Document>
</kml>
