<?xml version="1.0" encoding="UTF-8"?>
<kml xmlns="http://www.opengis.net/kml/2.2">
  <Document>
    <name>Cebu Jeepneys Route No. 12i</name>
    <description><![CDATA[more cebu jeepneys route maps at cebujeepney.weebly.com<br><br>SM to Labangon (Tres de Abril St.)<br><br>Sm to pier 4<br>Sm to pier 3<br>Sm to plaza independencia <br>Sm to Fort San Pedro<br>Sm to Legaspi st.<br>Sm to Cathedral <br>Sm to Sto. Nino<br>Sm to Manalilii St. <br>Sm to CCMC<br>Sm to N. Bacalso Hiway<br>Sm to Labangon (tres de abril st.)<br>Sm to Punta Princesa<br>Pier 3 to cathedral <br>pier 3 to manalili st<br>pier 3 to ccmc<br>pier 3 to colon<br>pier 3 to labangon<br>pier 3 to tres de abril st.<br>pier 3 to punta princesa<br>plaza independencia to colon<br>plaza independencia to ccmc<br>plaza independencia to labangon<br>plaza independencia  to tres de abril st.<br>plaza independencia to punta princesa<br>colon to labangon<br>colon to tres de abril st.<br>colon to punta princesa<br><br>Labangon to SM City Cebu<br><br>Labangon to E Mall<br>Labangon to San carlos <br>Labangon to Junquera st.<br>Labangon to colon<br>Labangon to cathedral<br>labangon to plaza independencia<br>labangon to pier 3<br>labangon to pier 4<br>labangon to pier 5<br>labangon to SM <br>Katipunan st to e mall<br>katipunan to colon]]></description>
    <Style id="line-0000FF-5000-normal">
      <LineStyle>
        <color>ffff0000</color>
        <width>5</width>
      </LineStyle>
    </Style>
    <Style id="line-0000FF-5000-highlight">
      <LineStyle>
        <color>ffff0000</color>
        <width>7.5</width>
      </LineStyle>
    </Style>
    <StyleMap id="line-0000FF-5000">
      <Pair>
        <key>normal</key>
        <styleUrl>#line-0000FF-5000-normal</styleUrl>
      </Pair>
      <Pair>
        <key>highlight</key>
        <styleUrl>#line-0000FF-5000-highlight</styleUrl>
      </Pair>
    </StyleMap>
    <Style id="line-CC33CC-5000-normal">
      <LineStyle>
        <color>ffcc33cc</color>
        <width>5</width>
      </LineStyle>
    </Style>
    <Style id="line-CC33CC-5000-highlight">
      <LineStyle>
        <color>ffcc33cc</color>
        <width>7.5</width>
      </LineStyle>
    </Style>
    <StyleMap id="line-CC33CC-5000">
      <Pair>
        <key>normal</key>
        <styleUrl>#line-CC33CC-5000-normal</styleUrl>
      </Pair>
      <Pair>
        <key>highlight</key>
        <styleUrl>#line-CC33CC-5000-highlight</styleUrl>
      </Pair>
    </StyleMap>
    <Folder>
      <name>Untitled layer</name>
      <Placemark>
        <name>SM to Labangon (Tres)</name>
        <description><![CDATA[more cebu jeepneys route map at cebujeepneys.weebly.com (http://cebujeepneys.weebly.com)<br>Like us on our Facebook Page (http://www.facebook.com/cebujeepneysroutemap)<br><br> <br>Sm City Cebu Puj Terminal - J. Luna Ave. - F. Cabajug St. - APM Mall - Cebu Institute Academy - Natasha - S. Osmena Blvd. - Radisson Blu - Sugbutel Bed and Bath - PCSO Main Office cebu - Robinsons Mall (reclamation area) - cebu technological university - Legaspit Ext. - Plaza Independencia - Port San Pedro - Legaspit St. - Metropolitan cebu Cathedral - Sto nino - V. Gullas St. - Manalili st. - Manila Foodshoppe - Pacific Tourist Inn - A. Borromeo St - Sancianko st. - Airol Pensione House - Panganiban St. - CCMC - N. Bacalso Ave. - Comglasco - Katipunan St. - Tres de Abril St - Punta Princesa.]]></description>
        <styleUrl>#line-0000FF-5000</styleUrl>
        <LineString>
          <tessellate>1</tessellate>
          <coordinates>
            123.918089,10.310446,0
            123.917963,10.310586,0
            123.917863,10.310547,0
            123.917558,10.310898,0
            123.916796,10.311811,0
            123.916329,10.312402,0
            123.917544,10.313405,0
            123.917643,10.313515,0
            123.917837,10.313621,0
            123.91789,10.313663,0
            123.918008,10.313848,0
            123.918486,10.314244,0
            123.918722,10.314349,0
            123.919204,10.314275,0
            123.919548,10.314223,0
            123.919993,10.314107,0
            123.92017,10.314054,0
            123.920535,10.313869,0
            123.920873,10.313621,0
            123.921227,10.31322,0
            123.921463,10.312967,0
            123.921592,10.312782,0
            123.922504,10.311695,0
            123.921543,10.310924,0
            123.920814,10.310312,0
            123.919049,10.308887,0
            123.917193,10.30733,0
            123.915326,10.305873,0
            123.912633,10.303667,0
            123.910831,10.302184,0
            123.910273,10.301688,0
            123.909908,10.301197,0
            123.909071,10.299693,0
            123.908406,10.298458,0
            123.907751,10.297207,0
            123.907247,10.296325,0
            123.905987,10.29405,0
            123.905091,10.294489,0
            123.905013,10.294354,0
            123.904908,10.294243,0
            123.904122,10.294591,0
            123.903347,10.294948,0
            123.902596,10.295241,0
            123.901762,10.295565,0
            123.900102,10.296286,0
            123.899555,10.295766,0
            123.899273,10.295082,0
            123.899074,10.294404,0
            123.898458,10.294668,0
            123.897712,10.294929,0
            123.897066,10.295212,0
            123.896467,10.295457,0
            123.896408,10.295497,0
            123.896199,10.295621,0
            123.895279,10.295995,0
            123.89493,10.296133,0
            123.893855,10.296637,0
            123.89345,10.296513,0
            123.892541,10.296304,0
            123.892393,10.296882,0
            123.892205,10.29712,0
            123.891639,10.297721,0
            123.891492,10.297951,0
            123.891438,10.298051,0
            123.890832,10.297772,0
            123.890462,10.297634,0
            123.889974,10.297508,0
            123.88948,10.297423,0
            123.889019,10.297355,0
            123.888423,10.297302,0
            123.888059,10.297249,0
            123.887533,10.297217,0
            123.88738,10.297447,0
            123.887104,10.297526,0
            123.886785,10.297595,0
            123.886621,10.297637,0
            123.886404,10.297698,0
            123.885972,10.297824,0
            123.885135,10.298041,0
            123.885076,10.297779,0
            123.884878,10.297721,0
            123.884765,10.297695,0
            123.884633,10.297684,0
            123.883947,10.297624,0
            123.883453,10.29764,0
            123.883016,10.29765,0
            123.882354,10.297669,0
            123.881847,10.297579,0
            123.881136,10.297436,0
            123.880865,10.297457,0
            123.880224,10.297592,0
            123.879835,10.297642,0
            123.879344,10.297558,0
            123.878974,10.297502,0
            123.878609,10.297489,0
            123.878075,10.297463,0
            123.877587,10.29737,0
            123.876917,10.297172,0
            123.876238,10.296951,0
            123.875997,10.296872,0
            123.875514,10.296761,0
            123.874747,10.296668,0
            123.874047,10.296576,0
            123.873706,10.29655,0
            123.873191,10.296323,0
            123.872899,10.296067,0
            123.872349,10.295681,0
            123.871306,10.29504,0
            123.870622,10.294689,0
            123.870085,10.29437,0
          </coordinates>
        </LineString>
      </Placemark>
      <Placemark>
        <name>Labangon to SM</name>
        <description><![CDATA[more cebu jeepneys route map at cebujeepneys.weebly.com (http://cebujeepneys.weebly.com)<br>Like us on our Facebook Page (http://www.facebook.com/cebujeepneysroutemap)<br><br> <br>Punta Princesa - F. Llamas St. - Brgy Tisa - Gaisano Tisa - Katipunan St. - Brgy. Labangon - Tres de Abril st. - N. Bacalso Ave. - Citilink Terminal - CCMC - Cebu South Bus Terminal - E Mall - ACT - P. del rosario sT. - university of san carlos - Junquera St. - Colon St. - Gaisano Main - University of the Visayas - Colon Obelisk - P.Burgos St. - USPF - Cebu Metropolitan Cathedral - F. Urdaneta St. - MJ. Cuenco ave. - Legaspi Ext. - Plaza Indepnedencia - Fort San Pedro - Sergio Osmena Ave - Pier 3 - Pier 4 - pier 5 Robinsons Mall - PCSO - Sugbutel - SM City Cebu Terminal.]]></description>
        <styleUrl>#line-CC33CC-5000</styleUrl>
        <LineString>
          <tessellate>1</tessellate>
          <coordinates>
            123.870069,10.294372,0
            123.869983,10.294935,0
            123.8699,10.295415,0
            123.869871,10.295547,0
            123.869836,10.29613,0
            123.869855,10.297064,0
            123.869828,10.297415,0
            123.869785,10.29788,0
            123.869769,10.298207,0
            123.86975,10.298394,0
            123.869793,10.298505,0
            123.869822,10.298851,0
            123.869879,10.299553,0
            123.869825,10.29988,0
            123.869602,10.300814,0
            123.869613,10.300907,0
            123.869677,10.301036,0
            123.870547,10.301524,0
            123.871555,10.301289,0
            123.872674,10.301025,0
            123.87383,10.300761,0
            123.874884,10.300469,0
            123.876185,10.300152,0
            123.876673,10.300078,0
            123.877609,10.299851,0
            123.878652,10.299595,0
            123.880042,10.299226,0
            123.880613,10.299083,0
            123.88142,10.298919,0
            123.882292,10.298711,0
            123.883062,10.298542,0
            123.884078,10.298289,0
            123.885084,10.298035,0
            123.88513,10.297748,0
            123.885376,10.297587,0
            123.885883,10.296687,0
            123.886468,10.296861,0
            123.886836,10.296932,0
            123.888434,10.29717,0
            123.889341,10.297254,0
            123.88962,10.297275,0
            123.889974,10.297333,0
            123.890473,10.297471,0
            123.890832,10.297592,0
            123.891551,10.297962,0
            123.891985,10.298162,0
            123.89257,10.298331,0
            123.8933,10.298426,0
            123.894399,10.298568,0
            123.895059,10.298653,0
            123.895301,10.298716,0
            123.895553,10.298838,0
            123.896599,10.29935,0
            123.896832,10.299508,0
            123.897599,10.299906,0
            123.898104,10.300186,0
            123.898951,10.300666,0
            123.899158,10.300257,0
            123.899592,10.299584,0
            123.899893,10.299012,0
            123.900064,10.298724,0
            123.900311,10.298326,0
            123.900614,10.297647,0
            123.901354,10.297713,0
            123.902103,10.297745,0
            123.903009,10.297853,0
            123.903744,10.297938,0
            123.903801,10.297774,0
            123.903843,10.297355,0
            123.903833,10.297233,0
            123.903725,10.296394,0
            123.903664,10.295729,0
            123.903672,10.295671,0
            123.904077,10.295452,0
            123.904742,10.295114,0
            123.905209,10.294882,0
            123.905101,10.29456,0
            123.905048,10.29432,0
            123.90596,10.293855,0
            123.906134,10.293763,0
            123.906641,10.294718,0
            123.907312,10.29604,0
            123.90736,10.296257,0
            123.907843,10.297154,0
            123.908599,10.298437,0
            123.909516,10.30022,0
            123.909817,10.300764,0
            123.91023,10.301382,0
            123.910391,10.301593,0
            123.912188,10.303049,0
            123.912842,10.303604,0
            123.913824,10.304427,0
            123.915069,10.305467,0
            123.916098,10.306353,0
            123.918121,10.307974,0
            123.919151,10.308818,0
            123.919124,10.309024,0
            123.918577,10.309652,0
            123.918341,10.309974,0
            123.918234,10.310095,0
            123.918271,10.310185,0
            123.91811,10.310396,0
          </coordinates>
        </LineString>
      </Placemark>
    </Folder>
  </Document>
</kml>
