<?xml version="1.0" encoding="UTF-8"?>
<kml xmlns="http://www.opengis.net/kml/2.2">
  <Document>
    <name>Cebu Jeepney Route no. 12L</name>
    <description><![CDATA[more cebu jeepneys route maps at cebujeepneys.weebly.com<br><br>Labangon to Ayala Center Cebu<br><br>labangon to v. rama ave.<br>labangon to b. rodriguez <br>labangon to fuente osmena circle<br>labangon to robinsons Fuente<br>labangon to vicente sotto hospital<br>labangon to mango<br>labangon to mango square mall<br>labangon to cebu city police station<br>labangon to cebu business park<br>labangon to metro ayala<br>labangon to ayala center <br>labangon to ayala terminal<br>punta princesa to v. rama ave.<br>punta princesa to fuente osmena<br>punta princesa to mango ave.<br>punta princesa to ayala <br>v.rama ave. to fuente osmena<br>v.rama ave. to robinsons fuente<br>v.rama ave. to mango square<br>v.rama ave. to ayala center<br>fuente to ayala<br>fuente to metro ayala<br>fuente to ayala terminal<br>mango to ayala center<br>mango to metro ayala<br>mango to ayala terminal<br><br>Ayala to Labangon<br><br>ayala to escario st.<br>ayala to provincial capitol<br>ayala to banawa<br>ayala to rustans banawa<br>ayala to convergys banawa<br>ayala to labangon(katipunan st.)<br>ayala to tisa<br>ayala to punta princesa]]></description>
    <Style id="line-0000FF-5000-normal">
      <LineStyle>
        <color>ffff0000</color>
        <width>5</width>
      </LineStyle>
    </Style>
    <Style id="line-0000FF-5000-highlight">
      <LineStyle>
        <color>ffff0000</color>
        <width>7.5</width>
      </LineStyle>
    </Style>
    <StyleMap id="line-0000FF-5000">
      <Pair>
        <key>normal</key>
        <styleUrl>#line-0000FF-5000-normal</styleUrl>
      </Pair>
      <Pair>
        <key>highlight</key>
        <styleUrl>#line-0000FF-5000-highlight</styleUrl>
      </Pair>
    </StyleMap>
    <Style id="line-33FF33-5000-normal">
      <LineStyle>
        <color>ff33ff33</color>
        <width>5</width>
      </LineStyle>
    </Style>
    <Style id="line-33FF33-5000-highlight">
      <LineStyle>
        <color>ff33ff33</color>
        <width>7.5</width>
      </LineStyle>
    </Style>
    <StyleMap id="line-33FF33-5000">
      <Pair>
        <key>normal</key>
        <styleUrl>#line-33FF33-5000-normal</styleUrl>
      </Pair>
      <Pair>
        <key>highlight</key>
        <styleUrl>#line-33FF33-5000-highlight</styleUrl>
      </Pair>
    </StyleMap>
    <Folder>
      <name>Untitled layer</name>
      <Placemark>
        <name> Labangon - Ayala Center Cebu Terminal</name>
        <description><![CDATA[more cebu jeepneys route maps at cebujeepneys.weebly.com (http://cebujeepneys.weebly.com)<br>Like us on our Facebook Page (http://facebook.com/cebujeepneysroutemap)<br><br>Labangon to Ayala<br> <br>Punta Princesa Church - Tres de Abril - Salvador St. - Katipunan St. - Tres de Abril St. - N. Bacalso Ave. - V. Rama Ave. B. Rodriguez Ave. - Fuente Osmena Circle - Robinsons Place Cebu (fuente) - Mango Ave. - Gen. Maxilom Ave. - Gorordo Ave. Cebu City Police Station - Ayala Road - Ayala Center Cebu PUJ Terminal.]]></description>
        <styleUrl>#line-0000FF-5000</styleUrl>
        <LineString>
          <tessellate>1</tessellate>
          <coordinates>
            123.870163,10.294357,0
            123.870581,10.294599,0
            123.871139,10.294853,0
            123.871815,10.295243,0
            123.872244,10.295586,0
            123.872952,10.296072,0
            123.873285,10.296336,0
            123.873784,10.296542,0
            123.874814,10.296653,0
            123.875672,10.296748,0
            123.876134,10.296864,0
            123.876638,10.297043,0
            123.877426,10.297286,0
            123.878108,10.297444,0
            123.878993,10.297476,0
            123.879358,10.297534,0
            123.879245,10.298252,0
            123.879132,10.298985,0
            123.878918,10.29955,0
            123.879787,10.299323,0
            123.881412,10.298954,0
            123.882962,10.29859,0
            123.885119,10.298051,0
            123.885119,10.297761,0
            123.885371,10.297592,0
            123.885553,10.297318,0
            123.885816,10.296837,0
            123.885891,10.2967,0
            123.88646,10.296864,0
            123.886836,10.296927,0
            123.887345,10.297006,0
            123.887892,10.29708,0
            123.888158,10.297136,0
            123.888437,10.297178,0
            123.888362,10.297294,0
            123.888094,10.29774,0
            123.887887,10.298109,0
            123.887672,10.298574,0
            123.887447,10.298938,0
            123.88719,10.299418,0
            123.886986,10.299814,0
            123.886814,10.300205,0
            123.88676,10.300352,0
            123.886723,10.300532,0
            123.886691,10.300817,0
            123.886691,10.301207,0
            123.886734,10.301514,0
            123.886739,10.301814,0
            123.886744,10.302084,0
            123.88676,10.302379,0
            123.886777,10.302664,0
            123.886819,10.303319,0
            123.886814,10.303957,0
            123.886787,10.304422,0
            123.886685,10.304981,0
            123.88668,10.30562,0
            123.886691,10.306016,0
            123.886659,10.306696,0
            123.88668,10.307425,0
            123.886701,10.307773,0
            123.886723,10.307837,0
            123.886852,10.307895,0
            123.887554,10.307958,0
            123.8886,10.308058,0
            123.889298,10.308127,0
            123.889663,10.308211,0
            123.890033,10.308338,0
            123.890848,10.308618,0
            123.8919,10.308982,0
            123.892195,10.309087,0
            123.89249,10.30923,0
            123.892651,10.309325,0
            123.89279,10.309251,0
            123.892924,10.309198,0
            123.893257,10.309145,0
            123.89331,10.309172,0
            123.893439,10.30924,0
            123.89353,10.309288,0
            123.893627,10.309357,0
            123.893713,10.309473,0
            123.893788,10.309573,0
            123.893858,10.309689,0
            123.893943,10.309721,0
            123.894019,10.309758,0
            123.894179,10.309805,0
            123.894308,10.309874,0
            123.89441,10.309921,0
            123.894807,10.310027,0
            123.895215,10.310138,0
            123.895467,10.310233,0
            123.89639,10.31056,0
            123.896985,10.310792,0
            123.897913,10.311125,0
            123.89823,10.31123,0
            123.898643,10.31133,0
            123.899238,10.311447,0
            123.89986,10.311536,0
            123.900472,10.311505,0
            123.900992,10.311499,0
            123.901931,10.311378,0
            123.9025,10.311257,0
            123.90295,10.311067,0
            123.903556,10.310855,0
            123.903996,10.310702,0
            123.904007,10.310755,0
            123.903937,10.310919,0
            123.903556,10.311705,0
            123.903379,10.31209,0
            123.903235,10.31237,0
            123.903068,10.31265,0
            123.902757,10.313241,0
            123.903444,10.313563,0
            123.903803,10.313737,0
            123.904248,10.313895,0
            123.90478,10.314107,0
            123.904924,10.314186,0
            123.905177,10.314392,0
            123.905252,10.314529,0
            123.905391,10.31483,0
            123.905584,10.315289,0
            123.905649,10.315468,0
            123.905842,10.31607,0
            123.905734,10.316249,0
            123.905348,10.316334,0
            123.904994,10.316429,0
            123.904656,10.316545,0
            123.904334,10.316682,0
            123.904163,10.316835,0
            123.903996,10.317004,0
            123.903846,10.317125,0
            123.903664,10.317257,0
            123.903438,10.317384,0
            123.90332,10.317437,0
            123.90302,10.317563,0
            123.902687,10.317706,0
            123.902618,10.317743,0
            123.902736,10.318028,0
            123.902913,10.318366,0
            123.903052,10.318624,0
            123.903197,10.318883,0
            123.903261,10.318914,0
            123.903363,10.318946,0
            123.903449,10.318946,0
            123.903514,10.318872,0
            123.903599,10.318825,0
            123.903669,10.318777,0
            123.903733,10.318814,0
            123.903744,10.318899,0
            123.903669,10.318941,0
            123.903589,10.318957,0
          </coordinates>
        </LineString>
      </Placemark>
      <Placemark>
        <name>From ayala Terminal - Labangon</name>
        <description><![CDATA[more cebu jeepney route maps at cebujeepneys.weebly.com (http://cebujeepneys.weebly.com)<br>Like us on our Facebook Page (http://facebook.com/cebujeepneysroutemap)<br><br>Ayala to Labangon<br><br><br>Ayala terminal - Harold Hotel - Escario St.- Cebu Provincial Capitol - M. Velez St. - Banawa - R. Duterte St. - Rustan's Supermarket (Banawa) - Salvador Extension - Katipunana St. - F. Llamas St. - Gaisano Capital (Tisa) - Brgy Tisa - Punta Princesa - Punta Princesa Church.]]></description>
        <styleUrl>#line-33FF33-5000</styleUrl>
        <LineString>
          <tessellate>1</tessellate>
          <coordinates>
            123.903535,10.318973,0
            123.903342,10.319089,0
            123.903438,10.319395,0
            123.903519,10.319627,0
            123.903632,10.319696,0
            123.903744,10.320012,0
            123.903868,10.320234,0
            123.903937,10.320271,0
            123.90375,10.320371,0
            123.903465,10.319722,0
            123.903487,10.319627,0
            123.903337,10.319189,0
            123.903181,10.318893,0
            123.903041,10.31864,0
            123.902972,10.318804,0
            123.902505,10.319764,0
            123.901786,10.321126,0
            123.901223,10.320836,0
            123.900021,10.320234,0
            123.899345,10.319933,0
            123.898873,10.319711,0
            123.899292,10.318418,0
            123.898696,10.31825,0
            123.898267,10.318155,0
            123.897645,10.318023,0
            123.897178,10.317943,0
            123.896561,10.317822,0
            123.895869,10.317722,0
            123.89477,10.317558,0
            123.894292,10.317405,0
            123.893681,10.31721,0
            123.893273,10.317083,0
            123.892812,10.316962,0
            123.892425,10.31684,0
            123.892205,10.316735,0
            123.891932,10.316687,0
            123.891556,10.316529,0
            123.890913,10.316291,0
            123.890768,10.31626,0
            123.890301,10.316133,0
            123.890204,10.316112,0
            123.890124,10.316212,0
            123.890119,10.316323,0
            123.89007,10.316476,0
            123.890011,10.316635,0
            123.889974,10.316798,0
            123.889931,10.316988,0
            123.889813,10.317273,0
            123.889507,10.317168,0
            123.888997,10.316983,0
            123.888364,10.316761,0
            123.887984,10.316656,0
            123.887533,10.31645,0
            123.886884,10.31626,0
            123.886068,10.315853,0
            123.885586,10.315637,0
            123.885199,10.315563,0
            123.884813,10.315484,0
            123.884363,10.315331,0
            123.883858,10.315109,0
            123.883477,10.314967,0
            123.883139,10.314845,0
            123.882743,10.314766,0
            123.882319,10.314634,0
            123.881793,10.314523,0
            123.881444,10.314407,0
            123.881069,10.314207,0
            123.880656,10.314012,0
            123.880259,10.313732,0
            123.879894,10.313547,0
            123.879561,10.313378,0
            123.878998,10.31312,0
            123.878794,10.31303,0
            123.878413,10.312866,0
            123.877979,10.312507,0
            123.877673,10.312138,0
            123.877453,10.311816,0
            123.87675,10.310998,0
            123.87645,10.310581,0
            123.876311,10.310407,0
            123.876166,10.310074,0
            123.876075,10.309789,0
            123.875983,10.309483,0
            123.875962,10.30933,0
            123.875973,10.308296,0
            123.875983,10.307979,0
            123.875951,10.307309,0
            123.875957,10.306955,0
            123.876042,10.306517,0
            123.876123,10.306121,0
            123.876289,10.30562,0
            123.876364,10.305456,0
            123.876498,10.305219,0
            123.877126,10.304211,0
            123.877346,10.303841,0
            123.877668,10.303282,0
            123.877898,10.30277,0
            123.878301,10.301519,0
            123.878451,10.301065,0
            123.878891,10.299582,0
            123.878864,10.299561,0
            123.877582,10.299851,0
            123.876203,10.300184,0
            123.875232,10.300474,0
            123.873752,10.300833,0
            123.872244,10.301181,0
            123.871611,10.301339,0
            123.870646,10.301572,0
            123.870335,10.301445,0
            123.869943,10.301255,0
            123.869712,10.301118,0
            123.869659,10.300933,0
            123.869616,10.300791,0
            123.86968,10.300569,0
            123.86983,10.300004,0
            123.869922,10.299608,0
            123.8699,10.29946,0
            123.869846,10.298838,0
            123.869804,10.298495,0
            123.869793,10.298294,0
            123.869814,10.297962,0
            123.869895,10.297075,0
            123.869879,10.296811,0
            123.869889,10.296119,0
            123.869857,10.295528,0
            123.870131,10.29433,0
          </coordinates>
        </LineString>
      </Placemark>
    </Folder>
  </Document>
</kml>
