<?xml version="1.0" encoding="UTF-8"?>
<kml xmlns="http://www.opengis.net/kml/2.2">
  <Document>
    <name>Cebu Jeepney Route No. 13B</name>
    <description><![CDATA[more cebu jeepneys route maps at cebujeepneys.weebly.com<br><br>Talamban to Carbon<br><br>tintay to country mall<br>tintay to ayala<br>tintay to echavez<br>tintay to ramos<br>tintay to carbon<br>tintay to colon<br>talamban to country mall<br>talamban to ayala<br>talamban to gorordo ave.<br>talamban to ramos<br>talamban to usc main<br>talamban to colon <br>talamban to carbon<br>talamban to sto. nino<br>usc talamban to ayala<br>usc talamban to colon<br>usc talamban to carbon<br>usc talamban to sto. nino<br>country mall to ayala<br>country mall to ramos<br>country mall to colon<br>country mall to carbon<br>country mall to sto. nino<br>ayala to ramos<br>ayala to colon<br>ayala to carbon<br>ayala to sto. nino<br>ramos to colon<br>ramos to carbon<br>ramos to sto. nino<br><br>Carbon to Talamban via Ramos<br><br>Carbon to uv <br>carbon to ayala<br>carbon to marriot hotel<br>carbon to banilad<br>carbon to uc banilad<br>carbon to country mall<br>carbon to usc talamban<br>carbon to talamban <br>carbon to the family park<br>carbon to tintay<br>uv to ayala<br>uv to country mall<br>uv to san carlos talamban<br>uv to banilad<br>uv to talamban <br>]]></description>
    <Style id="line-3333FF-5000-normal">
      <LineStyle>
        <color>ffff3333</color>
        <width>5</width>
      </LineStyle>
    </Style>
    <Style id="line-3333FF-5000-highlight">
      <LineStyle>
        <color>ffff3333</color>
        <width>7.5</width>
      </LineStyle>
    </Style>
    <StyleMap id="line-3333FF-5000">
      <Pair>
        <key>normal</key>
        <styleUrl>#line-3333FF-5000-normal</styleUrl>
      </Pair>
      <Pair>
        <key>highlight</key>
        <styleUrl>#line-3333FF-5000-highlight</styleUrl>
      </Pair>
    </StyleMap>
    <Style id="line-33FF33-5000-normal">
      <LineStyle>
        <color>ff33ff33</color>
        <width>5</width>
      </LineStyle>
    </Style>
    <Style id="line-33FF33-5000-highlight">
      <LineStyle>
        <color>ff33ff33</color>
        <width>7.5</width>
      </LineStyle>
    </Style>
    <StyleMap id="line-33FF33-5000">
      <Pair>
        <key>normal</key>
        <styleUrl>#line-33FF33-5000-normal</styleUrl>
      </Pair>
      <Pair>
        <key>highlight</key>
        <styleUrl>#line-33FF33-5000-highlight</styleUrl>
      </Pair>
    </StyleMap>
    <Folder>
      <name>Untitled layer</name>
      <Placemark>
        <name>Talamban to Carbon via Ramos</name>
        <description><![CDATA[more cebu jeepneys route maps at cebujeepneys.weebly.com (http://cebujeepneys.weebly.com)<br>Like us on our<br><br> <br>Talamban to Carbon<br><br> <br>Tintay - H. Abella St. - Gov. M. Cuenco Ave.  Talamban - Gaisano Grand Talamban - The Family Park - University of San Carlos(talamban) - Gaisano Country Mall - UC (banilad) - Arch. Reyes Ave. - Cebu Business Park - Mindanao Ave. - Ayala Center Cebu - Samar Loop - Luzon Ave. - Metro Ayala - Arch. Reyes Ave. - Gorordo Ave - Asilo dela Milagrosa church - Gen. Echavez St. - Allson's Inn - Sikatuna st. - D. Jakosalem St. - Echavez Ext. - Brgy Cogon Ramos - Ramos Public Market - Junquera Ext.- Junquera St. - University of San Carlos Main - Colon St.- Gaisano Main - University of the Visayas - Colon Obelisk - Mabini St. - V. Gullas St. - Manalili St. - Carbon Public Market - Progreso St.]]></description>
        <styleUrl>#line-3333FF-5000</styleUrl>
        <LineString>
          <tessellate>1</tessellate>
          <coordinates>
            123.9247,10.37098,0
            123.92457,10.37093,0
            123.92437,10.37107,0
            123.92408,10.37155,0
            123.92398,10.37164,0
            123.92383,10.37154,0
            123.92272,10.37122,0
            123.92217,10.3712,0
            123.92191,10.37113,0
            123.92169,10.37104,0
            123.92128,10.37063,0
            123.92087,10.37045,0
            123.92048,10.37059,0
            123.92024,10.37084,0
            123.92006,10.37086,0
            123.91979,10.37068,0
            123.91906,10.37003,0
            123.91859,10.36975,0
            123.91681,10.36932,0
            123.91625,10.3691,0
            123.9141,10.36776,0
            123.91385,10.36749,0
            123.91379,10.36664,0
            123.91378,10.36548,0
            123.9139,10.36515,0
            123.91458,10.36446,0
            123.91474,10.36414,0
            123.91531,10.3621,0
            123.91535,10.36171,0
            123.91529,10.36098,0
            123.9157,10.35878,0
            123.91567,10.35861,0
            123.9155,10.35829,0
            123.91511,10.3577,0
            123.91506,10.35576,0
            123.91492,10.35532,0
            123.9147,10.35489,0
            123.91396,10.35256,0
            123.91352,10.35049,0
            123.91207,10.34225,0
            123.91178,10.33995,0
            123.91143,10.33839,0
            123.91073,10.33425,0
            123.91023,10.33175,0
            123.90898,10.32867,0
            123.90786,10.32618,0
            123.90734,10.32566,0
            123.90683,10.32497,0
            123.90381,10.32049,0
            123.90383,10.32029,0
            123.90442,10.32008,0
            123.90549,10.32008,0
            123.90796,10.3183,0
            123.90878,10.3175,0
            123.90894,10.31724,0
            123.90901,10.31692,0
            123.90895,10.31654,0
            123.9088,10.31619,0
            123.90844,10.3158,0
            123.9081,10.31557,0
            123.90773,10.31553,0
            123.90754,10.31556,0
            123.90706,10.31583,0
            123.90656,10.31601,0
            123.90499,10.31641,0
            123.90453,10.31658,0
            123.90432,10.31668,0
            123.90368,10.31725,0
            123.90258,10.31774,0
            123.90197,10.31641,0
            123.90166,10.31532,0
            123.90178,10.315,0
            123.90329,10.31213,0
            123.9039,10.31065,0
            123.90309,10.30796,0
            123.90252,10.30672,0
            123.90233,10.30644,0
            123.90179,10.30599,0
            123.90144,10.30577,0
            123.90095,10.30633,0
            123.90061,10.30658,0
            123.90034,10.30665,0
            123.89972,10.30663,0
            123.89989,10.30517,0
            123.89829,10.30471,0
            123.89817,10.30473,0
            123.89815,10.30461,0
            123.89815,10.30343,0
            123.89823,10.30197,0
            123.89894,10.30067,0
            123.8996,10.299537,0
            123.899917,10.298925,0
            123.900185,10.298468,0
            123.90034,10.298215,0
            123.900598,10.297626,0
            123.901279,10.297698,0
            123.901794,10.297732,0
            123.902105,10.297745,0
            123.90328,10.297898,0
            123.903744,10.297927,0
            123.903793,10.297808,0
            123.90383,10.297212,0
            123.902768,10.297051,0
            123.902175,10.296938,0
            123.90162,10.296898,0
            123.901306,10.296858,0
            123.900662,10.296605,0
            123.900201,10.296394,0
            123.899555,10.29579,0
            123.899179,10.294858,0
            123.899002,10.294201,0
            123.898737,10.293383,0
            123.898471,10.292369,0
            123.899343,10.292129,0
            123.899461,10.291981,0
          </coordinates>
        </LineString>
      </Placemark>
      <Placemark>
        <name>Carbon to Talamban via Ramos</name>
        <description><![CDATA[more cebu jeepneys route maps at cebujeepneys.weebly.com (http://cebujeepneys.weebly.com)<br>Like us on our Facebook Page (http://www.facebook.com/cebujeepneysroutemap)<br><br> <br>Carbon Public Market - MC. Briones St. - D. Jakosalem St. - Cebu City Hall - Magellans Cross - Basilica del Sto. Nino - The Freeman - Gaisano Main - University of the Visayas - Ramos Public Market - Zapatera Brgy. Hall - Sikatuna St. - Gen. Echavez St. - Gorordo ave. - Arch. Reyes Ave. - Cebu Business Park - Luzon Ave. - Ayala Center Cebu - Metro Ayala - Car. Rosales Ave. - Marriot Hotel - Mindanao ave. - Pag - ibib Fund - Arch. Reyes Ave. - Banilad - Gov. M. Cuenco Ave. - UC banilad - Gaisano Country Mall - University of San Carlos (talamban) - Talamban - The Family Park - Gaisano Grand Talamban - Tintay.]]></description>
        <styleUrl>#line-33FF33-5000</styleUrl>
        <LineString>
          <tessellate>1</tessellate>
          <coordinates>
            123.899461,10.291984,0
            123.90018,10.292129,0
            123.901081,10.292396,0
            123.9011,10.292478,0
            123.901049,10.292887,0
            123.901177,10.293296,0
            123.901301,10.293744,0
            123.901408,10.294169,0
            123.901607,10.294818,0
            123.901813,10.295542,0
            123.902089,10.296391,0
            123.902191,10.296808,0
            123.902207,10.29699,0
            123.902229,10.297075,0
            123.902213,10.297352,0
            123.902162,10.297595,0
            123.902068,10.297793,0
            123.901899,10.298561,0
            123.901738,10.299255,0
            123.901671,10.299709,0
            123.90159,10.300139,0
            123.901285,10.300827,0
            123.900949,10.301295,0
            123.900794,10.301685,0
            123.900571,10.302318,0
            123.900257,10.30292,0
            123.900102,10.303435,0
            123.900107,10.304052,0
            123.900091,10.304263,0
            123.899941,10.305092,0
            123.899898,10.305472,0
            123.899791,10.306393,0
            123.89975,10.306572,0
            123.900062,10.306612,0
            123.900354,10.306604,0
            123.900587,10.306541,0
            123.900896,10.306324,0
            123.901207,10.305976,0
            123.901421,10.305723,0
            123.901475,10.305733,0
            123.901797,10.305947,0
            123.902103,10.3062,0
            123.902374,10.306441,0
            123.902553,10.306699,0
            123.902838,10.30728,0
            123.903114,10.307905,0
            123.903149,10.308005,0
            123.903259,10.308359,0
            123.903457,10.308982,0
            123.903629,10.309565,0
            123.903795,10.310109,0
            123.903841,10.310219,0
            123.903948,10.310636,0
            123.903935,10.310708,0
            123.903666,10.311352,0
            123.90332,10.312201,0
            123.90295,10.312903,0
            123.90269,10.313389,0
            123.902371,10.314038,0
            123.902138,10.314487,0
            123.901826,10.315038,0
            123.9017,10.315342,0
            123.901775,10.315447,0
            123.901974,10.316223,0
            123.902057,10.316513,0
            123.902336,10.317149,0
            123.902559,10.317614,0
            123.903259,10.317342,0
            123.903586,10.317136,0
            123.903924,10.316843,0
            123.904171,10.316624,0
            123.904447,10.316468,0
            123.905013,10.31631,0
            123.905667,10.31612,0
            123.905909,10.316239,0
            123.906005,10.316584,0
            123.906137,10.316759,0
            123.9064,10.316999,0
            123.906783,10.317194,0
            123.907057,10.317323,0
            123.907341,10.317503,0
            123.907582,10.317777,0
            123.907937,10.318281,0
            123.907888,10.318529,0
            123.907357,10.318864,0
            123.906952,10.319215,0
            123.906453,10.319616,0
            123.906056,10.319896,0
            123.905767,10.320062,0
            123.90559,10.320171,0
            123.905372,10.320231,0
            123.905037,10.320194,0
            123.904801,10.320176,0
            123.90449,10.320202,0
            123.903964,10.32039,0
            123.904039,10.320627,0
            123.904203,10.320928,0
            123.904428,10.321297,0
            123.904855,10.321904,0
            123.905222,10.322474,0
            123.905681,10.323137,0
            123.906126,10.323815,0
            123.906558,10.324474,0
            123.906872,10.324944,0
            123.907033,10.325166,0
            123.907354,10.325606,0
            123.907668,10.325931,0
            123.907856,10.326113,0
            123.907945,10.326229,0
            123.908108,10.326599,0
            123.90835,10.327174,0
            123.908524,10.32757,0
            123.908827,10.328206,0
            123.909093,10.328786,0
            123.90927,10.329214,0
            123.909551,10.329939,0
            123.909817,10.330583,0
            123.91005,10.331124,0
            123.910273,10.331731,0
            123.910444,10.332538,0
            123.910568,10.333219,0
            123.910643,10.333644,0
            123.910796,10.334314,0
            123.91093,10.335151,0
            123.911061,10.335908,0
            123.911209,10.336655,0
            123.911351,10.33757,0
            123.911509,10.338526,0
            123.911662,10.33922,0
            123.911836,10.339987,0
            123.911912,10.340663,0
            123.912019,10.341513,0
            123.912131,10.342325,0
            123.912303,10.343288,0
            123.912499,10.34441,0
            123.912646,10.345291,0
            123.912746,10.345953,0
            123.912861,10.346452,0
            123.913022,10.347378,0
            123.913143,10.348035,0
            123.913363,10.349085,0
            123.913497,10.350012,0
            123.913572,10.350521,0
            123.913792,10.351339,0
            123.913899,10.351927,0
            123.91402,10.352547,0
            123.914385,10.353698,0
            123.914484,10.354062,0
            123.914629,10.354537,0
            123.91476,10.354895,0
            123.914956,10.355262,0
            123.915023,10.355463,0
            123.915114,10.355761,0
            123.915138,10.356476,0
            123.915133,10.35726,0
            123.915133,10.357473,0
            123.915157,10.357669,0
            123.915294,10.357911,0
            123.915557,10.358281,0
            123.915672,10.358492,0
            123.915704,10.358584,0
            123.915752,10.358769,0
            123.915718,10.35903,0
            123.915608,10.359658,0
            123.915516,10.360209,0
            123.915377,10.36074,0
            123.915337,10.360998,0
            123.915415,10.361457,0
            123.915409,10.361769,0
            123.915358,10.36212,0
            123.915162,10.362795,0
            123.914961,10.363481,0
            123.914787,10.36418,0
            123.914621,10.364481,0
            123.914213,10.364911,0
            123.913942,10.365193,0
            123.913832,10.365497,0
            123.913843,10.366254,0
            123.913864,10.367001,0
            123.913904,10.367473,0
            123.914033,10.367634,0
            123.91443,10.367919,0
            123.914937,10.368233,0
            123.915409,10.368515,0
            123.91597,10.368869,0
            123.91631,10.369075,0
            123.916874,10.369288,0
            123.917625,10.369462,0
            123.918596,10.369689,0
            123.919086,10.369982,0
            123.919642,10.370489,0
            123.919846,10.370652,0
            123.920033,10.370792,0
            123.920189,10.37079,0
            123.920334,10.370692,0
            123.920441,10.370576,0
            123.92068,10.370425,0
            123.920851,10.370399,0
            123.921036,10.370444,0
            123.921321,10.37061,0
            123.921769,10.371022,0
            123.922203,10.371146,0
            123.922536,10.371148,0
            123.922764,10.371175,0
            123.922989,10.37123,0
            123.923228,10.371288,0
            123.923394,10.371365,0
            123.923839,10.371483,0
            123.923992,10.371573,0
            123.924075,10.371507,0
            123.924236,10.371185,0
            123.92433,10.37103,0
            123.924521,10.370903,0
            123.924582,10.370853,0
            123.924759,10.370882,0
          </coordinates>
        </LineString>
      </Placemark>
    </Folder>
  </Document>
</kml>
