<?xml version="1.0" encoding="UTF-8"?>
<kml xmlns="http://www.opengis.net/kml/2.2">
  <Document>
    <name>Cebu Jeepney Route No. 13C</name>
    <description><![CDATA[Talamban to Colon<br><br>talamban to banilad<br>talamban to country mall<br>talamban to ayala<br>talamban to echavez st.<br>talamban to sikatuna st. <br>talamban to colon<br>usc to country mall<br>usc to ayala<br>usc to colon<br>banilad to ayala<br>banilad to echabez st.<br>banilad to sikatuna st. <br>banilad to colon<br>country mall to ayala<br>country mall to echavez st<br>country mall to sikatuna st<br>country mall to colon<br>ayala to echavez st<br>ayala to sikatuna<br>ayala to colon<br><br><br>COLON TO TALAMBAN<br><br>colon to hipodromo<br>colon to ayala<br>colon to banilad<br>colon to country mall<br>colon to talamban<br>hipodromo to ayala <br>hipodromo to banilad<br>hipodromo to countrymall<br>hipodromo to talamban<br>ayala to banilad<br>ayala to country mall<br>ayala to talamban<br>ayala to usc- talamban<br>colon to usc-talamban<br>banilad to talamban<br>banilad to usc-talamban<br>country mall to usc-talamban<br>country mall to talamban<br>]]></description>
    <Style id="line-0000FF-5000-normal">
      <LineStyle>
        <color>ffff0000</color>
        <width>5</width>
      </LineStyle>
    </Style>
    <Style id="line-0000FF-5000-highlight">
      <LineStyle>
        <color>ffff0000</color>
        <width>7.5</width>
      </LineStyle>
    </Style>
    <StyleMap id="line-0000FF-5000">
      <Pair>
        <key>normal</key>
        <styleUrl>#line-0000FF-5000-normal</styleUrl>
      </Pair>
      <Pair>
        <key>highlight</key>
        <styleUrl>#line-0000FF-5000-highlight</styleUrl>
      </Pair>
    </StyleMap>
    <Style id="line-33FF33-5000-normal">
      <LineStyle>
        <color>ff33ff33</color>
        <width>5</width>
      </LineStyle>
    </Style>
    <Style id="line-33FF33-5000-highlight">
      <LineStyle>
        <color>ff33ff33</color>
        <width>7.5</width>
      </LineStyle>
    </Style>
    <StyleMap id="line-33FF33-5000">
      <Pair>
        <key>normal</key>
        <styleUrl>#line-33FF33-5000-normal</styleUrl>
      </Pair>
      <Pair>
        <key>highlight</key>
        <styleUrl>#line-33FF33-5000-highlight</styleUrl>
      </Pair>
    </StyleMap>
    <Style id="poly-0000FF-3000-115-normal">
      <LineStyle>
        <color>ffff0000</color>
        <width>3</width>
      </LineStyle>
      <PolyStyle>
        <color>73ff0000</color>
        <fill>1</fill>
        <outline>1</outline>
      </PolyStyle>
    </Style>
    <Style id="poly-0000FF-3000-115-highlight">
      <LineStyle>
        <color>ffff0000</color>
        <width>4.5</width>
      </LineStyle>
      <PolyStyle>
        <color>73ff0000</color>
        <fill>1</fill>
        <outline>1</outline>
      </PolyStyle>
    </Style>
    <StyleMap id="poly-0000FF-3000-115">
      <Pair>
        <key>normal</key>
        <styleUrl>#poly-0000FF-3000-115-normal</styleUrl>
      </Pair>
      <Pair>
        <key>highlight</key>
        <styleUrl>#poly-0000FF-3000-115-highlight</styleUrl>
      </Pair>
    </StyleMap>
    <Style id="poly-33FF33-3000-115-normal">
      <LineStyle>
        <color>ff33ff33</color>
        <width>3</width>
      </LineStyle>
      <PolyStyle>
        <color>7333ff33</color>
        <fill>1</fill>
        <outline>1</outline>
      </PolyStyle>
    </Style>
    <Style id="poly-33FF33-3000-115-highlight">
      <LineStyle>
        <color>ff33ff33</color>
        <width>4.5</width>
      </LineStyle>
      <PolyStyle>
        <color>7333ff33</color>
        <fill>1</fill>
        <outline>1</outline>
      </PolyStyle>
    </Style>
    <StyleMap id="poly-33FF33-3000-115">
      <Pair>
        <key>normal</key>
        <styleUrl>#poly-33FF33-3000-115-normal</styleUrl>
      </Pair>
      <Pair>
        <key>highlight</key>
        <styleUrl>#poly-33FF33-3000-115-highlight</styleUrl>
      </Pair>
    </StyleMap>
    <Folder>
      <name>Untitled layer</name>
      <Placemark>
        <name>Talamban to Colon</name>
        <description><![CDATA[more cebu jeepneys route map at cebujeepneys.weebly.com (http://cebujeepneys.weebly.com)<br><br> <br>Talamban - Gov. M. Cuenco Ave. - Gaisano Grand Mall (talamban) -  University of San Carlos (talamban) - Banilad - Banilad Town Center - Gaisano Country Mall - University of Cebu (Banilad) - Paradise Village - Cebu Country Club - Samantabhadra Institute - Arch. Reyes Ave. - BIR - Cebu Business Park - Pag-ibig Fund - Ayala Center Cebu - Mindanao Ave. - Samar Loop - Luzon Ave. - Tune Hotels - Arch. Reyes Ave. - Hotel Elizabeth - Gorordo Ave. - Asilo dela Melagrosa - Camp Sutero (Cebu City Police office) - Gen. Echavez St. - Sikatuna St. - Parian - Colon St. - Gaisano Main - University of the Visayas - Colonnade Supermarket.]]></description>
        <styleUrl>#line-0000FF-5000</styleUrl>
        <LineString>
          <tessellate>1</tessellate>
          <coordinates>
            123.924716,10.370966,0
            123.924601,10.370916,0
            123.924357,10.371088,0
            123.924268,10.37122,0
            123.92411,10.371544,0
            123.923995,10.371631,0
            123.923837,10.371555,0
            123.92367,10.371502,0
            123.923373,10.371425,0
            123.923303,10.371375,0
            123.922777,10.37123,0
            123.922544,10.371201,0
            123.922182,10.371193,0
            123.921962,10.371146,0
            123.92172,10.371053,0
            123.921444,10.370805,0
            123.921238,10.370613,0
            123.921187,10.370592,0
            123.920994,10.370489,0
            123.920838,10.370447,0
            123.920693,10.370478,0
            123.920516,10.370578,0
            123.920457,10.370639,0
            123.920296,10.37079,0
            123.920213,10.37084,0
            123.920124,10.370848,0
            123.919964,10.370826,0
            123.919481,10.370394,0
            123.919057,10.370027,0
            123.918657,10.369792,0
            123.918483,10.369724,0
            123.918333,10.369674,0
            123.917668,10.369526,0
            123.917295,10.369431,0
            123.91682,10.36932,0
            123.91597,10.36894,0
            123.914,10.36769,0
            123.91386,10.36748,0
            123.9138,10.36696,0
            123.91379,10.3655,0
            123.91389,10.36518,0
            123.9143,10.36479,0
            123.91455,10.36449,0
            123.91471,10.36417,0
            123.91529,10.36219,0
            123.91536,10.36178,0
            123.9153,10.36101,0
            123.91569,10.359,0
            123.91569,10.35869,0
            123.91553,10.35831,0
            123.91513,10.35773,0
            123.91507,10.35745,0
            123.91506,10.35577,0
            123.91493,10.35534,0
            123.91458,10.35458,0
            123.91397,10.35257,0
            123.91376,10.35141,0
            123.91354,10.35054,0
            123.91207,10.3422,0
            123.91177,10.33996,0
            123.91144,10.3384,0
            123.91072,10.33429,0
            123.91023,10.33176,0
            123.90906,10.32883,0
            123.90793,10.32629,0
            123.9073,10.3256,0
            123.90694,10.32512,0
            123.90417,10.32098,0
            123.90385,10.32038,0
            123.90388,10.32028,0
            123.90445,10.32008,0
            123.90492,10.32005,0
            123.90542,10.3201,0
            123.90574,10.31994,0
            123.90795,10.31831,0
            123.90879,10.31749,0
            123.90895,10.31723,0
            123.909,10.31692,0
            123.90896,10.31655,0
            123.90881,10.3162,0
            123.90844,10.31578,0
            123.90811,10.31558,0
            123.90773,10.31552,0
            123.90751,10.31556,0
            123.90706,10.31583,0
            123.90665,10.31599,0
            123.90471,10.3165,0
            123.90421,10.31676,0
            123.9037,10.31723,0
            123.90259,10.31774,0
            123.902,10.31643,0
            123.90166,10.31533,0
            123.90343,10.31183,0
            123.90391,10.3107,0
            123.90311,10.308,0
            123.90253,10.30674,0
            123.90233,10.30645,0
            123.90145,10.30576,0
            123.9016,10.30535,0
            123.90179,10.30366,0
            123.902,10.3024,0
            123.90253,10.3014,0
            123.90288,10.30066,0
            123.90295,10.3004,0
            123.90324,10.29985,0
            123.90331,10.29933,0
            123.90342,10.29894,0
            123.9037,10.29831,0
            123.90373,10.29797,0
            123.90062,10.29768,0
            123.90001,10.29736,0
            123.89911,10.29679,0
          </coordinates>
        </LineString>
      </Placemark>
      <Placemark>
        <name>Colon  to Talamban</name>
        <description><![CDATA[more cebu jeepneys route map at cebujeepneys.weebly.com (http://cebujeepneys.weebly.com)<br><br> <br>Colon - Pelaez St. - University of San Carlos (Main) - P. del Rosario St. - Imus Ave. - M.J. Cuenco Ave. - Hipodromo - Mactan St. - Cebu Business Park - Leyte Loop - Samar Loop - Lexmark - Mindanao Ave. - Ayala Center Cebu - Arch. Reyes Ave. - BIR - Samantabhadra Institute - Gov. M. Cuenco Ave. - Banilad - UC (banilad) - Gaisano Country Mall - Banilad town center - foodland - University of San Carlos (Talamban) - Gaisano Grand Mall(talamban) - Talamban.]]></description>
        <styleUrl>#line-33FF33-5000</styleUrl>
        <LineString>
          <tessellate>1</tessellate>
          <coordinates>
            123.89909,10.29678,0
            123.89885,10.29717,0
            123.89836,10.29818,0
            123.89805,10.30021,0
            123.90032,10.30147,0
            123.90079,10.30167,0
            123.90223,10.30207,0
            123.90259,10.30244,0
            123.90562,10.30667,0
            123.90775,10.30937,0
            123.90776,10.30946,0
            123.90866,10.3107,0
            123.90987,10.31189,0
            123.90928,10.31238,0
            123.90951,10.31333,0
            123.90949,10.31345,0
            123.9091,10.31396,0
            123.90924,10.3141,0
            123.90928,10.31431,0
            123.90927,10.315,0
            123.90917,10.31576,0
            123.90911,10.31592,0
            123.90893,10.31611,0
            123.90908,10.31643,0
            123.90915,10.31688,0
            123.90906,10.31723,0
            123.90886,10.31757,0
            123.908,10.31841,0
            123.90582,10.32003,0
            123.90539,10.32023,0
            123.90476,10.32016,0
            123.90392,10.32038,0
            123.90389,10.32042,0
            123.90424,10.32102,0
            123.90699,10.3251,0
            123.90728,10.32551,0
            123.90796,10.32627,0
            123.90902,10.32864,0
            123.91025,10.33171,0
            123.91078,10.3343,0
            123.91159,10.33897,0
            123.91182,10.33994,0
            123.91198,10.34144,0
            123.91231,10.34346,0
            123.91282,10.34639,0
            123.91335,10.34906,0
            123.91357,10.3505,0
            123.91381,10.35144,0
            123.914,10.35254,0
            123.91459,10.35447,0
            123.91499,10.35534,0
            123.91511,10.3558,0
            123.91516,10.35765,0
            123.91573,10.35868,0
            123.91574,10.35898,0
            123.91533,10.361,0
            123.9154,10.36171,0
            123.91536,10.36213,0
            123.91477,10.36417,0
            123.9146,10.36449,0
            123.91392,10.36521,0
            123.91383,10.3655,0
            123.91389,10.36745,0
            123.91403,10.36766,0
            123.9155,10.3686,0
            123.91632,10.36908,0
            123.91681,10.36927,0
            123.917482,10.369423,0
            123.918006,10.369547,0
            123.918381,10.369642,0
            123.918601,10.369705,0
            123.918856,10.36984,0
            123.919081,10.369977,0
            123.919644,10.370486,0
            123.919821,10.370634,0
            123.919993,10.370779,0
            123.920098,10.370797,0
            123.920213,10.370779,0
            123.920307,10.370713,0
            123.92046,10.370563,0
            123.920677,10.370425,0
            123.920835,10.370396,0
            123.921031,10.370447,0
            123.921267,10.370576,0
            123.921745,10.371009,0
            123.922182,10.371148,0
            123.922493,10.371154,0
            123.922772,10.371172,0
            123.923201,10.371293,0
            123.923362,10.37133,0
            123.923378,10.371362,0
            123.923845,10.371494,0
            123.923965,10.371563,0
            123.92407,10.37151,0
            123.924218,10.371196,0
            123.924362,10.371024,0
            123.924639,10.370821,0
            123.92469,10.370787,0
            123.924792,10.370869,0
          </coordinates>
        </LineString>
      </Placemark>
      <Placemark>
        <name>routes to other parts in talamban</name>
        <description><![CDATA[more cebu jeepneys route mams at cebujeepneys.weebly.com (http://cebujeepensy.weebly.com)<br><br> from cebu city downtown to other parts in talmaban route needs to be determine.]]></description>
        <styleUrl>#poly-33FF33-3000-115</styleUrl>
        <Polygon>
          <outerBoundaryIs>
            <LinearRing>
              <tessellate>1</tessellate>
              <coordinates>
                123.91675,10.369212,0
                123.916809,10.369259,0
                123.916702,10.369278,0
                123.91675,10.369212,0
              </coordinates>
            </LinearRing>
          </outerBoundaryIs>
        </Polygon>
      </Placemark>
      <Placemark>
        <name>from other routes from talamban</name>
        <description><![CDATA[more cebu jeepneys route map at cebujeepneys.weebly.com (http://cebujeepneys.weebly.com)<br><br> <br>other routes in talamban area not known and needs to be determine.]]></description>
        <styleUrl>#poly-0000FF-3000-115</styleUrl>
        <Polygon>
          <outerBoundaryIs>
            <LinearRing>
              <tessellate>1</tessellate>
              <coordinates>
                123.916729,10.369291,0
                123.916833,10.369304,0
                123.916793,10.369362,0
                123.916729,10.369291,0
              </coordinates>
            </LinearRing>
          </outerBoundaryIs>
        </Polygon>
      </Placemark>
    </Folder>
  </Document>
</kml>
