<?xml version="1.0" encoding="UTF-8"?>
<kml xmlns="http://www.opengis.net/kml/2.2">
  <Document>
    <name>Cebu Jeepney Route No. 13H</name>
    <description><![CDATA[more cebu jeepneys route maps at cebujeepneys.weebly.com<br><br>Pit-os to Mandaue Public Market<br>via AS. Fortuna St. <br><br>Pit-os to Bacayan <br>pit-os to talamban<br>pit-os to san carlos <br>pit-os to uv banilad<br>pit-os to foodland<br>pit-os to as. fortuna st. <br>pit-os to j centre mall<br>pit-os to highway<br>pit-os to centro mandaue<br>pit-os to colonnade mandaue<br>pit-os to new mandaue public market<br>talamban to foodland<br>talamban to j centre mall<br>talamban to highway<br>talamban to centro mandaue<br>talamban to colonnade mandaue<br>talamban to new public market<br>banilad to j centre mall<br>banilad to centro mandaue<br>banilad to new public market<br>j centre mall to centro mandaue<br>j centre mall to new public market<br>as fortuna st. to highway <br>as fortuna st. to new public market<br>as fortuna st. to centro mandaue<br><br>New Public Market to Pit-os <br>via AS. Fortuna St.<br><br>Public market to highway<br>public market to guizo<br>public market to san miguel corportatio<br>public market to as fortuna st. <br>public market to j centre mall<br>see website for more info ]]></description>
    <Style id="line-0000FF-5000-normal">
      <LineStyle>
        <color>ffff0000</color>
        <width>5</width>
      </LineStyle>
    </Style>
    <Style id="line-0000FF-5000-highlight">
      <LineStyle>
        <color>ffff0000</color>
        <width>7.5</width>
      </LineStyle>
    </Style>
    <StyleMap id="line-0000FF-5000">
      <Pair>
        <key>normal</key>
        <styleUrl>#line-0000FF-5000-normal</styleUrl>
      </Pair>
      <Pair>
        <key>highlight</key>
        <styleUrl>#line-0000FF-5000-highlight</styleUrl>
      </Pair>
    </StyleMap>
    <Style id="line-33FF33-5000-normal">
      <LineStyle>
        <color>ff33ff33</color>
        <width>5</width>
      </LineStyle>
    </Style>
    <Style id="line-33FF33-5000-highlight">
      <LineStyle>
        <color>ff33ff33</color>
        <width>7.5</width>
      </LineStyle>
    </Style>
    <StyleMap id="line-33FF33-5000">
      <Pair>
        <key>normal</key>
        <styleUrl>#line-33FF33-5000-normal</styleUrl>
      </Pair>
      <Pair>
        <key>highlight</key>
        <styleUrl>#line-33FF33-5000-highlight</styleUrl>
      </Pair>
    </StyleMap>
    <Folder>
      <name>Untitled layer</name>
      <Placemark>
        <name>Pit-os to Mandaue Public Market</name>
        <description><![CDATA[more cebu jeepneys route maps at cebujeepneys.weebly.com (http://cebujeepneys.weebly.com)<br>Like us on our Facebook Page (http://www.facebook.com/cebujeepneysroutemap?)<br><br> <br>Pit-os to Mandaue Public Market<br><br> <br>Pit-os - Bacayan - Talamban Rd. - Cebu North General Hospital - Talamban - Gov. M. Cuenco Ave. - Gaisano Grand (talamban) - The Family Park - University of San Carlos (talamban) - Banilad - University of the Visayas (banilad) - Foodland - AS. Fortuna St. - Cebu Home & Builders - Oftana Suites - Allure Hotel & Suites - Benedicto College - J Centre Mall - The Orchard Cebu Hotel & Suites - Highway - AS. Fortuna St. Ext. - Andy Hotel - Guizo - A. del Rosario St. - Mantuyong - Sosyoland Supermarket - Colonnade Supermarket - North Reclamation Area - A. Soriano Ave. - Manduae City Sports Complex - Bureau of Internal Revenue - Mandaue City Public Market.]]></description>
        <styleUrl>#line-0000FF-5000</styleUrl>
        <LineString>
          <tessellate>1</tessellate>
          <coordinates>
            123.92164,10.39618,0
            123.921632,10.395932,0
            123.9217,10.39558,0
            123.92184,10.39515,0
            123.92209,10.39473,0
            123.922458,10.394389,0
            123.92259,10.3941,0
            123.922713,10.393635,0
            123.92271,10.3935,0
            123.92268,10.39338,0
            123.922547,10.393112,0
            123.92235,10.39282,0
            123.92171,10.39199,0
            123.92158,10.39167,0
            123.921549,10.391506,0
            123.92155,10.39135,0
            123.921613,10.390835,0
            123.92163,10.39013,0
            123.921576,10.389677,0
            123.92149,10.38924,0
            123.92135,10.38866,0
            123.92134,10.388437,0
            123.92137,10.38817,0
            123.92132,10.3879,0
            123.921248,10.38624,0
            123.92128,10.38524,0
            123.92139,10.38439,0
            123.92137,10.3841,0
            123.92124,10.38375,0
            123.92126,10.38335,0
            123.920972,10.382747,0
            123.92078,10.38216,0
            123.92069,10.38038,0
            123.91979,10.37772,0
            123.91933,10.37519,0
            123.9192,10.37485,0
            123.9187,10.37392,0
            123.91724,10.37184,0
            123.91671,10.37062,0
            123.91665,10.37029,0
            123.91646,10.36996,0
            123.91646,10.36987,0
            123.91676,10.36931,0
            123.9163,10.36913,0
            123.91599,10.36895,0
            123.914,10.36768,0
            123.91387,10.36749,0
            123.91382,10.36731,0
            123.91378,10.3655,0
            123.91389,10.36516,0
            123.91457,10.36446,0
            123.91472,10.36414,0
            123.91531,10.36207,0
            123.91536,10.36166,0
            123.91529,10.361,0
            123.91568,10.35901,0
            123.91569,10.35868,0
            123.91554,10.35836,0
            123.91511,10.35767,0
            123.91506,10.35577,0
            123.91494,10.35537,0
            123.91467,10.35485,0
            123.91395,10.35253,0
            123.91375,10.35139,0
            123.91351,10.35048,0
            123.91325,10.34881,0
            123.91268,10.34591,0
            123.9126,10.34528,0
            123.91248,10.34507,0
            123.91227,10.34373,0
            123.91241,10.34355,0
            123.91325,10.34341,0
            123.91366,10.34338,0
            123.91389,10.34341,0
            123.91452,10.34331,0
            123.91549,10.34312,0
            123.91623,10.34289,0
            123.91789,10.34218,0
            123.91961,10.34136,0
            123.921,10.34079,0
            123.92428,10.33958,0
            123.92581,10.33916,0
            123.92799,10.33872,0
            123.92886,10.33839,0
            123.9294,10.33813,0
            123.93178,10.33655,0
            123.93273,10.33576,0
            123.93385,10.33452,0
            123.93494,10.33305,0
            123.93559,10.33197,0
            123.93621,10.33139,0
            123.93729,10.33054,0
            123.93739,10.33032,0
            123.93825,10.3301,0
            123.93994,10.32955,0
            123.94138,10.32887,0
            123.94081,10.32712,0
            123.94053,10.32659,0
            123.9402,10.32613,0
            123.93985,10.32605,0
            123.9395,10.32545,0
            123.93788,10.32596,0
            123.93803,10.3257,0
            123.94133,10.32451,0
            123.94112,10.32439,0
            123.93998,10.32261,0
            123.94099,10.32199,0
            123.94107,10.32203,0
            123.94135,10.32241,0
          </coordinates>
        </LineString>
      </Placemark>
      <Placemark>
        <name>Mandaue Public Market to Pit-os</name>
        <description><![CDATA[more cebu jeepneys route maps at cebujeepneys.weebly.com (http://cebujeepneys.weebly.com)<br>Like us on our Facebook Page (http://www.facebook.com/cebujeepneysroutemap)<br><br> <br>Mandaue Public Market to Pit-os<br><br> <br>(Merkado) New Manadaue City Public Market - Bureau of Immigration - PJ Burgos St. - Mandaue City Hall - St. Joseph Parish - St. Joseph Academy - Gaisano Grand Mall Mandaue - A. del Rosario St. - Mantuyong - Guizo - Collegio dela Immaculad Concepcion - Highway - San Miguel Brewery Plant - Coca-cola Bottlers corporation - AS. Fortuna St. - J Centre Mall - PLDT - Benedicto College - Larsian (Banilad) - Oftana Suites - Oakridge Business Park - Cebu Home & Builders - Banilad - Fords Inn - Foodland - University of the Visayas (banilad) - Bright Academy - University of San Carlos talamban - Talamban - The Family Park - Gaisano Grand Mall (talamban) - Talamban Elem. School - Talamban Brgy. Hall - Highway 11 - Talamban Rd. - Bacayan - Pit-os.]]></description>
        <styleUrl>#line-33FF33-5000</styleUrl>
        <LineString>
          <tessellate>1</tessellate>
          <coordinates>
            123.94135,10.32241,0
            123.9426,10.32409,0
            123.94281,10.32449,0
            123.94358,10.32625,0
            123.94241,10.32675,0
            123.94247,10.32686,0
            123.94284,10.32711,0
            123.94286,10.3273,0
            123.94276,10.32771,0
            123.94286,10.3281,0
            123.94281,10.32818,0
            123.94091,10.32917,0
            123.93988,10.32964,0
            123.93855,10.33007,0
            123.93744,10.33036,0
            123.93574,10.33052,0
            123.93495,10.33044,0
            123.93245,10.32941,0
            123.93227,10.32982,0
            123.93527,10.33201,0
            123.93545,10.33223,0
            123.93496,10.33311,0
            123.93387,10.33459,0
            123.93286,10.3357,0
            123.93236,10.33618,0
            123.93185,10.33657,0
            123.93001,10.33783,0
            123.9287,10.33853,0
            123.92805,10.33877,0
            123.92587,10.3392,0
            123.92419,10.33966,0
            123.9201,10.34119,0
            123.91781,10.34228,0
            123.91619,10.34297,0
            123.9145,10.34336,0
            123.91245,10.34371,0
            123.91258,10.34422,0
            123.91267,10.34501,0
            123.91263,10.34527,0
            123.91273,10.34591,0
            123.91333,10.34893,0
            123.91357,10.35053,0
            123.91378,10.35132,0
            123.91401,10.35255,0
            123.91452,10.35419,0
            123.914647,10.354603,0
            123.914747,10.35488,0
            123.914985,10.355357,0
            123.915111,10.35575,0
            123.915141,10.356711,0
            123.915136,10.357476,0
            123.915168,10.357661,0
            123.915299,10.357935,0
            123.915589,10.358326,0
            123.915685,10.358489,0
            123.915739,10.358666,0
            123.915752,10.35903,0
            123.915522,10.360146,0
            123.915388,10.360745,0
            123.915347,10.360998,0
            123.91542,10.361708,0
            123.915369,10.362125,0
            123.915144,10.36288,0
            123.914814,10.36404,0
            123.914784,10.364151,0
            123.914615,10.364513,0
            123.914334,10.364803,0
            123.914071,10.365054,0
            123.913939,10.365209,0
            123.913843,10.365505,0
            123.913853,10.366787,0
            123.91388,10.367288,0
            123.913921,10.367473,0
            123.914039,10.367658,0
            123.915023,10.368288,0
            123.915997,10.368895,0
            123.916364,10.369098,0
            123.916849,10.369286,0
            123.918322,10.369605,0
            123.918641,10.369713,0
            123.919084,10.369969,0
            123.919518,10.370367,0
            123.918641,10.371243,0
            123.918006,10.371705,0
            123.917587,10.37199,0
            123.917466,10.372077,0
            123.91792,10.372731,0
            123.918679,10.373805,0
            123.918789,10.373971,0
            123.919282,10.374871,0
            123.919387,10.375172,0
            123.919666,10.376673,0
            123.919846,10.377713,0
            123.920234,10.378847,0
            123.920707,10.380198,0
            123.920752,10.380351,0
            123.920808,10.381596,0
            123.920827,10.382161,0
            123.920999,10.382636,0
            123.921318,10.383359,0
            123.921297,10.383781,0
            123.921425,10.384089,0
            123.921447,10.38443,0
            123.921342,10.385274,0
            123.921305,10.386247,0
            123.921313,10.386799,0
            123.921364,10.387564,0
            123.921369,10.38792,0
            123.921428,10.388192,0
            123.921385,10.388445,0
            123.921425,10.388704,0
            123.921541,10.389179,0
            123.921624,10.389632,0
            123.921675,10.390097,0
            123.921659,10.390925,0
            123.921605,10.391384,0
            123.921602,10.391503,0
            123.921637,10.391682,0
            123.921758,10.391962,0
            123.922418,10.392827,0
            123.922587,10.393083,0
            123.92274,10.393363,0
            123.922766,10.393505,0
            123.922769,10.393637,0
            123.922702,10.393938,0
            123.92263,10.394165,0
            123.922501,10.394423,0
            123.922276,10.394624,0
            123.922064,10.394872,0
            123.921887,10.395191,0
            123.921753,10.395605,0
            123.921699,10.395888,0
            123.921696,10.39618,0
          </coordinates>
        </LineString>
      </Placemark>
    </Folder>
  </Document>
</kml>
