<?xml version="1.0" encoding="UTF-8"?>
<kml xmlns="http://www.opengis.net/kml/2.2">
  <Document>
    <name>Cebu Jeepney Route No. 14D</name>
    <description><![CDATA[more cebu jeepneys route map at cebujeepneys.weebly.com<br><br>Ayala Terminal to Colon<br><br>ayala to escario st.<br>ayala to provincial capitol<br>ayala to osmena blvd.<br>ayala to cebu doctors hospital<br>ayala to fuente osmena<br>ayala to robinsons fuente<br>ayala to f. ramos st.<br>ayala to cogon ramos<br>ayala to university of san carlos<br>ayala to junquera st<br>ayala to colon st.<br>ayala to gaisano main<br>ayala to university of the visayas<br>ayala to shamrock<br>ayala to manalili st.<br>ayala to metro colon<br>escario to fuente osmena<br>escario to f. ramos st.<br>escario to university of san carlos<br>escario to colon st<br>escario to gaisano main<br>escario to shamrock<br>escario to manalili st.<br>capitol to fuente osmena<br>capitol to robinsons fuente<br>capitol to f. ramos st.<br>capitol to cogon ramos<br>capitol to university of san carlos<br>capitol to colon<br>capitol to gaisano main<br>fuente to ramos<br>fuente to colon<br>fuente to university of san carlos<br>fuente to gaisano main<br>fuente to shamrock<br>fuente to metro colon<br>ramos to colon<br>ramos to gaisano main<br>ramos to usc<br>]]></description>
    <Style id="line-0000FF-5000-normal">
      <LineStyle>
        <color>ffff0000</color>
        <width>5</width>
      </LineStyle>
    </Style>
    <Style id="line-0000FF-5000-highlight">
      <LineStyle>
        <color>ffff0000</color>
        <width>7.5</width>
      </LineStyle>
    </Style>
    <StyleMap id="line-0000FF-5000">
      <Pair>
        <key>normal</key>
        <styleUrl>#line-0000FF-5000-normal</styleUrl>
      </Pair>
      <Pair>
        <key>highlight</key>
        <styleUrl>#line-0000FF-5000-highlight</styleUrl>
      </Pair>
    </StyleMap>
    <Style id="line-FF0000-5000-normal">
      <LineStyle>
        <color>ff0000ff</color>
        <width>5</width>
      </LineStyle>
    </Style>
    <Style id="line-FF0000-5000-highlight">
      <LineStyle>
        <color>ff0000ff</color>
        <width>7.5</width>
      </LineStyle>
    </Style>
    <StyleMap id="line-FF0000-5000">
      <Pair>
        <key>normal</key>
        <styleUrl>#line-FF0000-5000-normal</styleUrl>
      </Pair>
      <Pair>
        <key>highlight</key>
        <styleUrl>#line-FF0000-5000-highlight</styleUrl>
      </Pair>
    </StyleMap>
    <Style id="poly-FF6666-3000-115-nodesc-normal">
      <LineStyle>
        <color>ff6666ff</color>
        <width>3</width>
      </LineStyle>
      <PolyStyle>
        <color>736666ff</color>
        <fill>1</fill>
        <outline>1</outline>
      </PolyStyle>
      <BalloonStyle>
        <text><![CDATA[<h3>$[name]</h3>]]></text>
      </BalloonStyle>
    </Style>
    <Style id="poly-FF6666-3000-115-nodesc-highlight">
      <LineStyle>
        <color>ff6666ff</color>
        <width>4.5</width>
      </LineStyle>
      <PolyStyle>
        <color>736666ff</color>
        <fill>1</fill>
        <outline>1</outline>
      </PolyStyle>
      <BalloonStyle>
        <text><![CDATA[<h3>$[name]</h3>]]></text>
      </BalloonStyle>
    </Style>
    <StyleMap id="poly-FF6666-3000-115-nodesc">
      <Pair>
        <key>normal</key>
        <styleUrl>#poly-FF6666-3000-115-nodesc-normal</styleUrl>
      </Pair>
      <Pair>
        <key>highlight</key>
        <styleUrl>#poly-FF6666-3000-115-nodesc-highlight</styleUrl>
      </Pair>
    </StyleMap>
    <Folder>
      <name>Walang pamagat na layer</name>
      <Placemark>
        <name>Ayala Terminal to Colon</name>
        <description><![CDATA[more cebu jeepneys route maps at cebujeepneys.weebly.com (http://cebujeepneys.weebly.com)<br>Like us on our Facebook Page (http://facebook.com/cebujeepneysroutemap)<br><br>Ayala Terminal to Colon<br><br>From ayala terminal - harolds hotel - escario st. - provincial capitol - jones avenue - fuente osmena circle - robinsons cybergate - chung hua hospital - robinsons place cebu (fuente) - f. ramos st. - saint paul college foundation (ramos) - university of san carlos - junquera st. - colon st.- gaisano main - university of the visayas - v. gullas st. - manalili st. -  metro gaisano - osmena boulevard - landbank - central bank of the philippines - abellana sports complex - crown regency hotel - back to fuente osmena circle - jones avenue - escario st. - philhealth - back to ayala terminal.]]></description>
        <styleUrl>#line-0000FF-5000</styleUrl>
        <LineString>
          <tessellate>1</tessellate>
          <coordinates>
            123.90352,10.31892,0
            123.90339,10.31907,0
            123.90329,10.31909,0
            123.90353,10.31965,0
            123.90363,10.3197,0
            123.9039,10.32029,0
            123.90375,10.32036,0
            123.90303,10.31861,0
            123.90284,10.31908,0
            123.90178,10.32112,0
            123.90009,10.32027,0
            123.89886,10.31973,0
            123.899273,10.318413,0
            123.898889,10.318323,0
            123.898482,10.31822,0
            123.897173,10.317949,0
            123.89469,10.31754,0
            123.89171,10.31661,0
            123.89078,10.31627,0
            123.89199,10.31298,0
            123.89279,10.31059,0
            123.89244,10.31002,0
            123.89243,10.3097,0
            123.89261,10.30933,0
            123.89298,10.30916,0
            123.89328,10.30914,0
            123.89367,10.30935,0
            123.8939,10.30966,0
            123.89436,10.30989,0
            123.89822,10.30481,0
            123.89819,10.30463,0
            123.89827,10.302,0
            123.90018,10.29857,0
            123.90059,10.29765,0
            123.90243,10.2978,0
            123.90355,10.29795,0
            123.90374,10.29796,0
            123.90382,10.29782,0
            123.90386,10.29721,0
            123.90216,10.29693,0
            123.9013,10.29684,0
            123.90005,10.29628,0
            123.89954,10.29576,0
            123.89823,10.29623,0
            123.8975,10.29775,0
            123.89751,10.29793,0
            123.89536,10.30375,0
            123.89428,10.30687,0
            123.89423,10.30713,0
            123.89388,10.30788,0
            123.89346,10.30912,0
            123.89346,10.30927,0
            123.89379,10.30963,0
            123.89384,10.30993,0
            123.89376,10.31015,0
            123.89356,10.31038,0
            123.89344,10.31047,0
            123.89296,10.31063,0
            123.89289,10.31073,0
          </coordinates>
        </LineString>
      </Placemark>
      <Placemark>
        <name>Shape 1</name>
        <styleUrl>#poly-FF6666-3000-115-nodesc</styleUrl>
        <Polygon>
          <outerBoundaryIs>
            <LinearRing>
              <tessellate>1</tessellate>
              <coordinates>
                123.894269,10.306137,0
                123.894505,10.3062,0
                123.89472,10.306285,0
                123.894441,10.306475,0
                123.894269,10.306137,0
              </coordinates>
            </LinearRing>
          </outerBoundaryIs>
        </Polygon>
      </Placemark>
      <Placemark>
        <name>Shape 2</name>
        <styleUrl>#poly-FF6666-3000-115-nodesc</styleUrl>
        <Polygon>
          <outerBoundaryIs>
            <LinearRing>
              <tessellate>1</tessellate>
              <coordinates>
                123.899076,10.300532,0
                123.898872,10.301408,0
                123.898346,10.301197,0
                123.899076,10.300532,0
              </coordinates>
            </LinearRing>
          </outerBoundaryIs>
        </Polygon>
      </Placemark>
      <Placemark>
        <name>Shape 3</name>
        <styleUrl>#poly-FF6666-3000-115-nodesc</styleUrl>
        <Polygon>
          <outerBoundaryIs>
            <LinearRing>
              <tessellate>1</tessellate>
              <coordinates>
                123.901865,10.320894,0
                123.901972,10.320419,0
                123.90223,10.320556,0
                123.901865,10.320894,0
              </coordinates>
            </LinearRing>
          </outerBoundaryIs>
        </Polygon>
      </Placemark>
      <Placemark>
        <name>Shape 4</name>
        <styleUrl>#poly-FF6666-3000-115-nodesc</styleUrl>
        <Polygon>
          <outerBoundaryIs>
            <LinearRing>
              <tessellate>1</tessellate>
              <coordinates>
                123.902338,10.318682,0
                123.902177,10.319126,0
                123.902021,10.319068,0
                123.902338,10.318682,0
              </coordinates>
            </LinearRing>
          </outerBoundaryIs>
        </Polygon>
      </Placemark>
      <Placemark>
        <name>Shape 5</name>
        <styleUrl>#poly-FF6666-3000-115-nodesc</styleUrl>
        <Polygon>
          <outerBoundaryIs>
            <LinearRing>
              <tessellate>1</tessellate>
              <coordinates>
                123.895932,10.301693,0
                123.896265,10.301777,0
                123.895739,10.302685,0
                123.895932,10.301693,0
              </coordinates>
            </LinearRing>
          </outerBoundaryIs>
        </Polygon>
      </Placemark>
      <Placemark>
        <name>Shape 6</name>
        <styleUrl>#poly-FF6666-3000-115-nodesc</styleUrl>
        <Polygon>
          <outerBoundaryIs>
            <LinearRing>
              <tessellate>1</tessellate>
              <coordinates>
                123.901629,10.296584,0
                123.901404,10.297291,0
                123.900706,10.296616,0
                123.901629,10.296584,0
              </coordinates>
            </LinearRing>
          </outerBoundaryIs>
        </Polygon>
      </Placemark>
      <Placemark>
        <name>Colon to Ayala</name>
        <description><![CDATA[more cebu jeepneys route maps at cebujeepneys.weebly.com (http://cebujeepneys.weebly.com)<br>Like us on our Facebook Page (http://facebook.com/cebujeepneysroutemap)<br><br>Colon to Ayala Terminal via Fuente Osmena<br><br>metro gaisano - osmena boulevard - landbank - central bank of the philippines - abellana sports complex - crown regency hotel - back to fuente osmena circle - jones avenue - escario st. - philhealth - back to ayala terminal.]]></description>
        <styleUrl>#line-FF0000-5000</styleUrl>
        <LineString>
          <tessellate>1</tessellate>
          <coordinates>
            123.90003,10.29627,0
            123.89953,10.29576,0
            123.89822,10.29623,0
            123.89749,10.29775,0
            123.89751,10.29792,0
            123.89518,10.30425,0
            123.89427,10.30688,0
            123.89423,10.30712,0
            123.89387,10.30788,0
            123.89346,10.30911,0
            123.89345,10.30927,0
            123.89377,10.30962,0
            123.89383,10.30993,0
            123.89375,10.31015,0
            123.89357,10.31036,0
            123.89343,10.31047,0
            123.89296,10.31062,0
            123.89288,10.31073,0
            123.89212,10.31302,0
            123.89165,10.31417,0
            123.89095,10.31617,0
            123.89198,10.31654,0
            123.89222,10.31671,0
            123.894791,10.317521,0
            123.896194,10.317745,0
            123.897559,10.317983,0
            123.898436,10.318189,0
            123.89993,10.318556,0
            123.900748,10.318893,0
            123.90192,10.31947,0
            123.90271,10.31796,0
            123.9032,10.3189,0
            123.90331,10.31894,0
            123.9036,10.3188,0
            123.90366,10.31891,0
            123.90356,10.31896,0
          </coordinates>
        </LineString>
      </Placemark>
    </Folder>
  </Document>
</kml>
