<?xml version="1.0" encoding="UTF-8"?>
<kml xmlns="http://www.opengis.net/kml/2.2">
  <Document>
    <name>Cebu Jeepneys Route No. 17B</name>
    <description><![CDATA[APAS TO CARBON<br><br>apas to jy <br>apas to fuente <br>apas to colon<br>apas to carbon<br>it park to jy <br>it  park to capitol<br>it park to fuente<br>it park to colon<br>it park to carbon<br>jy to fuente <br>jy to capitol <br>jy to colon<br>jy to carbon<br>jy to basilica sto nino<br>capitol to fuente<br>capitol to carbo<br>capitol to metro colon<br>capitol to basilica del sto. nino<br>fuente to colon<br>fuente to carbon<br><br>CARBON TO APAS<br><br>carbon to fuente <br>carbon  to capitol<br>carbon to escario<br>carbon to gorordo<br>carbon to it park<br>carbon to apas<br>carbon to jy<br>colon to it park<br>colon to fuente<br>colon to capitol<br>colon to lahug<br>colon to jy<br>fuente to jy <br>fuente to lahug<br>fuente to it park <br>fuente to apas<br>gorordo to it park <br>gorordo to apas<br>gorordo to jy.]]></description>
    <Style id="line-0000FF-5000-normal">
      <LineStyle>
        <color>ffff0000</color>
        <width>5</width>
      </LineStyle>
    </Style>
    <Style id="line-0000FF-5000-highlight">
      <LineStyle>
        <color>ffff0000</color>
        <width>7.5</width>
      </LineStyle>
    </Style>
    <StyleMap id="line-0000FF-5000">
      <Pair>
        <key>normal</key>
        <styleUrl>#line-0000FF-5000-normal</styleUrl>
      </Pair>
      <Pair>
        <key>highlight</key>
        <styleUrl>#line-0000FF-5000-highlight</styleUrl>
      </Pair>
    </StyleMap>
    <Style id="line-33FF33-5000-normal">
      <LineStyle>
        <color>ff33ff33</color>
        <width>5</width>
      </LineStyle>
    </Style>
    <Style id="line-33FF33-5000-highlight">
      <LineStyle>
        <color>ff33ff33</color>
        <width>7.5</width>
      </LineStyle>
    </Style>
    <StyleMap id="line-33FF33-5000">
      <Pair>
        <key>normal</key>
        <styleUrl>#line-33FF33-5000-normal</styleUrl>
      </Pair>
      <Pair>
        <key>highlight</key>
        <styleUrl>#line-33FF33-5000-highlight</styleUrl>
      </Pair>
    </StyleMap>
    <Folder>
      <name>Untitled layer</name>
      <Placemark>
        <name>Apas to Carbon</name>
        <description><![CDATA[more cebu jeepneys route map at cebujeepneys.weebly.com (http://cebujeepneys.weebly.com)<br>LIke us on our Facebook Page (http://www.facebook.com/cebujeepneysroutemap)<br> <br>Apas - IT Park -  Geonzon St - Salinas Drive - Jy square Mall - Gorordo Ave. - UP - Harolds Hotel - Escario St. - Provincial Capitol - Osmena Blvd - CDU - Fuente Osmena Circle - Robinsons Fuente  - Crown Regency Hotel - Abellane Sports Complex - Jones Ave. - SSS - Metro Colon - P. Lopez St. - Magallanes St. - Manalili St. - Carbon Public Market - Progresso St.]]></description>
        <styleUrl>#line-0000FF-5000</styleUrl>
        <LineString>
          <tessellate>1</tessellate>
          <coordinates>
            123.906233,10.340491,0
            123.906,10.339892,0
            123.905673,10.339074,0
            123.905402,10.3387,0
            123.905142,10.338386,0
            123.904873,10.338027,0
            123.904737,10.337811,0
            123.90534,10.337354,0
            123.905979,10.336879,0
            123.906552,10.336473,0
            123.906856,10.33623,0
            123.907295,10.335758,0
            123.907912,10.336346,0
            123.908114,10.336177,0
            123.907894,10.335805,0
            123.907462,10.335153,0
            123.907397,10.335011,0
            123.90732,10.334591,0
            123.907057,10.333626,0
            123.907025,10.333401,0
            123.906834,10.332647,0
            123.906555,10.332098,0
            123.906931,10.331876,0
            123.906856,10.331747,0
            123.907867,10.331153,0
            123.908307,10.330881,0
            123.907786,10.329971,0
            123.907285,10.329171,0
            123.906778,10.328404,0
            123.906325,10.328673,0
            123.905847,10.32896,0
            123.905327,10.329208,0
            123.904863,10.328472,0
            123.90457,10.32799,0
            123.89894,10.33075,0
            123.89871,10.33081,0
            123.8981,10.33118,0
            123.89748,10.32915,0
            123.89742,10.32859,0
            123.89789,10.32696,0
            123.89807,10.32537,0
            123.8991,10.32057,0
            123.8993,10.31995,0
            123.89883,10.31972,0
            123.89927,10.31841,0
            123.89718,10.31795,0
            123.89503,10.31762,0
            123.89194,10.31667,0
            123.89077,10.31626,0
            123.89279,10.31058,0
            123.89247,10.31004,0
            123.89245,10.30967,0
            123.89263,10.30938,0
            123.8931,10.30917,0
            123.89326,10.30916,0
            123.89347,10.30869,0
            123.89388,10.30739,0
            123.89446,10.30603,0
            123.89676,10.29951,0
            123.89737,10.29792,0
            123.8975,10.29774,0
            123.8982,10.29626,0
            123.89784,10.29489,0
            123.89811,10.29377,0
            123.89874,10.29405,0
            123.89903,10.29424,0
            123.8985,10.29242,0
            123.8994,10.29212,0
            123.89949,10.29196,0
          </coordinates>
        </LineString>
      </Placemark>
      <Placemark>
        <name>Carbon To Apas </name>
        <description><![CDATA[more cebu jeepneys route map at cebujeepneys.weebly.com (http://cebujeepneys.weebly.com)<br>Like us on our Facebook Page (http://www.facebook.com/cebujeepneysroutemap)<br><br><br><br> <br>MC. Briones St. - Cebu City Hall - Basilica del Sto. Nino - La Nueva (cityhall) - Mj. Cuenco Ave. - Osmena Blvd - Lapulapu St. - Legaspi St. - Colonnade Supermarket - Pelaez St. - University of San Carlos - Osmena Blvd. - Cebu Normal University - Crown Regency Hotel - Robinsons Fuente - Fuente Osmena Circle - CDU - Provincial Capitol - Escario St. - Gorordo Ave - UP - Jy Square Mall - Salinas Drive - Geonzon St. - IT Park - Apas.]]></description>
        <styleUrl>#line-33FF33-5000</styleUrl>
        <LineString>
          <tessellate>1</tessellate>
          <coordinates>
            123.89949,10.29196,0
            123.90111,10.29239,0
            123.9023,10.29264,0
            123.90377,10.29205,0
            123.90392,10.29206,0
            123.90421,10.29278,0
            123.90461,10.29356,0
            123.90383,10.29386,0
            123.90413,10.29455,0
            123.90336,10.29493,0
            123.90178,10.29553,0
            123.90006,10.29627,0
            123.89909,10.29677,0
            123.89856,10.29771,0
            123.89836,10.29819,0
            123.89806,10.30016,0
            123.89758,10.30005,0
            123.89685,10.29973,0
            123.89504,10.30468,0
            123.89422,10.30715,0
            123.89389,10.30789,0
            123.89345,10.3091,0
            123.89347,10.30926,0
            123.89364,10.30938,0
            123.89386,10.30965,0
            123.89386,10.30994,0
            123.89376,10.31018,0
            123.89357,10.31041,0
            123.89331,10.31054,0
            123.89297,10.31062,0
            123.89289,10.31073,0
            123.89212,10.31302,0
            123.89141,10.31482,0
            123.89096,10.31617,0
            123.89199,10.31655,0
            123.89235,10.31676,0
            123.89503,10.31759,0
            123.89719,10.31792,0
            123.89996,10.31852,0
            123.8995,10.31949,0
            123.89906,10.32092,0
            123.89811,10.32539,0
            123.89793,10.32698,0
            123.89744,10.3286,0
            123.89751,10.32913,0
            123.89791,10.33049,0
            123.89803,10.33065,0
            123.89831,10.33081,0
            123.89846,10.33082,0
            123.89893,10.33072,0
            123.90465,10.32792,0
            123.905396,10.329132,0
            123.905834,10.328915,0
            123.906338,10.328623,0
            123.906861,10.328311,0
            123.907261,10.328968,0
            123.907658,10.329594,0
            123.908484,10.330984,0
            123.907346,10.331654,0
            123.906614,10.332114,0
            123.906872,10.332615,0
            123.906963,10.332932,0
            123.907067,10.33338,0
            123.907092,10.33356,0
            123.907298,10.334309,0
            123.907443,10.334977,0
            123.907537,10.335164,0
            123.90799,10.335869,0
            123.908183,10.336183,0
            123.907996,10.336328,0
            123.907671,10.336565,0
            123.907416,10.336336,0
            123.907113,10.336027,0
            123.906869,10.336285,0
            123.906603,10.336497,0
            123.90604,10.336898,0
            123.905048,10.337626,0
            123.904801,10.337818,0
            123.904924,10.338019,0
            123.905182,10.338346,0
            123.905455,10.338692,0
            123.905729,10.339045,0
            123.905989,10.339726,0
            123.906292,10.340494,0
          </coordinates>
        </LineString>
      </Placemark>
    </Folder>
  </Document>
</kml>
