<?xml version="1.0" encoding="UTF-8"?>
<kml xmlns="http://www.opengis.net/kml/2.2">
  <Document>
    <name>Cebu Jeepney Route No. 17C</name>
    <description><![CDATA[more cebu jeepneys route map at cebujeepneys.weebly.com<br><br>Apas to Carbon<br><br>Apas to jy <br>Apas to gorordo ave.<br>apas to mango ave.<br>apas to ramos<br>apas to e mall<br>apas to carbon<br>apas to cebu city hall<br>apas to sto. nino<br>it park to jy<br>it park to gorordo ave.<br>it park to mango ave<br>it park to mango square<br>it park to robinsons fuente<br>it park to ramos<br>it park to sanciangko<br>it park to carbon<br>it parkt to sto.nino<br>mango to e mall<br>mango to carbon<br>mango to sto nino<br>mango to ramos<br>ramos to e mall<br>ramos to panganiban<br>ramos to carbon<br>ramos to sto.nino<br><br>Carbon to Apas<br><br>Carbon to ramos<br>carbon to Robinsons Fuente <br>carbon to mango<br>carbon to gorordo ave<br>carbon to royal concourse<br>carbon to philhealth<br>carbon to jy square mall<br>carbon to it park<br>carbon to apas<br>ramos to mango<br>ramos to royal concourse<br>ramos to philhealth<br>ramos to jy square mall<br>ramos to it park<br>ramos to apas<br>mango to royal concourse<br>mango to philhealth<br>mango to golden peak hotel<br>mango to jy <br>mango to it park<br>mango to apas<br>gorordo ave.  to IT park<br>]]></description>
    <Style id="line-0000FF-5000-normal">
      <LineStyle>
        <color>ffff0000</color>
        <width>5</width>
      </LineStyle>
    </Style>
    <Style id="line-0000FF-5000-highlight">
      <LineStyle>
        <color>ffff0000</color>
        <width>7.5</width>
      </LineStyle>
    </Style>
    <StyleMap id="line-0000FF-5000">
      <Pair>
        <key>normal</key>
        <styleUrl>#line-0000FF-5000-normal</styleUrl>
      </Pair>
      <Pair>
        <key>highlight</key>
        <styleUrl>#line-0000FF-5000-highlight</styleUrl>
      </Pair>
    </StyleMap>
    <Style id="line-33FF33-5000-normal">
      <LineStyle>
        <color>ff33ff33</color>
        <width>5</width>
      </LineStyle>
    </Style>
    <Style id="line-33FF33-5000-highlight">
      <LineStyle>
        <color>ff33ff33</color>
        <width>7.5</width>
      </LineStyle>
    </Style>
    <StyleMap id="line-33FF33-5000">
      <Pair>
        <key>normal</key>
        <styleUrl>#line-33FF33-5000-normal</styleUrl>
      </Pair>
      <Pair>
        <key>highlight</key>
        <styleUrl>#line-33FF33-5000-highlight</styleUrl>
      </Pair>
    </StyleMap>
    <Folder>
      <name>Untitled layer</name>
      <Placemark>
        <name>Apas to Carbon</name>
        <description><![CDATA[more cebu jeepneys route map at cebujeepneys.weebly.com (http://cebujeepneys.weebly.com)<br>or like us at our Facebook Page (http://http://www.facebook.com/cebujeepneysroutemap)<br><br> <br>Apas to Carbon<br><br> <br>Apas - IT Park - Salinas Drive - University of the Southern Philippines Foundation (Lahug) - Jy Square Mall - Gorordo Ave. - Lahug High School - University of the Philippines - Golden Peak Hotel - Philhealth - Royal Concourse - Asilo dela Milagrosa - Gen. Maxilom Ave. - Mango Ave. - Fooda Saversmart - Horizons 101 - Mango Square - The Beat - Robinsons Fuente - F. Ramos St. - Junquera St. - University of San Carlos Main - Sanciangko St. - University of Cebu Main - GV Tower - E Mall - Panganiban St. - Magallanes St. -  - University of San Jose-Recoletos - Carbon Public Market - F. Calderon st. - Progresso st.]]></description>
        <styleUrl>#line-0000FF-5000</styleUrl>
        <LineString>
          <tessellate>1</tessellate>
          <coordinates>
            123.906247,10.340528,0
            123.906121,10.34018,0
            123.905901,10.339639,0
            123.905697,10.339093,0
            123.905512,10.338855,0
            123.905142,10.338383,0
            123.904865,10.338037,0
            123.904729,10.3378,0
            123.905469,10.337259,0
            123.905984,10.336871,0
            123.906518,10.336512,0
            123.906877,10.336222,0
            123.90729,10.335763,0
            123.907907,10.336338,0
            123.908114,10.336177,0
            123.907845,10.335734,0
            123.907459,10.335135,0
            123.907395,10.334977,0
            123.907287,10.334483,0
            123.907065,10.333615,0
            123.907027,10.333385,0
            123.906837,10.332639,0
            123.906558,10.332103,0
            123.906923,10.331881,0
            123.906856,10.331755,0
            123.907521,10.33137,0
            123.908312,10.330897,0
            123.907808,10.330005,0
            123.907566,10.329609,0
            123.907177,10.329024,0
            123.906778,10.328404,0
            123.906325,10.328673,0
            123.905828,10.328974,0
            123.905329,10.329208,0
            123.904557,10.328016,0
            123.90276,10.32891,0
            123.900166,10.33015,0
            123.899198,10.330636,0
            123.898962,10.330749,0
            123.898779,10.330807,0
            123.89817,10.33115,0
            123.89806,10.33111,0
            123.89745,10.32912,0
            123.89741,10.32858,0
            123.89789,10.32696,0
            123.89799,10.32638,0
            123.89807,10.32538,0
            123.89818,10.32485,0
            123.8991,10.32061,0
            123.89947,10.31945,0
            123.89986,10.31851,0
            123.9005,10.31749,0
            123.90321,10.31228,0
            123.90386,10.31075,0
            123.90248,10.31126,0
            123.90193,10.3114,0
            123.9009,10.31153,0
            123.89987,10.31155,0
            123.89823,10.31126,0
            123.89435,10.30992,0
            123.89434,10.30986,0
            123.89591,10.30785,0
            123.89812,10.30481,0
            123.89818,10.30196,0
            123.8999,10.29892,0
            123.89836,10.29822,0
            123.89755,10.29777,0
            123.89253,10.29628,0
            123.89417,10.29452,0
            123.89431,10.29451,0
            123.89553,10.29309,0
            123.89724,10.29347,0
            123.89781,10.29365,0
            123.89812,10.29246,0
            123.89932,10.29213,0
            123.89943,10.292,0
          </coordinates>
        </LineString>
      </Placemark>
      <Placemark>
        <name>Carbon to Apas </name>
        <description><![CDATA[more cebu jeepneys route map at cebujeepneys.weebly.com (http://cebujeepneys.weebly.com)<br>Like Us on our Facebook Page (http://www.facebook.com/cebujeepneysroutemap)<br><br> <br>Carbon to Apas<br><br> <br>Carbon - MC. Briones St. - Cebu City Hall - Basilica del Sto. Nino - La Nueva Supermarket city hall - Lapulapu st. - MCWD - Legaspi St. -  Cebu Metropolitan<br>Cathedral - D. Jakosalem St. - Gaisano Main - University of the Visayas - Cogon Ramos - Ramos Public Market - F. Ramos St. - Robinsons Fuente - Mango Ave. - Raintree Mall - Mango Square - Horizons 101 - Fooda Saversmart - Gen Maxilom Ave. - Gorordo Ave. - Royal Concourse - Philhealth - Golden Peak Hotel - Tonros Apartelle - Harolds Hotel - University of the Philippines - lahug - Jy Square Mall - Salinas Drive - W. Geonson St. - Cebu IT Park - Apas.]]></description>
        <styleUrl>#line-33FF33-5000</styleUrl>
        <LineString>
          <tessellate>1</tessellate>
          <coordinates>
            123.89943,10.29201,0
            123.90229,10.29262,0
            123.903041,10.292325,0
            123.903589,10.293465,0
            123.903782,10.293829,0
            123.90386,10.293911,0
            123.904133,10.29456,0
            123.903363,10.294919,0
            123.9018,10.29554,0
            123.90218,10.29681,0
            123.90222,10.29734,0
            123.90172,10.29926,0
            123.9017,10.2997,0
            123.9016,10.30013,0
            123.90131,10.30078,0
            123.90096,10.30129,0
            123.90063,10.30218,0
            123.90031,10.3028,0
            123.90014,10.30339,0
            123.9001,10.30425,0
            123.89994,10.30517,0
            123.89844,10.30476,0
            123.89832,10.30475,0
            123.89816,10.30483,0
            123.89593,10.30789,0
            123.89553,10.30835,0
            123.89518,10.3089,0
            123.89439,10.30988,0
            123.89824,10.31122,0
            123.89927,10.31142,0
            123.90017,10.3115,0
            123.900472,10.311505,0
            123.900901,10.311489,0
            123.901875,10.311365,0
            123.902451,10.31122,0
            123.903385,10.310861,0
            123.903886,10.31065,0
            123.903932,10.310705,0
            123.903806,10.311011,0
            123.903554,10.311642,0
            123.903353,10.312104,0
            123.9032,10.312407,0
            123.902982,10.312832,0
            123.902695,10.313381,0
            123.902363,10.314043,0
            123.901977,10.31479,0
            123.901813,10.315059,0
            123.901708,10.315344,0
            123.901534,10.31564,0
            123.901019,10.316608,0
            123.900657,10.317249,0
            123.90056,10.317505,0
            123.90029,10.317972,0
            123.899911,10.31854,0
            123.899772,10.318922,0
            123.899517,10.319471,0
            123.899345,10.31997,0
            123.899144,10.320638,0
            123.898965,10.321445,0
            123.898804,10.322213,0
            123.898635,10.322973,0
            123.898589,10.32325,0
            123.898431,10.323976,0
            123.898179,10.325079,0
            123.89813,10.325369,0
            123.898063,10.326161,0
            123.89801,10.326567,0
            123.897924,10.326994,0
            123.897752,10.327562,0
            123.89753,10.328309,0
            123.897454,10.328601,0
            123.897465,10.328892,0
            123.897519,10.329145,0
            123.897674,10.329689,0
            123.897803,10.330098,0
            123.897918,10.330515,0
            123.89805,10.330665,0
            123.898302,10.330805,0
            123.898535,10.330802,0
            123.898769,10.330752,0
            123.898948,10.330707,0
            123.899308,10.330528,0
            123.899632,10.330362,0
            123.899919,10.330216,0
            123.900756,10.329807,0
            123.901703,10.329354,0
            123.902505,10.328968,0
            123.903393,10.328528,0
            123.90445,10.328,0
            123.90445,10.328008,0
            123.904651,10.327913,0
            123.904962,10.328409,0
            123.905405,10.329103,0
            123.905815,10.328923,0
            123.906064,10.328776,0
            123.906308,10.328623,0
            123.906574,10.328467,0
            123.906848,10.328316,0
            123.907204,10.328897,0
            123.907666,10.329599,0
            123.908328,10.330699,0
            123.908489,10.330963,0
            123.908009,10.33128,0
            123.907475,10.331596,0
            123.907078,10.331821,0
            123.906925,10.331934,0
            123.906612,10.332119,0
            123.906791,10.332441,0
            123.90689,10.332639,0
            123.907003,10.333082,0
            123.907105,10.333594,0
            123.907202,10.333969,0
            123.907354,10.334536,0
            123.907446,10.334974,0
            123.907499,10.335116,0
            123.907869,10.335673,0
            123.908183,10.33619,0
            123.907934,10.336383,0
            123.907674,10.336562,0
            123.907373,10.336285,0
            123.907108,10.336029,0
            123.906909,10.336254,0
            123.906652,10.33646,0
            123.906021,10.336916,0
            123.905421,10.337357,0
            123.904796,10.337813,0
            123.904932,10.338027,0
            123.90519,10.338344,0
            123.905461,10.338681,0
            123.905721,10.339051,0
            123.905938,10.339581,0
            123.906298,10.340518,0
          </coordinates>
        </LineString>
      </Placemark>
    </Folder>
  </Document>
</kml>
