<?xml version="1.0" encoding="UTF-8"?>
<kml xmlns="http://www.opengis.net/kml/2.2">
  <Document>
    <name>Cebu Jeepney Route No. 17D</name>
    <description><![CDATA[more cebu jeepneys route maps at cebujeepneys.weebly.com<br><br>Apas to Carbon via Taboan<br><br>Apas to it park<br>apas to jy<br>apas to lahug<br>apas to capitol<br>apas to cebu doc hospital<br>apas to jones ave.<br>apas to fuente<br>apas to robinsons fuente <br>apas to abellan<br>apas to sanciangko <br>apas to uc<br>apas to e mall<br>apas to taboan<br>apas to pasil<br>apas to carbon<br>lahug to fuente<br>lahug to abellana<br>lahug to sanciangko<br>lahug to e mall<br>lahug to taboan<br>lahug to pasil<br>lahug to carbon<br>capitol to sanciangko<br>capitol to taboan<br>capitol to pasil<br>capitol to carbon<br>fuente to sanciangko<br>fuente to e mall<br>fuente to taboan<br>fuente to pasil<br>fuente to carbon<br><br>Carbon to Apas <br><br>carbon to colonnade<br>carbon to cebu normal university<br>carbon to abellana <br>carbon to fuente<br>carbon to robinsons place<br>carbon to cebu doc. hospital<br>carbon to capitol<br>carbon to lahug<br>carbon to philhealth<br>carbon to mormons <br>carbon to jy<br>carbon to salinas<br>carbon to it park<br>carbon to apas<br>colon to fuente<br>colon to capitol<br>colon to lahug<br>colon to jy<br>colon to it park]]></description>
    <Style id="icon-22-normal">
      <IconStyle>
        <scale>1.1</scale>
        <Icon>
          <href>https://www.gstatic.com/mapspro/images/stock/22-blue-dot.png</href>
        </Icon>
        <hotSpot x="16" xunits="pixels" y="32" yunits="insetPixels"/>
      </IconStyle>
      <LabelStyle>
        <scale>0</scale>
      </LabelStyle>
    </Style>
    <Style id="icon-22-highlight">
      <IconStyle>
        <scale>1.1</scale>
        <Icon>
          <href>https://www.gstatic.com/mapspro/images/stock/22-blue-dot.png</href>
        </Icon>
        <hotSpot x="16" xunits="pixels" y="32" yunits="insetPixels"/>
      </IconStyle>
      <LabelStyle>
        <scale>1.1</scale>
      </LabelStyle>
    </Style>
    <StyleMap id="icon-22">
      <Pair>
        <key>normal</key>
        <styleUrl>#icon-22-normal</styleUrl>
      </Pair>
      <Pair>
        <key>highlight</key>
        <styleUrl>#icon-22-highlight</styleUrl>
      </Pair>
    </StyleMap>
    <Style id="line-0000FF-5000-normal">
      <LineStyle>
        <color>ffff0000</color>
        <width>5</width>
      </LineStyle>
    </Style>
    <Style id="line-0000FF-5000-highlight">
      <LineStyle>
        <color>ffff0000</color>
        <width>7.5</width>
      </LineStyle>
    </Style>
    <StyleMap id="line-0000FF-5000">
      <Pair>
        <key>normal</key>
        <styleUrl>#line-0000FF-5000-normal</styleUrl>
      </Pair>
      <Pair>
        <key>highlight</key>
        <styleUrl>#line-0000FF-5000-highlight</styleUrl>
      </Pair>
    </StyleMap>
    <Style id="line-00CCCC-5000-normal">
      <LineStyle>
        <color>ffcccc00</color>
        <width>5</width>
      </LineStyle>
    </Style>
    <Style id="line-00CCCC-5000-highlight">
      <LineStyle>
        <color>ffcccc00</color>
        <width>7.5</width>
      </LineStyle>
    </Style>
    <StyleMap id="line-00CCCC-5000">
      <Pair>
        <key>normal</key>
        <styleUrl>#line-00CCCC-5000-normal</styleUrl>
      </Pair>
      <Pair>
        <key>highlight</key>
        <styleUrl>#line-00CCCC-5000-highlight</styleUrl>
      </Pair>
    </StyleMap>
    <Style id="line-FF0000-5000-normal">
      <LineStyle>
        <color>ff0000ff</color>
        <width>5</width>
      </LineStyle>
    </Style>
    <Style id="line-FF0000-5000-highlight">
      <LineStyle>
        <color>ff0000ff</color>
        <width>7.5</width>
      </LineStyle>
    </Style>
    <StyleMap id="line-FF0000-5000">
      <Pair>
        <key>normal</key>
        <styleUrl>#line-FF0000-5000-normal</styleUrl>
      </Pair>
      <Pair>
        <key>highlight</key>
        <styleUrl>#line-FF0000-5000-highlight</styleUrl>
      </Pair>
    </StyleMap>
    <Folder>
      <name>Untitled layer</name>
      <Placemark>
        <name>Apas to Carbon via Taboan</name>
        <description><![CDATA[more cebu jeepneys route maps at cebujeepneys.weebly.com (http://cebujeepneys.weebly.com)<br>Like us on our Facebook Page (http://www.facebook.com/cebujeepneysroutemap)<br><br> <br>Apas to Carbon via Taboan<br><br> <br>Apas - Wilson St. - Omega St. - San Miguel Rd. - IT Park - Aegis - Skyrise 1 - Skyrise 2 - Inez Villa St. - J. Maria del Mar St. - Skyrise 3 - Abad St. - W. Geonzon St. - Salinas Drive - University of Southern Philippines Foundation - JY Square Mall - Lahug - Gorordo Ave. - Mormons Church - University of the Philippines - Harolds Hotel - Morales St. - Escario St. - Cebu Provincial Capitol - Osmena Blvd. (Jones Ave. - Cebu Doctors Hospital - Fuente Osmena Circle - Robinsons Mall - Crown Regency Hotel & Suites - Abellana Sports Complex - Cebu Normal University - SSS - Sanciangko St. - GV Tower - UC Main - E Mall - Taboan Public Market - Taboan Dried Fish Market - Lakandula St. - San Nicolas Parish Church - Pasil Fish Market - Spolarium St. - Magallanes St. - University of San Jose-Recoletos - Carbon Public Market - F. Calderon St. - Progresso st. - MC. Briones St.]]></description>
        <styleUrl>#line-0000FF-5000</styleUrl>
        <LineString>
          <tessellate>1</tessellate>
          <coordinates>
            123.90624,10.34053,0
            123.90572,10.33915,0
            123.90472,10.33779,0
            123.90685,10.33623,0
            123.90728,10.33573,0
            123.90792,10.33634,0
            123.90811,10.33617,0
            123.90739,10.335,0
            123.90682,10.33263,0
            123.90654,10.3321,0
            123.90691,10.33186,0
            123.90687,10.33172,0
            123.90833,10.33088,0
            123.90759,10.32963,0
            123.90678,10.32838,0
            123.9053,10.32922,0
            123.90456,10.32801,0
            123.8992,10.33063,0
            123.89876,10.33081,0
            123.89817,10.33116,0
            123.89807,10.33113,0
            123.89738,10.32898,0
            123.89737,10.32858,0
            123.89787,10.32691,0
            123.89818,10.3248,0
            123.8991,10.3206,0
            123.8993,10.31993,0
            123.89879,10.3197,0
            123.89926,10.31842,0
            123.89719,10.31796,0
            123.89464,10.31753,0
            123.89149,10.31654,0
            123.8909,10.3163,0
            123.8908,10.31612,0
            123.89228,10.31211,0
            123.89279,10.31059,0
            123.89276,10.31048,0
            123.89261,10.3103,0
            123.89247,10.31,0
            123.89252,10.30956,0
            123.89264,10.30935,0
            123.89328,10.30914,0
            123.89385,10.30745,0
            123.89445,10.30604,0
            123.89677,10.29951,0
            123.89748,10.29775,0
            123.89369,10.29661,0
            123.89253,10.29632,0
            123.89169,10.29602,0
            123.89159,10.29591,0
            123.89176,10.29501,0
            123.89225,10.29306,0
            123.89243,10.29253,0
            123.89362,10.29271,0
            123.89437,10.29287,0
            123.89492,10.29305,0
            123.8955,10.29307,0
            123.89705,10.29345,0
            123.89719,10.29345,0
            123.8978,10.29363,0
            123.897902,10.293169,0
            123.898079,10.292459,0
            123.898696,10.29229,0
            123.899324,10.292116,0
            123.899468,10.291963,0
          </coordinates>
        </LineString>
      </Placemark>
      <Placemark>
        <name>Carbon to Apas</name>
        <description><![CDATA[more cebu jeepneys route maps at cebujeepneys.weebly.com (http://cebujeepneys.weebly.com)<br>Like us on our Facebook Page (http://facebook.com/cebujeepneysroutemap)<br><br> <br>Carbon to Apas <br><br> <br>Carbon Public Market - MC. Briones St. - Senior Citizens Park - Cebu City Hall - Basilica del Sto. Nino - La Nueva Supermart - Lapulapu St. - MCWD - DTI - Legaspi St. - Colonnade Supermarket - Cebu Century Hotel - Hotel de Mercedes - Pelaez St. - University of San Carlos Main - P del Rosario St. - Osmena Blvd. - Cebu Normal University - Abellana Sports Center - Crown Regency Hotel & Suites - Robinson Place - Fuente Osmena Circle - Cebu Doctors Hospital - Cebu Provincial Capitol - N. Escario St. - Cebu Grand Hotel - Philhealth - Golden Peak Hotel - Gorordo Ave. - Turtles Nest - Handuraw Pizza - University of the Philippines - Lahug - Mormons Church - Jy Square Mall - Salinas Drive - USP-F - W. Geonzon St. - Abad St. - IT Park - Convergys - J. Maria del Mar St.- Skyrise 3 - Inez Villa St. - Skyrise 1 - Skyrise 2 - Aegis - Sn Miguel Rd. - Omega St. - Wilson St. -]]></description>
        <styleUrl>#line-00CCCC-5000</styleUrl>
        <LineString>
          <tessellate>1</tessellate>
          <coordinates>
            123.89946,10.29196,0
            123.9023,10.29261,0
            123.90304,10.29229,0
            123.90415,10.29456,0
            123.90332,10.29495,0
            123.90177,10.29555,0
            123.89906,10.29673,0
            123.89875,10.29721,0
            123.89835,10.29813,0
            123.89804,10.30014,0
            123.89785,10.30016,0
            123.89685,10.29975,0
            123.89535,10.3038,0
            123.89424,10.30715,0
            123.89393,10.30785,0
            123.89348,10.30913,0
            123.89348,10.30922,0
            123.89362,10.30933,0
            123.89383,10.30964,0
            123.89385,10.30993,0
            123.8936,10.31033,0
            123.89339,10.31048,0
            123.89309,10.31058,0
            123.89293,10.3107,0
            123.89286,10.31084,0
            123.89214,10.31304,0
            123.89151,10.31465,0
            123.89099,10.31616,0
            123.89202,10.31654,0
            123.89229,10.31672,0
            123.89447,10.31742,0
            123.89526,10.31759,0
            123.89719,10.31789,0
            123.89992,10.31852,0
            123.89934,10.31997,0
            123.89914,10.32064,0
            123.89813,10.32539,0
            123.89792,10.32694,0
            123.89751,10.32815,0
            123.89743,10.3286,0
            123.89743,10.32896,0
            123.89793,10.33053,0
            123.89805,10.33067,0
            123.89831,10.33081,0
            123.89896,10.33069,0
            123.90253,10.32895,0
            123.903672,10.328388,0
            123.90468,10.3279,0
            123.905021,10.328472,0
            123.905415,10.329113,0
            123.906338,10.328594,0
            123.906797,10.32833,0
            123.906856,10.328298,0
            123.907328,10.329063,0
            123.907695,10.329586,0
            123.908358,10.330749,0
            123.908481,10.330939,0
            123.908406,10.331042,0
            123.907413,10.331623,0
            123.907172,10.33176,0
            123.907017,10.33186,0
            123.906614,10.332119,0
            123.906896,10.332644,0
            123.907194,10.333934,0
            123.90744,10.334985,0
            123.90755,10.33518,0
            123.908178,10.336196,0
            123.907682,10.336562,0
            123.907105,10.336029,0
            123.906882,10.336275,0
            123.906367,10.336668,0
            123.905423,10.337346,0
            123.904788,10.337813,0
            123.904938,10.338019,0
            123.905193,10.338354,0
            123.90574,10.33908,0
            123.906035,10.339821,0
            123.906303,10.340526,0
          </coordinates>
        </LineString>
      </Placemark>
      <Placemark>
        <name>Taboan Dried Fish Area</name>
        <description><![CDATA[more cebu jeepneys route maps at cebujeepneys.weebly.com (http://cebujeepneys.weebly.com)<br>Like us on our Facebook Page (http://facebook.com/cebujeepneysroutemap)]]></description>
        <styleUrl>#line-FF0000-5000</styleUrl>
        <LineString>
          <tessellate>1</tessellate>
          <coordinates>
            123.891428,10.296064,0
            123.890781,10.296254,0
            123.890449,10.296349,0
            123.890341,10.296378,0
            123.890322,10.296294,0
            123.891087,10.296054,0
            123.891398,10.295977,0
            123.891419,10.296048,0
          </coordinates>
        </LineString>
      </Placemark>
      <Placemark>
        <name>Taboan Dried Fish Area</name>
        <description><![CDATA[more cebu jeepneys route maps at cebujeepneys.weebly.com (http://cebujeepneys.weebly.com)<br>Like us on our Facebook Page (http://facebook.com/cebujeepneysroutemap)]]></description>
        <styleUrl>#icon-22</styleUrl>
        <Point>
          <coordinates>
            123.890647,10.296246,0
          </coordinates>
        </Point>
      </Placemark>
    </Folder>
  </Document>
</kml>
