<?xml version="1.0" encoding="UTF-8"?>
<kml xmlns="http://www.opengis.net/kml/2.2">
  <Document>
    <name>Cebu Jeepney Route No. 20A (Even)</name>
    <description><![CDATA[more cebu jeepney routes at cebujeepneys.weebly.com<br><br>ayala terminal - mabolo - subandako - wireless - tipolo - san miguel corporation - Parkmall - CICC - Guizo - Uwell - Mantuyong - Sosyoland Supermarket - Colonnade Supermarket - North reclamation area - mandaue public market (NEW) - BIR (mandaue)  - Bureau of Immigration - Mandaue City Hall - Saint Joseph Parish - SB. Cabahug St. - Mandaue Colliseum - Estancia-ibabao - Super Metro Mandaue - Pacific Mall - Department of Foreign Affairs(mandaue)<br><br>Pacific Mall - Super metro mandaue - UN Ave. - Plaridel St. - AC Cortes Ave. - Maguikay Flyover - Hi-way - Coca Cola plant - San Miguel Plant - tipolo - Wireless - Subangdako - Mabolo - Dela Montana St. (Pope John Paul Ave.) - Cardinal Rosales Ave. - Mindanao ave. - Ayala Terminal]]></description>
    <Style id="line-0000FF-5000-normal">
      <LineStyle>
        <color>ffff0000</color>
        <width>5</width>
      </LineStyle>
    </Style>
    <Style id="line-0000FF-5000-highlight">
      <LineStyle>
        <color>ffff0000</color>
        <width>7.5</width>
      </LineStyle>
    </Style>
    <StyleMap id="line-0000FF-5000">
      <Pair>
        <key>normal</key>
        <styleUrl>#line-0000FF-5000-normal</styleUrl>
      </Pair>
      <Pair>
        <key>highlight</key>
        <styleUrl>#line-0000FF-5000-highlight</styleUrl>
      </Pair>
    </StyleMap>
    <Style id="line-FF0000-5000-normal">
      <LineStyle>
        <color>ff0000ff</color>
        <width>5</width>
      </LineStyle>
    </Style>
    <Style id="line-FF0000-5000-highlight">
      <LineStyle>
        <color>ff0000ff</color>
        <width>7.5</width>
      </LineStyle>
    </Style>
    <StyleMap id="line-FF0000-5000">
      <Pair>
        <key>normal</key>
        <styleUrl>#line-FF0000-5000-normal</styleUrl>
      </Pair>
      <Pair>
        <key>highlight</key>
        <styleUrl>#line-FF0000-5000-highlight</styleUrl>
      </Pair>
    </StyleMap>
    <Folder>
      <name>Untitled layer</name>
      <Placemark>
        <name>ayala to mandaue (mercado - parkmall)</name>
        <description>ayala terminal - mabolo - subandako - wireless - tipolo - san miguel corporation - Parkmall - CICC - Guizo - Uwell - Mantuyong - Sosyoland Supermarket - Colonnade Supermarket - North reclamation area - mandaue public market (NEW) - BIR (mandaue)  - Bureau of Immigration - Mandaue City Hall - Saint Joseph Parish - SB. Cabahug St. - Mandaue Colliseum - Estancia-ibabao - Super Metro Mandaue - Pacific Mall - Department of Foreign Affairs(mandaue)</description>
        <styleUrl>#line-0000FF-5000</styleUrl>
        <LineString>
          <tessellate>1</tessellate>
          <coordinates>
            123.903615,10.318878,0
            123.903894,10.31874,0
            123.903696,10.318286,0
            123.903272,10.317347,0
            123.903503,10.317194,0
            123.903717,10.317009,0
            123.903927,10.31684,0
            123.904195,10.316613,0
            123.904608,10.316413,0
            123.905026,10.316297,0
            123.905434,10.316196,0
            123.905681,10.316123,0
            123.905847,10.316086,0
            123.906453,10.315938,0
            123.907108,10.315653,0
            123.907451,10.315489,0
            123.907644,10.315378,0
            123.907719,10.315394,0
            123.907827,10.315035,0
            123.908111,10.314471,0
            123.908266,10.314143,0
            123.908363,10.313985,0
            123.908476,10.313901,0
            123.908631,10.313837,0
            123.908755,10.313843,0
            123.908889,10.313864,0
            123.909114,10.313964,0
            123.90935,10.313637,0
            123.90949,10.313442,0
            123.909516,10.313304,0
            123.909398,10.312887,0
            123.90928,10.312476,0
            123.909302,10.312391,0
            123.909838,10.311895,0
            123.910412,10.312207,0
            123.910782,10.312386,0
            123.911469,10.312697,0
            123.912172,10.31303,0
            123.912933,10.313394,0
            123.913706,10.313795,0
            123.914682,10.314238,0
            123.914779,10.314286,0
            123.915213,10.314502,0
            123.915546,10.314682,0
            123.915696,10.314745,0
            123.915857,10.314856,0
            123.916007,10.315014,0
            123.916329,10.315363,0
            123.916587,10.315653,0
            123.91693,10.316043,0
            123.917268,10.31645,0
            123.917643,10.316909,0
            123.91818,10.317532,0
            123.9184,10.317796,0
            123.918813,10.318265,0
            123.919038,10.318487,0
            123.919162,10.318598,0
            123.919467,10.318841,0
            123.920213,10.319384,0
            123.920637,10.319696,0
            123.921007,10.320007,0
            123.92149,10.32045,0
            123.922466,10.321311,0
            123.922724,10.321543,0
            123.923517,10.322202,0
            123.924462,10.323052,0
            123.924601,10.323158,0
            123.925593,10.324023,0
            123.925744,10.324139,0
            123.926859,10.325158,0
            123.927047,10.325327,0
            123.927761,10.325965,0
            123.928319,10.326483,0
            123.929166,10.327258,0
            123.92937,10.327475,0
            123.930175,10.328208,0
            123.930582,10.328562,0
            123.930652,10.328657,0
            123.931366,10.32891,0
            123.932481,10.329406,0
            123.932691,10.32947,0
            123.933436,10.328419,0
            123.934085,10.327522,0
            123.934654,10.326773,0
            123.934756,10.326651,0
            123.935357,10.327158,0
            123.935518,10.32729,0
            123.935657,10.327396,0
            123.935995,10.327501,0
            123.936247,10.327522,0
            123.936515,10.327469,0
            123.936574,10.327586,0
            123.936794,10.328103,0
            123.937089,10.328762,0
            123.937261,10.32909,0
            123.937363,10.329274,0
            123.937545,10.329707,0
            123.937594,10.329834,0
            123.937658,10.330298,0
            123.938495,10.330066,0
            123.938999,10.329902,0
            123.939949,10.329586,0
            123.941102,10.329063,0
            123.94144,10.328889,0
            123.941392,10.328815,0
            123.941274,10.328488,0
            123.940925,10.327348,0
            123.940748,10.326921,0
            123.940566,10.326609,0
            123.940415,10.32634,0
            123.940276,10.326182,0
            123.940206,10.326092,0
            123.939927,10.326029,0
            123.939831,10.326023,0
            123.939546,10.325427,0
            123.939037,10.325585,0
            123.938296,10.325818,0
            123.938098,10.325907,0
            123.937889,10.325939,0
            123.937889,10.325786,0
            123.93828,10.325649,0
            123.939498,10.325216,0
            123.941,10.324667,0
            123.941327,10.324546,0
            123.941166,10.324393,0
            123.940619,10.32359,0
            123.940002,10.322609,0
            123.941038,10.322012,0
            123.941703,10.322952,0
            123.942556,10.324081,0
            123.94269,10.324282,0
            123.942851,10.324625,0
            123.94299,10.324968,0
            123.943312,10.325675,0
            123.943559,10.326245,0
            123.942373,10.326736,0
            123.942448,10.326884,0
            123.942658,10.326989,0
            123.942808,10.327095,0
            123.942862,10.3272,0
            123.942867,10.327332,0
            123.942776,10.327644,0
            123.942765,10.32786,0
            123.942856,10.32815,0
            123.943135,10.329037,0
            123.943307,10.329675,0
            123.943393,10.329902,0
            123.943672,10.330858,0
            123.943865,10.331428,0
            123.944283,10.332742,0
            123.944723,10.334193,0
            123.944959,10.334937,0
            123.945383,10.336288,0
            123.945866,10.337855,0
            123.946182,10.338826,0
            123.94637,10.339449,0
            123.946525,10.340119,0
            123.94667,10.340283,0
            123.94689,10.340563,0
            123.947035,10.340737,0
            123.947228,10.341096,0
            123.947335,10.341275,0
            123.947421,10.341328,0
            123.947523,10.34136,0
            123.947663,10.341307,0
            123.948011,10.341191,0
            123.94836,10.341075,0
            123.948811,10.340922,0
            123.949251,10.340763,0
          </coordinates>
        </LineString>
      </Placemark>
      <Placemark>
        <name>Pacific Mall to Ayala</name>
        <description>Pacific Mall - Super metro mandaue - UN Ave. - Plaridel St. - AC Cortes Ave. - Maguikay Flyover - Hi-way - Coca Cola plant - San Miguel Plant - tipolo - Wireless - Subangdako - Mabolo - Dela Montana St. (Pope John Paul Ave.) - Cardinal Rosales Ave. - Mindanao ave. - Ayala Terminal</description>
        <styleUrl>#line-FF0000-5000</styleUrl>
        <LineString>
          <tessellate>1</tessellate>
          <coordinates>
            123.94932,10.34073,0
            123.95508,10.3387,0
            123.95249,10.33652,0
            123.95183,10.33643,0
            123.95101,10.33587,0
            123.95061,10.33537,0
            123.94909,10.33275,0
            123.94869,10.33184,0
            123.94792,10.33045,0
            123.94433,10.33271,0
            123.94217,10.33398,0
            123.94126,10.33448,0
            123.94084,10.33465,0
            123.94068,10.3348,0
            123.94003,10.33508,0
            123.939675,10.335227,0
            123.939305,10.33547,0
            123.938833,10.335829,0
            123.93849,10.336088,0
            123.938173,10.336441,0
            123.937921,10.336795,0
            123.937384,10.33757,0
            123.936376,10.339096,0
            123.936081,10.338885,0
            123.935137,10.337998,0
            123.934477,10.337127,0
            123.933286,10.33518,0
            123.934134,10.334156,0
            123.934938,10.333064,0
            123.935426,10.332188,0
            123.93128,10.32915,0
            123.93033,10.32838,0
            123.92686,10.32517,0
            123.92091,10.31995,0
            123.91914,10.31863,0
            123.91849,10.31794,0
            123.91657,10.31566,0
            123.91565,10.31473,0
            123.91475,10.31431,0
            123.91086,10.32068,0
            123.91071,10.32066,0
            123.90905,10.31961,0
            123.90794,10.31853,0
            123.90798,10.31831,0
            123.90878,10.31749,0
            123.90896,10.31723,0
            123.90901,10.31691,0
            123.90896,10.31653,0
            123.90882,10.31621,0
            123.90841,10.31577,0
            123.90811,10.31556,0
            123.90776,10.31551,0
            123.90625,10.3161,0
            123.90548,10.31629,0
            123.90437,10.31666,0
            123.90369,10.31723,0
            123.90265,10.31776,0
            123.90307,10.31859,0
            123.90348,10.31963,0
            123.90388,10.32025,0
            123.9044,10.32008,0
            123.90392,10.31881,0
            123.9038,10.31873,0
            123.90358,10.31883,0
          </coordinates>
        </LineString>
      </Placemark>
    </Folder>
  </Document>
</kml>
