<?xml version="1.0" encoding="UTF-8"?>
<kml xmlns="http://www.opengis.net/kml/2.2">
  <Document>
    <name>Cebu Jeepney Route No. 20B (odd)</name>
    <description><![CDATA[more cebu jeepneys route map at cebujeepneys.weebly.com<br><br>Ayala terminal - mabolo - subandako - wireless - tipolo - San miguel brewery plant - coca cola bottlers plant - maguikay flyover - ibabao (estancia).<br><br><br>ibabao (estancia) mandaue colliseum - sb cabahug st. - centro mandaue - gaisano grand (centro mandaue) - a. del rosario st. - guizo mandaue - caltex ( san miguel brewery) - tipolo - wireless - subandako - mabolo - cebu business park - ayala terminal.]]></description>
    <Style id="line-0000FF-5000-normal">
      <LineStyle>
        <color>ffff0000</color>
        <width>5</width>
      </LineStyle>
    </Style>
    <Style id="line-0000FF-5000-highlight">
      <LineStyle>
        <color>ffff0000</color>
        <width>7.5</width>
      </LineStyle>
    </Style>
    <StyleMap id="line-0000FF-5000">
      <Pair>
        <key>normal</key>
        <styleUrl>#line-0000FF-5000-normal</styleUrl>
      </Pair>
      <Pair>
        <key>highlight</key>
        <styleUrl>#line-0000FF-5000-highlight</styleUrl>
      </Pair>
    </StyleMap>
    <Style id="line-FF0000-5000-normal">
      <LineStyle>
        <color>ff0000ff</color>
        <width>5</width>
      </LineStyle>
    </Style>
    <Style id="line-FF0000-5000-highlight">
      <LineStyle>
        <color>ff0000ff</color>
        <width>7.5</width>
      </LineStyle>
    </Style>
    <StyleMap id="line-FF0000-5000">
      <Pair>
        <key>normal</key>
        <styleUrl>#line-FF0000-5000-normal</styleUrl>
      </Pair>
      <Pair>
        <key>highlight</key>
        <styleUrl>#line-FF0000-5000-highlight</styleUrl>
      </Pair>
    </StyleMap>
    <Folder>
      <name>Untitled layer</name>
      <Placemark>
        <name>Ayala terminal to Ibabao - Estancia</name>
        <description>Ayala terminal - mabolo - subandako - wireless - tipolo - San miguel brewery plant - coca cola bottlers plant - maguikay flyover - ibabao (estancia).</description>
        <styleUrl>#line-0000FF-5000</styleUrl>
        <LineString>
          <tessellate>1</tessellate>
          <coordinates>
            123.90359,10.31894,0
            123.90392,10.31881,0
            123.90325,10.31735,0
            123.90356,10.31717,0
            123.90418,10.3166,0
            123.90446,10.31647,0
            123.90656,10.31589,0
            123.9077,10.31539,0
            123.90813,10.31441,0
            123.9084,10.31394,0
            123.90872,10.31384,0
            123.90913,10.31395,0
            123.90948,10.31344,0
            123.90951,10.31332,0
            123.90928,10.31239,0
            123.90984,10.31191,0
            123.91579,10.31481,0
            123.91616,10.31515,0
            123.91628,10.31535,0
            123.91889,10.31835,0
            123.92084,10.31985,0
            123.92509,10.32355,0
            123.93125,10.32914,0
            123.93484,10.3317,0
            123.935464,10.332188,0
            123.935051,10.332916,0
            123.934531,10.333718,0
            123.933892,10.334552,0
            123.934005,10.334599,0
            123.934429,10.33481,0
            123.935437,10.335618,0
            123.934557,10.336869,0
            123.934343,10.336974,0
            123.935072,10.33795,0
            123.936355,10.339122,0
            123.93754,10.337312,0
            123.938318,10.336225,0
            123.938822,10.335718,0
            123.939857,10.335074,0
            123.941022,10.335892,0
            123.941064,10.335993,0
            123.94205,10.33672,0
            123.94238,10.33702,0
            123.9449,10.33873,0
            123.94517,10.33891,0
            123.94619,10.33883,0
          </coordinates>
        </LineString>
      </Placemark>
      <Placemark>
        <name>ibabao (estancia) to ayala terminal</name>
        <description>ibabao (estancia) mandaue colliseum - sb cabahug st. - centro mandaue - gaisano grand (centro mandaue) - a. del rosario st. - guizo mandaue - caltex ( san miguel brewery) - tipolo - wireless - subandako - mabolo - cebu business park - ayala terminal.</description>
        <styleUrl>#line-FF0000-5000</styleUrl>
        <LineString>
          <tessellate>1</tessellate>
          <coordinates>
            123.94619,10.33882,0
            123.94379,10.3313,0
            123.94284,10.32816,0
            123.94086,10.32917,0
            123.93994,10.32959,0
            123.93791,10.33024,0
            123.93738,10.33036,0
            123.93565,10.3305,0
            123.93528,10.33046,0
            123.9349,10.33038,0
            123.93247,10.3294,0
            123.93224,10.32986,0
            123.93127,10.32918,0
            123.93065,10.32865,0
            123.92685,10.32516,0
            123.92098,10.32001,0
            123.91912,10.31861,0
            123.91836,10.3178,0
            123.91678,10.31589,0
            123.9158,10.31485,0
            123.91562,10.31472,0
            123.91372,10.31384,0
            123.91294,10.31341,0
            123.91023,10.31218,0
            123.90987,10.31193,0
            123.90933,10.31238,0
            123.9093,10.31249,0
            123.90952,10.31332,0
            123.9095,10.31344,0
            123.90912,10.314,0
            123.90922,10.31411,0
            123.90929,10.31432,0
            123.90928,10.31473,0
            123.90917,10.31578,0
            123.9091,10.31596,0
            123.90893,10.31611,0
            123.908803,10.316207,0
            123.908637,10.316006,0
            123.908422,10.31579,0
            123.908272,10.315663,0
            123.908116,10.31559,0
            123.907741,10.315505,0
            123.907478,10.315605,0
            123.907124,10.315806,0
            123.906673,10.315985,0
            123.905718,10.316244,0
            123.904973,10.316434,0
            123.904651,10.316529,0
            123.90435,10.316656,0
            123.904002,10.316988,0
            123.903664,10.317263,0
            123.903358,10.317431,0
            123.902623,10.317775,0
            123.90295,10.31836,0
            123.903208,10.318936,0
            123.903524,10.319648,0
            123.903626,10.319711,0
            123.9039,10.320244,0
            123.904393,10.320081,0
            123.903948,10.318835,0
            123.90384,10.31879,0
            123.90355,10.31879,0
          </coordinates>
        </LineString>
      </Placemark>
    </Folder>
  </Document>
</kml>
