<?xml version="1.0" encoding="UTF-8"?>
<kml xmlns="http://www.opengis.net/kml/2.2">
  <Document>
    <name>Cebu Jeepney Route No. 21A - (even)</name>
    <description><![CDATA[More cebu jeepneys route map at cebujeepneys.weebly.com<br><br>cathedral to mandaue <br>cathedral to pacific mall <br>cathedral to sm<br>cathedral to north bus terminal <br>cathedral to centro mandaue <br>cathedral to CICC<br>Sm to mandaue<br>Sm to CICC<br>Sm to BIR <br>Sm to Pacific Mall <br>Sm to Metro Mandaue<br><br><br><br>Pacific mall to wireless<br>metro to wireless<br>pacific mall to sm <br>super metro to sm <br>super metro to pier 4<br>pacific mall to pier 4<br>mandaue to pier 4 <br>mandaue to sm <br>mandaue to north bus terminal <br>metro to cathedral <br>metro to pier 3<br>pacific mall to pier 3 <br>pacific mall to cathedral <br>sm to pier 3 <br>sm to pier 4<br>sm to cathedral]]></description>
    <Style id="line-0000FF-5000-normal">
      <LineStyle>
        <color>ffff0000</color>
        <width>5</width>
      </LineStyle>
    </Style>
    <Style id="line-0000FF-5000-highlight">
      <LineStyle>
        <color>ffff0000</color>
        <width>7.5</width>
      </LineStyle>
    </Style>
    <StyleMap id="line-0000FF-5000">
      <Pair>
        <key>normal</key>
        <styleUrl>#line-0000FF-5000-normal</styleUrl>
      </Pair>
      <Pair>
        <key>highlight</key>
        <styleUrl>#line-0000FF-5000-highlight</styleUrl>
      </Pair>
    </StyleMap>
    <Style id="line-FF0000-5000-normal">
      <LineStyle>
        <color>ff0000ff</color>
        <width>5</width>
      </LineStyle>
    </Style>
    <Style id="line-FF0000-5000-highlight">
      <LineStyle>
        <color>ff0000ff</color>
        <width>7.5</width>
      </LineStyle>
    </Style>
    <StyleMap id="line-FF0000-5000">
      <Pair>
        <key>normal</key>
        <styleUrl>#line-FF0000-5000-normal</styleUrl>
      </Pair>
      <Pair>
        <key>highlight</key>
        <styleUrl>#line-FF0000-5000-highlight</styleUrl>
      </Pair>
    </StyleMap>
    <Folder>
      <name>Walang pamagat na layer</name>
      <Placemark>
        <name>Cathedral to Pacific Mall ( Super Metro Mandaue)</name>
        <description><![CDATA[more cebu jeepney route maps at cebujeepneys.weebly.com (http://cebujeepneys.weebly.com)<br>Like us on our Facebook Page (http://www.facebook.com/cebujeepneysroutemap)<br><br>Cathedral - MJ. Cuenco Ave. - CTU - NSO - Museo Subgo - CPILS - Imus Ave. - MJ. Cuenco Ave. - Carreta Cemetery - Hipodromo - The Persimmon - Mabolo Church - Mabolo - Subandaku - Innodata - Wireless - Tipolo - CD Seno St. - AS. Fortuna St. - Guizo - Mantuyong -  Centro Mandaue - Sosyoland supermarket - Colonnade Supermarket - New Mandaue Public Market - BIR -  Bureau of Immigration - Mandaue City Hall - St Joseph Parish - SB. Cabahug St. - Mandaue Coliseum - Esrancia - Pacific Mall - Super Metro Mandaue - DFA.]]></description>
        <styleUrl>#line-0000FF-5000</styleUrl>
        <LineString>
          <tessellate>1</tessellate>
          <coordinates>
            123.90377,10.29563,0
            123.90522,10.29489,0
            123.90549,10.29564,0
            123.90595,10.2976,0
            123.90644,10.30029,0
            123.90658,10.30132,0
            123.90659,10.30192,0
            123.9065,10.30282,0
            123.9062,10.30465,0
            123.90609,10.30571,0
            123.90611,10.30622,0
            123.90609,10.30633,0
            123.90562,10.30666,0
            123.90775,10.30937,0
            123.90775,10.30944,0
            123.90849,10.3105,0
            123.9091,10.31118,0
            123.90985,10.31189,0
            123.91006,10.31204,0
            123.91578,10.31479,0
            123.91609,10.31508,0
            123.91883,10.31831,0
            123.92095,10.31998,0
            123.92587,10.32425,0
            123.93052,10.32854,0
            123.93073,10.32869,0
            123.93147,10.32895,0
            123.93268,10.32947,0
            123.93473,10.32665,0
            123.93567,10.32739,0
            123.93624,10.32752,0
            123.93654,10.32745,0
            123.93677,10.32808,0
            123.93745,10.32948,0
            123.93767,10.33028,0
            123.93992,10.32959,0
            123.94031,10.32944,0
            123.94145,10.32886,0
            123.94138,10.32881,0
            123.9409,10.32735,0
            123.94055,10.3266,0
            123.94023,10.32611,0
            123.93984,10.32602,0
            123.93952,10.32543,0
            123.93808,10.3259,0
            123.93789,10.32592,0
            123.938,10.32574,0
            123.94098,10.32467,0
            123.94045,10.32387,0
            123.94037,10.32368,0
            123.9406,10.32356,0
            123.94,10.32262,0
            123.94103,10.32202,0
            123.94253,10.32403,0
            123.9427,10.32432,0
            123.942861,10.324641,0
            123.942984,10.324968,0
            123.943553,10.326266,0
            123.942855,10.326551,0
            123.942367,10.326746,0
            123.942437,10.326878,0
            123.942603,10.326979,0
            123.942737,10.327053,0
            123.942796,10.327126,0
            123.94285,10.327211,0
            123.94285,10.327285,0
            123.942812,10.327401,0
            123.94278,10.327575,0
            123.942737,10.327691,0
            123.942753,10.327876,0
            123.942839,10.328145,0
            123.943043,10.328799,0
            123.943226,10.329385,0
            123.943435,10.330092,0
            123.94373,10.331058,0
            123.943859,10.331443,0
            123.944105,10.332193,0
            123.944288,10.332742,0
            123.944492,10.333454,0
            123.944738,10.334277,0
            123.944948,10.334932,0
            123.945597,10.336932,0
            123.945795,10.337586,0
            123.946171,10.338842,0
            123.946364,10.339454,0
            123.946487,10.339898,0
            123.946519,10.340146,0
            123.946621,10.340315,0
            123.946686,10.340315,0
            123.9469,10.340573,0
            123.947007,10.34071,0
            123.947206,10.341048,0
            123.947302,10.341222,0
            123.947399,10.341317,0
            123.947522,10.341344,0
            123.9483,10.341085,0
            123.948681,10.340953,0
          </coordinates>
        </LineString>
      </Placemark>
      <Placemark>
        <name>Pacific Mall to Cathedral</name>
        <description><![CDATA[more cebu jeepneys route map at cebujeepneys.weebly.com (http://cebujeepneys.weebly.com)<br>Like us on our Facebook Page (http://www.facebook.com/cebujeepneysroutemap)<br><br>Pacific Mall (super Metro Mandaue) - UN ave. - Plaridel St. - AC. Cortes ave. - Prince Warehouse Mandaue - Cebu Coliseum - Maguikay Flyover - MC. Briones hi-way - Coca cola Bottlers Plant - San Miguel Brewery Plant - Tipolo - Wireless - Albano St. - M. Logarta Ave. - Cebu Noth Bus Terminal - SM Hypermarket - Sm City Cebu - A. Soriano Ave. - White Gold Club - G. Gasiano St. - T. Padilla St. - Pier 4 - Sergio Osmena Blvd. - V. Sotto St. - CTU - V. Gullas St.   - P. Burgos St. - Cathedral .]]></description>
        <styleUrl>#line-FF0000-5000</styleUrl>
        <LineString>
          <tessellate>1</tessellate>
          <coordinates>
            123.94867,10.34094,0
            123.95506,10.3387,0
            123.9525,10.33648,0
            123.95186,10.33643,0
            123.95102,10.33585,0
            123.95088,10.33569,0
            123.95058,10.33532,0
            123.9491,10.33275,0
            123.9487,10.33185,0
            123.94789,10.33046,0
            123.94411,10.33284,0
            123.94187,10.33415,0
            123.94132,10.33445,0
            123.94081,10.33465,0
            123.9408,10.33472,0
            123.9397,10.33522,0
            123.938752,10.335887,0
            123.938388,10.33623,0
            123.938103,10.336626,0
            123.936891,10.338394,0
            123.936349,10.339175,0
            123.936081,10.338943,0
            123.93504,10.33799,0
            123.93445,10.33718,0
            123.93325,10.33521,0
            123.93387,10.3345,0
            123.93472,10.33334,0
            123.93545,10.33215,0
            123.93063,10.32864,0
            123.92831,10.32648,0
            123.92351,10.32218,0
            123.92588,10.31943,0
            123.92528,10.31761,0
            123.92493,10.31685,0
            123.92453,10.31616,0
            123.92366,10.31504,0
            123.9223,10.31349,0
            123.92158,10.31284,0
            123.92117,10.31333,0
            123.92055,10.3139,0
            123.91989,10.31415,0
            123.91868,10.31437,0
            123.91811,10.31395,0
            123.91786,10.31364,0
            123.91763,10.31351,0
            123.91631,10.31241,0
            123.91617,10.31238,0
            123.91381,10.31048,0
            123.90989,10.3072,0
            123.90993,10.30705,0
            123.91035,10.3065,0
            123.90984,10.30604,0
            123.90953,10.30566,0
            123.90941,10.30548,0
            123.90922,10.30488,0
            123.90974,10.30446,0
            123.90908,10.30246,0
            123.90904,10.30193,0
            123.90998,10.30185,0
            123.91028,10.30168,0
            123.9099,10.30119,0
            123.90842,10.29847,0
            123.9077,10.29852,0
            123.90623,10.29832,0
            123.90608,10.29836,0
            123.9057,10.29648,0
            123.90551,10.29661,0
            123.90443,10.29704,0
            123.90376,10.29565,0
          </coordinates>
        </LineString>
      </Placemark>
    </Folder>
  </Document>
</kml>
