<?xml version="1.0" encoding="UTF-8"?>
<kml xmlns="http://www.opengis.net/kml/2.2">
  <Document>
    <name>Cebu Jeepney Route Map No. 21D (even)</name>
    <description><![CDATA[MORE CEBU JEEPNEYS ROUTE MAP AT cebujeepneys.weebly.com<br><br>cathedral - plaza independencia - pier 3 - pier 4 - t. padilla st. - b. benedicto st. - white gold house - a. soriano ave. - white gold club - queen city memorial garden - sm city cebu - sm hypermarket - aboitiz football field - cebu north bus termina - M. Logarta ave. - wireless  - tipolo - san miguel brewery - parkmall - CICC -  guizo - uwell - centro mandaue - sioland supermarket - colonnade supermarket - new mandaue public market - bureau of immigration - pj burgos st. - mandaue city hall - st. joseph parish - s.b. cabahug st. - mandaue coliseum - brgy estancia - pacific mall - super metro mandaue.<br><br>pacific mall - metro mandaue - hiland - plaridel st. - maguikay flyover - hi way - san miguel brewery - tipolo - wireless - subangdako - mabolo - hipodromo - mj. cuenco ave. - NSO - CITU - cebu metropolitan cathedral.]]></description>
    <Style id="line-0000FF-5000-normal">
      <LineStyle>
        <color>ffff0000</color>
        <width>5</width>
      </LineStyle>
    </Style>
    <Style id="line-0000FF-5000-highlight">
      <LineStyle>
        <color>ffff0000</color>
        <width>7.5</width>
      </LineStyle>
    </Style>
    <StyleMap id="line-0000FF-5000">
      <Pair>
        <key>normal</key>
        <styleUrl>#line-0000FF-5000-normal</styleUrl>
      </Pair>
      <Pair>
        <key>highlight</key>
        <styleUrl>#line-0000FF-5000-highlight</styleUrl>
      </Pair>
    </StyleMap>
    <Style id="line-FF0000-5000-normal">
      <LineStyle>
        <color>ff0000ff</color>
        <width>5</width>
      </LineStyle>
    </Style>
    <Style id="line-FF0000-5000-highlight">
      <LineStyle>
        <color>ff0000ff</color>
        <width>7.5</width>
      </LineStyle>
    </Style>
    <StyleMap id="line-FF0000-5000">
      <Pair>
        <key>normal</key>
        <styleUrl>#line-FF0000-5000-normal</styleUrl>
      </Pair>
      <Pair>
        <key>highlight</key>
        <styleUrl>#line-FF0000-5000-highlight</styleUrl>
      </Pair>
    </StyleMap>
    <Folder>
      <name>Walang pamagat na layer</name>
      <Placemark>
        <name>Cathedral to ibabao (estancia) , super metro mandaue.</name>
        <description>cathedral - plaza independencia - pier 3 - pier 4 - t. padilla st. - b. benedicto st. - white gold house - a. soriano ave. - white gold club - queen city memorial garden - sm city cebu - sm hypermarket - aboitiz football field - cebu north bus termina - M. Logarta ave. - wireless  - tipolo - san miguel brewery - parkmall - CICC -  guizo - uwell - centro mandaue - sioland supermarket - colonnade supermarket - new mandaue public market - bureau of immigration - pj burgos st. - mandaue city hall - st. joseph parish - s.b. cabahug st. - mandaue coliseum - brgy estancia - pacific mall - super metro mandaue</description>
        <styleUrl>#line-0000FF-5000</styleUrl>
        <LineString>
          <tessellate>1</tessellate>
          <coordinates>
            123.903776,10.29566,0
            123.904092,10.295465,0
            123.904505,10.295254,0
            123.905229,10.294884,0
            123.905111,10.294478,0
            123.905042,10.29433,0
            123.906125,10.293776,0
            123.906211,10.293934,0
            123.906554,10.294568,0
            123.907021,10.295502,0
            123.907268,10.295966,0
            123.907348,10.296225,0
            123.907826,10.297149,0
            123.908571,10.298442,0
            123.909532,10.300236,0
            123.909811,10.300769,0
            123.910079,10.301181,0
            123.910385,10.301582,0
            123.910283,10.301672,0
            123.910175,10.301777,0
            123.909961,10.301872,0
            123.909049,10.30192,0
            123.909027,10.302147,0
            123.909076,10.302443,0
            123.909253,10.302918,0
            123.909467,10.303546,0
            123.909752,10.30449,0
            123.909843,10.304844,0
            123.910057,10.305092,0
            123.910771,10.305609,0
            123.911023,10.305805,0
            123.910159,10.306913,0
            123.909972,10.307124,0
            123.911007,10.308005,0
            123.912187,10.308987,0
            123.913823,10.310322,0
            123.91525,10.311478,0
            123.916248,10.312286,0
            123.916344,10.312444,0
            123.917042,10.312993,0
            123.917385,10.313315,0
            123.917621,10.313515,0
            123.917863,10.313647,0
            123.918056,10.313932,0
            123.918292,10.314101,0
            123.918528,10.314291,0
            123.91871,10.314376,0
            123.919381,10.314275,0
            123.919869,10.31417,0
            123.920271,10.314043,0
            123.92055,10.313917,0
            123.920829,10.313695,0
            123.921129,10.313394,0
            123.921591,10.312845,0
            123.921993,10.313193,0
            123.922267,10.313447,0
            123.922615,10.31379,0
            123.922857,10.314096,0
            123.923109,10.314392,0
            123.924075,10.315584,0
            123.924541,10.316186,0
            123.924809,10.316608,0
            123.924949,10.316893,0
            123.925169,10.317342,0
            123.925405,10.317917,0
            123.925582,10.31854,0
            123.925866,10.319453,0
            123.92599,10.319754,0
            123.926022,10.320118,0
            123.926027,10.320434,0
            123.926033,10.320572,0
            123.925925,10.32102,0
            123.925759,10.321369,0
            123.925738,10.32158,0
            123.925362,10.322118,0
            123.924595,10.323147,0
            123.925115,10.323606,0
            123.92548,10.323912,0
            123.926151,10.32453,0
            123.926821,10.32511,0
            123.927052,10.325327,0
            123.928312,10.326477,0
            123.929718,10.327786,0
            123.93063,10.328636,0
            123.930791,10.32872,0
            123.931998,10.329174,0
            123.932507,10.329401,0
            123.93269,10.32947,0
            123.933108,10.328863,0
            123.933532,10.328282,0
            123.934095,10.327512,0
            123.934648,10.326783,0
            123.934734,10.326651,0
            123.935388,10.327169,0
            123.935656,10.327396,0
            123.935812,10.327438,0
            123.935984,10.327501,0
            123.936252,10.327538,0
            123.936525,10.327464,0
            123.936595,10.327617,0
            123.936976,10.328493,0
            123.937196,10.328989,0
            123.937298,10.329121,0
            123.937448,10.329459,0
            123.937588,10.329813,0
            123.937673,10.330277,0
            123.937947,10.330219,0
            123.939315,10.329781,0
            123.939937,10.329596,0
            123.940565,10.329322,0
            123.941445,10.328873,0
            123.941332,10.328657,0
            123.94115,10.328061,0
            123.940913,10.327359,0
            123.940849,10.327121,0
            123.940667,10.326762,0
            123.940495,10.326488,0
            123.940356,10.326256,0
            123.940211,10.326103,0
            123.939975,10.326039,0
            123.93983,10.326018,0
            123.939546,10.325448,0
            123.939052,10.325575,0
            123.938124,10.325886,0
            123.937866,10.325934,0
            123.938006,10.32576,0
            123.938811,10.325443,0
            123.939996,10.325026,0
            123.940972,10.324683,0
            123.94138,10.324525,0
            123.94115,10.324382,0
            123.940613,10.32358,0
            123.940066,10.322735,0
            123.940012,10.322598,0
            123.941031,10.322007,0
            123.941707,10.322931,0
            123.942217,10.323617,0
            123.942555,10.324071,0
            123.942743,10.324398,0
            123.942989,10.324963,0
            123.943381,10.325807,0
            123.943558,10.326261,0
            123.942855,10.326551,0
            123.942362,10.326757,0
            123.942432,10.326878,0
            123.942614,10.326994,0
            123.942743,10.327053,0
            123.942802,10.327116,0
            123.94285,10.327221,0
            123.942839,10.327306,0
            123.942737,10.327665,0
            123.94277,10.327876,0
            123.94285,10.328161,0
            123.943081,10.328868,0
            123.943188,10.329248,0
            123.94337,10.329892,0
            123.943488,10.330256,0
            123.943837,10.331406,0
            123.944078,10.332108,0
            123.944266,10.332736,0
            123.944475,10.33338,0
            123.944701,10.334098,0
            123.944883,10.33471,0
            123.945194,10.335723,0
            123.945586,10.336964,0
            123.945843,10.33776,0
            123.946069,10.338462,0
            123.946181,10.338842,0
            123.946348,10.339396,0
            123.946492,10.34004,0
            123.946546,10.340162,0
            123.946605,10.340278,0
            123.94668,10.340309,0
            123.946954,10.340642,0
            123.947136,10.340943,0
            123.947313,10.341207,0
            123.947383,10.341307,0
            123.947581,10.341344,0
            123.948268,10.341106,0
            123.948971,10.340853,0
          </coordinates>
        </LineString>
      </Placemark>
      <Placemark>
        <name>super metro mandaue to metropolitan cathedral </name>
        <description>pacific mall - super metro mandaue - un. avenue - hi-land - plaridel st. - total gas station - a.c. cortez st. - prince warehouse club mandaue - mandaue coliseum - maguikay flyover - hi-way - coca-cola bottlers plant - san miguel brewery plant - tipolo - wireless - subangdako - andoks mabolo - mabolo church - hipodromo - m.j. cuenco ave. - imus ave. - m.j. cuenco ave. - CPILS - cor. t. padilla st. - brgy tejero -  NSO - CITU - cebu metropolitan cathedral.</description>
        <styleUrl>#line-FF0000-5000</styleUrl>
        <LineString>
          <tessellate>1</tessellate>
          <coordinates>
            123.949,10.34084,0
            123.95022,10.34045,0
            123.95509,10.3387,0
            123.95254,10.33651,0
            123.95238,10.33646,0
            123.95184,10.33642,0
            123.95087,10.3357,0
            123.95058,10.33532,0
            123.9491,10.33275,0
            123.94854,10.33155,0
            123.9479,10.33044,0
            123.94411,10.33283,0
            123.94167,10.33426,0
            123.94082,10.33464,0
            123.9408,10.33472,0
            123.93987,10.33513,0
            123.939686,10.335233,0
            123.938779,10.335882,0
            123.938382,10.336256,0
            123.938109,10.336562,0
            123.937712,10.337212,0
            123.937288,10.33785,0
            123.936971,10.338272,0
            123.936371,10.33918,0
            123.936043,10.338943,0
            123.935115,10.338067,0
            123.934413,10.337138,0
            123.934198,10.336779,0
            123.933254,10.335211,0
            123.933876,10.334473,0
            123.934466,10.333739,0
            123.934928,10.333085,0
            123.935421,10.332182,0
            123.93055,10.3286,0
            123.92759,10.32584,0
            123.92465,10.3232,0
            123.92076,10.3198,0
            123.91917,10.3186,0
            123.91826,10.31765,0
            123.91631,10.31535,0
            123.91576,10.3148,0
            123.91292,10.31337,0
            123.91014,10.31208,0
            123.90939,10.31149,0
            123.90866,10.31072,0
            123.90773,10.30943,0
            123.90707,10.30872,0
            123.90551,10.30676,0
            123.90562,10.30663,0
            123.90609,10.30633,0
            123.90616,10.30495,0
            123.90659,10.30194,0
            123.90658,10.30132,0
            123.90644,10.30027,0
            123.90594,10.29759,0
            123.90569,10.29647,0
            123.90551,10.29661,0
            123.90444,10.29704,0
            123.90378,10.29569,0
          </coordinates>
        </LineString>
      </Placemark>
    </Folder>
  </Document>
</kml>
