<?xml version="1.0" encoding="UTF-8"?>
<kml xmlns="http://www.opengis.net/kml/2.2">
  <Document>
    <name>Cebu Jeepney Route No. 22A </name>
    <description><![CDATA[CATHEDRAL TO OUANO (MANDAUE) <br><br>Cathedral to mandaue<br>cathedral to ouano mandaue<br>cathedral to mabolo <br>cathedral to hiway <br>cathedral to merkado <br>cathedral to Bir mandaue<br>cebu city to mabolo<br>cebu city to mandaue city<br>mabolo to merkado <br>mabolo to new public market <br>mabolo to ouano<br>mandaue to ouano<br>mandaue public market to ouano.<br><br>OUANO TO CATHEDRAL<br><br>ouano to sm<br>ouano to pier 4<br>ouano to pier 3<br>mandaue to sm<br>mandaue to pier 3<br>mandaue to pier 4<br>mandaue to cathedral<br>sm to pier 3<br>sm to pier 4<br>sm to cathedral<br><br>]]></description>
    <Style id="line-0000FF-5000-normal">
      <LineStyle>
        <color>ffff0000</color>
        <width>5</width>
      </LineStyle>
    </Style>
    <Style id="line-0000FF-5000-highlight">
      <LineStyle>
        <color>ffff0000</color>
        <width>7.5</width>
      </LineStyle>
    </Style>
    <StyleMap id="line-0000FF-5000">
      <Pair>
        <key>normal</key>
        <styleUrl>#line-0000FF-5000-normal</styleUrl>
      </Pair>
      <Pair>
        <key>highlight</key>
        <styleUrl>#line-0000FF-5000-highlight</styleUrl>
      </Pair>
    </StyleMap>
    <Style id="line-33FF33-5000-normal">
      <LineStyle>
        <color>ff33ff33</color>
        <width>5</width>
      </LineStyle>
    </Style>
    <Style id="line-33FF33-5000-highlight">
      <LineStyle>
        <color>ff33ff33</color>
        <width>7.5</width>
      </LineStyle>
    </Style>
    <StyleMap id="line-33FF33-5000">
      <Pair>
        <key>normal</key>
        <styleUrl>#line-33FF33-5000-normal</styleUrl>
      </Pair>
      <Pair>
        <key>highlight</key>
        <styleUrl>#line-33FF33-5000-highlight</styleUrl>
      </Pair>
    </StyleMap>
    <Folder>
      <name>Untitled layer</name>
      <Placemark>
        <name>Cathedral to Ouano (Mandaue)</name>
        <description><![CDATA[more cebu jeepneys route map at cebujeepneys.weebly.com (http://cebujeepneys.weebly.com)<br><br> <br>Cathedral - F. Urdaneta St. - MJ. Cuenco Ave. - CTU - NSO - CPILS - Museo Sugbo - DSWD - Carreta Cemetery - Hipodromo - The Persimmon - Mabolo - Lopez Jaena St. - Subangdako - Wireless - Tipolo - A. del Rosario St. -  San Miguel Brewery Plant - C.D. Seno St. - W.O. Seno St. - Parkmall - CICC - As. Fortuna St. ext. - A. del Rosario St. - Mantuyong - Centro Mandaue - Sosyoland Supermarket - Colonnade Supermarket - Ouano Ave. - A.Soriano Ave. - New Mandaue Public Market - BIR Mandaue - A. Soriano Ave. - JL. Briones St - A. Mabini St. - Ouano.]]></description>
        <styleUrl>#line-0000FF-5000</styleUrl>
        <LineString>
          <tessellate>1</tessellate>
          <coordinates>
            123.903776,10.295655,0
            123.904088,10.29547,0
            123.904517,10.295254,0
            123.905241,10.294879,0
            123.905512,10.295637,0
            123.905716,10.296457,0
            123.905791,10.296763,0
            123.905847,10.297043,0
            123.905957,10.297608,0
            123.906083,10.298394,0
            123.906282,10.299935,0
            123.906335,10.300284,0
            123.906507,10.301324,0
            123.90655,10.301909,0
            123.906421,10.302891,0
            123.906319,10.303456,0
            123.906126,10.304638,0
            123.90611,10.30495,0
            123.906083,10.305715,0
            123.906126,10.306195,0
            123.906099,10.306348,0
            123.906271,10.306976,0
            123.906405,10.307314,0
            123.90685,10.308058,0
            123.906893,10.308301,0
            123.907269,10.308781,0
            123.907735,10.309393,0
            123.907757,10.309478,0
            123.908336,10.310275,0
            123.908669,10.310702,0
            123.90927,10.311336,0
            123.909865,10.31189,0
            123.910123,10.31208,0
            123.910562,10.312296,0
            123.910788,10.312386,0
            123.911474,10.312718,0
            123.912166,10.31303,0
            123.912917,10.313378,0
            123.913717,10.313795,0
            123.914672,10.314233,0
            123.915176,10.314487,0
            123.915761,10.314798,0
            123.916109,10.315115,0
            123.916329,10.315357,0
            123.916571,10.315674,0
            123.917246,10.31646,0
            123.918266,10.317658,0
            123.918808,10.318281,0
            123.919033,10.318476,0
            123.919183,10.318619,0
            123.919902,10.319163,0
            123.920315,10.319479,0
            123.920723,10.31978,0
            123.921404,10.320382,0
            123.922187,10.321062,0
            123.922734,10.321537,0
            123.923544,10.322213,0
            123.924601,10.323158,0
            123.925728,10.324145,0
            123.927069,10.325343,0
            123.928265,10.326493,0
            123.929375,10.327464,0
            123.930293,10.328388,0
            123.930722,10.328731,0
            123.931146,10.328857,0
            123.931489,10.328984,0
            123.93195,10.32919,0
            123.932264,10.329298,0
            123.932548,10.329414,0
            123.932629,10.329446,0
            123.932911,10.329034,0
            123.933511,10.328208,0
            123.934005,10.327506,0
            123.9346,10.326773,0
            123.934697,10.326715,0
            123.93522,10.327132,0
            123.935389,10.327287,0
            123.93555,10.327396,0
            123.935722,10.327469,0
            123.936161,10.327551,0
            123.936438,10.327498,0
            123.936532,10.327586,0
            123.936751,10.328108,0
            123.936998,10.328694,0
            123.937269,10.329195,0
            123.937462,10.329726,0
            123.937653,10.330272,0
            123.938401,10.330077,0
            123.938683,10.329984,0
            123.938962,10.329889,0
            123.939141,10.329826,0
            123.939345,10.329741,0
            123.939935,10.329565,0
            123.940469,10.32938,0
            123.941456,10.328868,0
            123.941381,10.328815,0
            123.941284,10.328509,0
            123.940925,10.327369,0
            123.940759,10.326963,0
            123.94056,10.32662,0
            123.940378,10.326293,0
            123.940217,10.326113,0
            123.939954,10.326034,0
            123.939836,10.326029,0
            123.939536,10.325438,0
            123.93805,10.325897,0
            123.937867,10.325955,0
            123.938012,10.325749,0
            123.938795,10.325459,0
            123.939407,10.325242,0
            123.940995,10.324672,0
            123.940372,10.323707,0
            123.940614,10.323575,0
            123.940013,10.322614,0
            123.941038,10.322018,0
            123.941708,10.322941,0
            123.942561,10.324092,0
            123.943393,10.323691,0
            123.943575,10.323707,0
            123.944154,10.324556,0
            123.944782,10.325453,0
            123.945294,10.326195,0
            123.945632,10.3261,0
            123.946488,10.325773,0
            123.94762,10.325322,0
            123.94821,10.325092,0
            123.9488,10.324865,0
            123.949296,10.32468,0
            123.94979,10.324493,0
            123.950141,10.324358,0
            123.950484,10.324224,0
          </coordinates>
        </LineString>
      </Placemark>
      <Placemark>
        <name>Ouano to Cathedral</name>
        <description><![CDATA[more cebu jeepneys route map at cebujeepneys.weebly.com (http://cebujeepneys.weebly.com)<br><br> <br>Ouano - Mandaue City Hall - Gaisano Grand (Mandaue) - A. del Rosario St. - Mantuyong - Guizo - San Miguel Brewery Plant - Tipolo - Wireless - Subangdako - Albano St. - Cebu North Bus Terminal - Aboitiz Football Field - SM Hypermarket - APM - Sm City Cebu - A. Soriano Ave. - Queen City Memorial Garden - White Gold Club - White Gold House - G. Gaisano St - B. Benedicto St. - T. Padilla St. - S. Osmena Blvd. - Pier 4 - Pier 3 - V. Sotto St. - Mj. Cuenco Ave. - CTU - V. Gullas St. - P. Burgos ST. - Plaza Humabon - Cathedral.]]></description>
        <styleUrl>#line-33FF33-5000</styleUrl>
        <LineString>
          <tessellate>1</tessellate>
          <coordinates>
            123.950492,10.324258,0
            123.949468,10.324662,0
            123.948789,10.32492,0
            123.947649,10.325356,0
            123.946474,10.325828,0
            123.945879,10.32605,0
            123.945581,10.326163,0
            123.945284,10.32624,0
            123.944455,10.326575,0
            123.943768,10.326852,0
            123.943092,10.327105,0
            123.942848,10.327211,0
            123.942854,10.327298,0
            123.942795,10.327512,0
            123.942765,10.327704,0
            123.942776,10.327884,0
            123.942845,10.328158,0
            123.941931,10.328609,0
            123.941561,10.328815,0
            123.941475,10.328881,0
            123.941067,10.32909,0
            123.940643,10.329303,0
            123.940413,10.329419,0
            123.940118,10.329551,0
            123.939927,10.329623,0
            123.939334,10.329794,0
            123.938943,10.329945,0
            123.938114,10.330203,0
            123.937344,10.330372,0
            123.936583,10.330441,0
            123.936175,10.330483,0
            123.935877,10.330507,0
            123.935727,10.330522,0
            123.935292,10.33047,0
            123.934941,10.33043,0
            123.934598,10.330314,0
            123.934214,10.330121,0
            123.933884,10.329992,0
            123.93357,10.329876,0
            123.932838,10.329578,0
            123.932436,10.329412,0
            123.932227,10.329842,0
            123.931282,10.329171,0
            123.930572,10.328649,0
            123.930228,10.328356,0
            123.929915,10.328045,0
            123.929378,10.327498,0
            123.928812,10.327,0
            123.928249,10.326506,0
            123.927712,10.325986,0
            123.927281,10.325577,0
            123.926843,10.325174,0
            123.926398,10.324765,0
            123.925958,10.324372,0
            123.925341,10.323823,0
            123.924577,10.323174,0
            123.923963,10.322633,0
            123.923512,10.322216,0
            123.923735,10.321944,0
            123.924285,10.321279,0
            123.924952,10.32045,0
            123.925628,10.319722,0
            123.925878,10.319429,0
            123.925438,10.318075,0
            123.925309,10.317706,0
            123.924944,10.316914,0
            123.924542,10.31617,0
            123.924049,10.315558,0
            123.923582,10.31494,0
            123.923212,10.314518,0
            123.922745,10.313964,0
            123.922493,10.313663,0
            123.921597,10.312856,0
            123.921168,10.313357,0
            123.920932,10.3136,0
            123.920814,10.313705,0
            123.920567,10.313906,0
            123.920256,10.314038,0
            123.919644,10.314233,0
            123.918706,10.314386,0
            123.918491,10.314265,0
            123.918078,10.313943,0
            123.917869,10.313663,0
            123.917601,10.313505,0
            123.916957,10.31294,0
            123.916286,10.312402,0
            123.916163,10.312375,0
            123.914924,10.311388,0
            123.913593,10.310317,0
            123.912327,10.309256,0
            123.910627,10.307868,0
            123.909897,10.307208,0
            123.909935,10.30704,0
            123.910369,10.306491,0
            123.909876,10.306068,0
            123.909484,10.305599,0
            123.909409,10.305461,0
            123.909318,10.30515,0
            123.9092,10.304881,0
            123.909747,10.304464,0
            123.909479,10.303556,0
            123.909253,10.302944,0
            123.909076,10.302443,0
            123.909028,10.302173,0
            123.90905,10.301941,0
            123.909988,10.301862,0
            123.910149,10.301788,0
            123.910289,10.301667,0
            123.909919,10.301192,0
            123.909076,10.299693,0
            123.908427,10.2985,0
            123.907725,10.298526,0
            123.907215,10.298484,0
            123.906212,10.298336,0
            123.906054,10.298376,0
            123.90597,10.297909,0
            123.90586,10.297386,0
            123.905764,10.29685,0
            123.905678,10.296505,0
            123.905509,10.296605,0
            123.905227,10.296721,0
            123.904865,10.296898,0
            123.904428,10.297062,0
            123.904297,10.296737,0
            123.904042,10.296249,0
            123.903768,10.295671,0
          </coordinates>
        </LineString>
      </Placemark>
    </Folder>
  </Document>
</kml>
