<?xml version="1.0" encoding="UTF-8"?>
<kml xmlns="http://www.opengis.net/kml/2.2">
  <Document>
    <name>Cebu Jeepneys Route No. 22D</name>
    <description><![CDATA[Cathedral to Mandaue (ouano)<br><br>Cathedral to Sm <br>cathedral to wireless<br>cathedral to mandaue<br>cathedral to centro mandaue<br>cathedral to mandaue public market<br>cathedral to ouano<br>sm to mandaue<br>sm to ouano<br>sm to BIR mandaue<br>sm to new Mandaue public Market <br><br><br>Mandaue(ouano) to Cathedral<br><br>ouano to mabolo<br>mandaue to mabolo<br>ouano to cathedral<br>ouano to nso<br>ouano to cebu technological university<br>mandaue to innodata<br>mandaue to persimmon<br>mandaue to cathedral<br>mandaue to ctu<br>mandaue to nso<br>mabolo to cathedral<br>mabolo to ctu<br>]]></description>
    <Style id="line-0000FF-5000-normal">
      <LineStyle>
        <color>ffff0000</color>
        <width>5</width>
      </LineStyle>
    </Style>
    <Style id="line-0000FF-5000-highlight">
      <LineStyle>
        <color>ffff0000</color>
        <width>7.5</width>
      </LineStyle>
    </Style>
    <StyleMap id="line-0000FF-5000">
      <Pair>
        <key>normal</key>
        <styleUrl>#line-0000FF-5000-normal</styleUrl>
      </Pair>
      <Pair>
        <key>highlight</key>
        <styleUrl>#line-0000FF-5000-highlight</styleUrl>
      </Pair>
    </StyleMap>
    <Style id="line-33FF33-5000-normal">
      <LineStyle>
        <color>ff33ff33</color>
        <width>5</width>
      </LineStyle>
    </Style>
    <Style id="line-33FF33-5000-highlight">
      <LineStyle>
        <color>ff33ff33</color>
        <width>7.5</width>
      </LineStyle>
    </Style>
    <StyleMap id="line-33FF33-5000">
      <Pair>
        <key>normal</key>
        <styleUrl>#line-33FF33-5000-normal</styleUrl>
      </Pair>
      <Pair>
        <key>highlight</key>
        <styleUrl>#line-33FF33-5000-highlight</styleUrl>
      </Pair>
    </StyleMap>
    <Folder>
      <name>Untitled layer</name>
      <Placemark>
        <name>Cathedral to Ouano (mandaue)</name>
        <description><![CDATA[more cebu jeepneys route map at cebujeepneys.weebly.com (http://cebujeepneys.weebly.com)<br><br> <br>Cathedral to Mandaue (ouano)<br><br> <br>Cathedral - F. Urdaneta St. - Plaza Independencia - Legaspi Ext. - S. Osmena Blvd. - Pier 3 - Pier 4 - 13th Ave. - B. Benedicto St. - Gen. Maxilom Ave. Ext. - A. Soriano Ave. - White Gold Club - Queen City Memorial Gardens - Sm City Cebu - F. Cabahug St. - M. Logarta St. - Sm Hypermarket - M. Logarta Ave. - Aboitiz Football Field - Cebu North Bus Terminal - Wireless Flyover - Lopez jaena St. - Tipolo - San Miguel Brewery Plant - A. del Rosario St. - C.D. Seno St. -Parkmall - CICC - W.O. Seno St. - A.S Fortuna St. Ext. - A. del Rosario St. - Uwell - Mantuyong - Sosyoland Supermarket - Colonnade Supermarket - A. Soriano Ave. - New Public Market - A. Mabini St. - Ouano.]]></description>
        <styleUrl>#line-0000FF-5000</styleUrl>
        <LineString>
          <tessellate>1</tessellate>
          <coordinates>
            123.90376,10.29565,0
            123.90524,10.29489,0
            123.905407,10.295296,0
            123.905541,10.295724,0
            123.905793,10.296684,0
            123.906105,10.298368,0
            123.906322,10.299914,0
            123.906394,10.300284,0
            123.90655,10.301329,0
            123.906587,10.30192,0
            123.906303,10.303809,0
            123.906147,10.304939,0
            123.906137,10.306338,0
            123.906308,10.306997,0
            123.906544,10.307472,0
            123.906861,10.308053,0
            123.906915,10.308253,0
            123.907236,10.308692,0
            123.909897,10.307045,0
            123.90998,10.3071,0
            123.91005,10.3072,0
            123.91622,10.31227,0
            123.91633,10.31242,0
            123.91763,10.31352,0
            123.91786,10.31365,0
            123.91806,10.31393,0
            123.9187,10.31438,0
            123.91957,10.31424,0
            123.92024,10.31405,0
            123.92054,10.31391,0
            123.92084,10.31367,0
            123.92159,10.31284,0
            123.92255,10.31373,0
            123.92408,10.31558,0
            123.92453,10.31617,0
            123.92494,10.3169,0
            123.9254,10.31793,0
            123.926,10.3198,0
            123.92601,10.32059,0
            123.92592,10.32109,0
            123.92574,10.32137,0
            123.92573,10.32156,0
            123.92462,10.32314,0
            123.92706,10.32531,0
            123.93069,10.32869,0
            123.93264,10.32946,0
            123.93401,10.3275,0
            123.93466,10.32667,0
            123.93558,10.32741,0
            123.93618,10.32754,0
            123.93649,10.32748,0
            123.93735,10.32939,0
            123.93765,10.33027,0
            123.93993,10.32957,0
            123.94142,10.32887,0
            123.94135,10.32882,0
            123.94092,10.32733,0
            123.94072,10.32686,0
            123.94023,10.32612,0
            123.93985,10.32602,0
            123.93954,10.32544,0
            123.93788,10.32593,0
            123.93803,10.32575,0
            123.94136,10.32453,0
            123.94117,10.32438,0
            123.94001,10.32261,0
            123.94103,10.32201,0
            123.94255,10.32406,0
            123.94346,10.32365,0
            123.94359,10.32372,0
            123.94528,10.3262,0
            123.95049,10.32422,0
          </coordinates>
        </LineString>
      </Placemark>
      <Placemark>
        <name>Mandaue(ouano) to Cathedral </name>
        <description><![CDATA[more cebu jeepneys route map at cebujeepneys.weebly.com (http://cebujeepneys.weebly.com)<br><br> <br>Mandaue (ouano) to Cathedral <br><br> <br>Ouano - A. Mabini St. - P.J. Burgos St. - Mandaue City Hall - Gaisano Grand Mandaue - A. del Rosario St - Mantuyong - Guizo - San Miguel Brewery Plant - MC. Briones St. - L. Jaena St. - Tipolo - Wireless - Ginebra San Miguel Inc. - Innodata - Subangdako - MJ. Cuenco Ave. - Mabolo - The Persimmon - Hipodromo - Cebu Chinese Cemetery - Carreta Cemetery - Imus Ave. - MJ. Cuenco Ave. - Museo Sugbo - CPILS - NSO - CTU - V. Gullas St. - Plaza Humabon - Cathedral.]]></description>
        <styleUrl>#line-33FF33-5000</styleUrl>
        <LineString>
          <tessellate>1</tessellate>
          <coordinates>
            123.95049,10.32426,0
            123.94285,10.32719,0
            123.94274,10.3277,0
            123.94285,10.32816,0
            123.94197,10.32857,0
            123.94137,10.32894,0
            123.94034,10.32945,0
            123.93994,10.32962,0
            123.93865,10.33003,0
            123.93734,10.33037,0
            123.93574,10.33052,0
            123.93491,10.33043,0
            123.93244,10.32941,0
            123.93224,10.32984,0
            123.93029,10.32841,0
            123.92938,10.32749,0
            123.92377,10.32242,0
            123.92103,10.32005,0
            123.91882,10.31829,0
            123.91659,10.31565,0
            123.91578,10.3148,0
            123.91291,10.31337,0
            123.91018,10.3121,0
            123.90986,10.31189,0
            123.90925,10.31135,0
            123.90869,10.31071,0
            123.90774,10.30944,0
            123.90729,10.30898,0
            123.90669,10.30826,0
            123.90552,10.30676,0
            123.9061,10.30634,0
            123.906078,10.305477,0
            123.90613,10.30462,0
            123.90653,10.3019,0
            123.90651,10.30131,0
            123.906056,10.298368,0
            123.90567,10.296521,0
            123.90444,10.29704,0
            123.90376,10.29566,0
          </coordinates>
        </LineString>
      </Placemark>
    </Folder>
  </Document>
</kml>
