<?xml version="1.0" encoding="UTF-8"?>
<kml xmlns="http://www.opengis.net/kml/2.2">
  <Document>
    <name>Cebu Jeepney Route No. 22G</name>
    <description><![CDATA[more cebu jeepneys route map at cebujeepneys.weebly.com<br><br>Cathedral to Mandaue(Ouano) <br><br>Cathedral to mandaue<br>cathedral to sm<br>cathedral to t. padilla<br>cathedral to north bus terminal<br>cathedral to wireless<br>cathedral to CICC <br>cathedral to colonnade mandaue <br>cathedral to merkado<br>cathedral to new pub. market<br>cathedral to ouano<br>sm to mandaue<br>sm to ouano<br>sm to cicc<br>sm to wireless<br>sm to merkado mandaue<br>sm to new public market<br>sm to bir mandaue<br><br>MANDAUE (ouano) to CATHEDRAL<br><br>ouano to grand mall mandaue<br>ouano to wireless<br>ouano to mabolo<br>ouano to sm<br>ouano to pier 3<br>ouano to pier 4 <br>ouano to cathedral<br>ouano to ctu<br>mandaue to sm<br>mandaue to mabolo<br>mandaue to white gold<br>mandaue to pier 3 <br>mandaue to pier 4<br>mandaue to cathedral<br>mabolo to white gold<br>mabolo to pier 3<br>mabolo to pier 4<br>sm to pier 3<br>sm to pier 4<br>sm to ctu<br>sm to cathedral <br>mabolo to ctu<br>mabolo to cathedral.]]></description>
    <Style id="line-0000FF-5000-normal">
      <LineStyle>
        <color>ffff0000</color>
        <width>5</width>
      </LineStyle>
    </Style>
    <Style id="line-0000FF-5000-highlight">
      <LineStyle>
        <color>ffff0000</color>
        <width>7.5</width>
      </LineStyle>
    </Style>
    <StyleMap id="line-0000FF-5000">
      <Pair>
        <key>normal</key>
        <styleUrl>#line-0000FF-5000-normal</styleUrl>
      </Pair>
      <Pair>
        <key>highlight</key>
        <styleUrl>#line-0000FF-5000-highlight</styleUrl>
      </Pair>
    </StyleMap>
    <Style id="line-33FF33-5000-normal">
      <LineStyle>
        <color>ff33ff33</color>
        <width>5</width>
      </LineStyle>
    </Style>
    <Style id="line-33FF33-5000-highlight">
      <LineStyle>
        <color>ff33ff33</color>
        <width>7.5</width>
      </LineStyle>
    </Style>
    <StyleMap id="line-33FF33-5000">
      <Pair>
        <key>normal</key>
        <styleUrl>#line-33FF33-5000-normal</styleUrl>
      </Pair>
      <Pair>
        <key>highlight</key>
        <styleUrl>#line-33FF33-5000-highlight</styleUrl>
      </Pair>
    </StyleMap>
    <Folder>
      <name>Untitled layer</name>
      <Placemark>
        <name>Cathedral to Mandaue (Ouano)</name>
        <description><![CDATA[more cebu jeepneys route maps at cebujeepneys.weebly.com (http://cebujeepneys.weebly.com)<br><br> <br>Cathedral - F. Urdaneta St. - MJ. Cuenco Ave. - CTU - NSO - T. Padilla St. - B.Bendicto  St. - G.maxilom ave. ext. - A. Soriano Ave. - White Gold Club - Sm City Cebu - F. Cabahug St. - APM mall - M.Logarta St. - Sm Hypermarket - Aboitiz Football field - Cebu North Bus Terminal - L.Jaena St. - Wireless - Tipolo - A. del rosario St. - CD. Seno St. - CICC -  WO. Seno St. - AS. Fortuna St. Ext. - A. del Rosario St. - Guizo - Mantuyong - uwell -  B. Ceniza St. - Sosyoland supermarket - Colonnade Supermarket - A. Soriano Ave. - New Mandaue Public Market - Bir Mandaue - JL. Briones St. - Norkis Park - A. Mabini St. - Ouano.]]></description>
        <styleUrl>#line-0000FF-5000</styleUrl>
        <LineString>
          <tessellate>1</tessellate>
          <coordinates>
            123.90377,10.29565,0
            123.90523,10.29489,0
            123.90564,10.29613,0
            123.90596,10.29759,0
            123.90651,10.30131,0
            123.90655,10.30191,0
            123.906485,10.302427,0
            123.906459,10.302891,0
            123.906351,10.30344,0
            123.906249,10.304079,0
            123.906126,10.304913,0
            123.90611,10.305805,0
            123.906142,10.30638,0
            123.906469,10.307377,0
            123.906893,10.308132,0
            123.906898,10.308232,0
            123.90722,10.30867,0
            123.909956,10.307034,0
            123.9176,10.31346,0
            123.91785,10.31362,0
            123.91812,10.31392,0
            123.91869,10.31434,0
            123.91972,10.31417,0
            123.92016,10.31405,0
            123.92053,10.31388,0
            123.92119,10.31328,0
            123.92159,10.3128,0
            123.92244,10.31359,0
            123.92353,10.31487,0
            123.92453,10.31616,0
            123.92496,10.3169,0
            123.92534,10.31776,0
            123.92599,10.31978,0
            123.92603,10.32008,0
            123.92595,10.32102,0
            123.92573,10.32137,0
            123.92573,10.32156,0
            123.9246,10.32314,0
            123.92707,10.32531,0
            123.93068,10.32868,0
            123.93177,10.32907,0
            123.93263,10.32946,0
            123.93418,10.32728,0
            123.93466,10.32669,0
            123.9356,10.32743,0
            123.93618,10.32754,0
            123.93648,10.32749,0
            123.93725,10.32918,0
            123.93766,10.33026,0
            123.93984,10.3296,0
            123.94141,10.32886,0
            123.94075,10.32694,0
            123.94022,10.3261,0
            123.93984,10.32602,0
            123.93953,10.32544,0
            123.93789,10.32593,0
            123.93802,10.32573,0
            123.94138,10.32453,0
            123.94115,10.32438,0
            123.94082,10.32391,0
            123.94005,10.32271,0
            123.94002,10.32259,0
            123.94103,10.32202,0
            123.94254,10.32407,0
            123.94337,10.32367,0
            123.94349,10.32365,0
            123.9436,10.3237,0
            123.9453,10.32619,0
            123.94606,10.32594,0
            123.95047,10.32422,0
          </coordinates>
        </LineString>
      </Placemark>
      <Placemark>
        <name>Mandaue(Ouano) to Cathedral </name>
        <description><![CDATA[more cebu jeepneys route maps at cebujeepneys.weebly.com (http://cebujeepneys.weebly.com)<br><br> <br>Ouano - A. Mabini St. - PJ. Burgos St. - St. Joseph Parish - Mandaue City Hall - Gaisano Grand Mandaue - A. del Rosario St. - Mantuyong - Guizo - SSS(mandaue) - San Miguel Brewery Plant - MC. Briones St. - L. Jaena St. - Tipolo - Wireless - Subangdako - Mabolo (Andoks) - Pope J.Paul II Ave. - Sm City Cebu - A. Soriano Ave. - Queen City Memorial Garden - White Gold Club - Queensland - G. Maxilom Ave. Ext. - G.Gaisano St. - T. padilla st. - S. Osmena Blvd. - Pier 4 - Pier 3 - V. Sotto St. - CTU - MJ. Cuenco Ave. - V. Gullas St. - P.Burgos St. - Cathedral.]]></description>
        <styleUrl>#line-33FF33-5000</styleUrl>
        <LineString>
          <tessellate>1</tessellate>
          <coordinates>
            123.950479,10.324271,0
            123.949961,10.324477,0
            123.948915,10.324883,0
            123.947977,10.325237,0
            123.947167,10.325559,0
            123.946153,10.325963,0
            123.945608,10.326147,0
            123.945461,10.326198,0
            123.945276,10.326237,0
            123.944699,10.326469,0
            123.94379,10.326836,0
            123.943106,10.327089,0
            123.942862,10.327203,0
            123.942862,10.327301,0
            123.942824,10.327417,0
            123.942805,10.327535,0
            123.942781,10.327638,0
            123.942773,10.327691,0
            123.942789,10.327852,0
            123.942789,10.327884,0
            123.942862,10.32815,0
            123.942489,10.328324,0
            123.941885,10.328633,0
            123.941558,10.328786,0
            123.941494,10.32886,0
            123.941225,10.329008,0
            123.940571,10.32933,0
            123.940324,10.329462,0
            123.939938,10.329623,0
            123.939565,10.329736,0
            123.939321,10.329805,0
            123.938642,10.330034,0
            123.93795,10.33024,0
            123.937626,10.330325,0
            123.937355,10.33038,0
            123.936837,10.33042,0
            123.936599,10.330441,0
            123.936194,10.330486,0
            123.935748,10.33052,0
            123.935306,10.330472,0
            123.934922,10.330433,0
            123.934496,10.33028,0
            123.934193,10.330113,0
            123.933718,10.329937,0
            123.932911,10.329612,0
            123.932455,10.329417,0
            123.93224,10.329842,0
            123.931744,10.329499,0
            123.93124,10.329145,0
            123.930837,10.328852,0
            123.930564,10.328657,0
            123.930258,10.32838,0
            123.929732,10.32786,0
            123.929488,10.327609,0
            123.929134,10.327279,0
            123.928756,10.32695,0
            123.928257,10.326509,0
            123.927908,10.326182,0
            123.927495,10.325767,0
            123.927018,10.325335,0
            123.926865,10.325174,0
            123.926315,10.324686,0
            123.926079,10.324482,0
            123.925685,10.324129,0
            123.925339,10.32382,0
            123.924944,10.323488,0
            123.924588,10.323176,0
            123.924419,10.323028,0
            123.923949,10.322609,0
            123.923378,10.322076,0
            123.92285,10.32164,0
            123.922463,10.321318,0
            123.921892,10.320814,0
            123.921189,10.320197,0
            123.920816,10.319878,0
            123.920613,10.319735,0
            123.920248,10.319442,0
            123.919915,10.319178,0
            123.919419,10.318819,0
            123.919121,10.318587,0
            123.918939,10.318416,0
            123.91874,10.318247,0
            123.918539,10.317996,0
            123.918266,10.31769,0
            123.917938,10.317284,0
            123.917515,10.316801,0
            123.917244,10.316479,0
            123.916879,10.316028,0
            123.916316,10.315384,0
            123.916056,10.315088,0
            123.915755,10.314811,0
            123.915621,10.314732,0
            123.915152,10.3145,0
            123.914916,10.314389,0
            123.914763,10.314307,0
            123.914666,10.314199,0
            123.91483,10.313885,0
            123.914924,10.313721,0
            123.915034,10.313587,0
            123.915468,10.31308,0
            123.91575,10.312784,0
            123.91616,10.312375,0
            123.915752,10.312048,0
            123.9149,10.311378,0
            123.914275,10.310866,0
            123.913298,10.310051,0
            123.912279,10.309211,0
            123.91156,10.308631,0
            123.910957,10.308135,0
            123.910273,10.307578,0
            123.909886,10.307208,0
            123.909919,10.307037,0
            123.910061,10.30685,0
            123.910348,10.306499,0
            123.910015,10.306187,0
            123.909779,10.305995,0
            123.909575,10.305754,0
            123.909406,10.30549,0
            123.909302,10.305124,0
            123.909184,10.304857,0
            123.909109,10.30448,0
            123.908961,10.30406,0
            123.908771,10.303559,0
            123.908583,10.302999,0
            123.908433,10.302585,0
            123.908398,10.302395,0
            123.908371,10.302274,0
            123.9085,10.30196,0
            123.909133,10.301917,0
            123.909704,10.30188,0
            123.909991,10.301854,0
            123.910195,10.301783,0
            123.9103,10.301685,0
            123.910147,10.301522,0
            123.909916,10.301202,0
            123.909669,10.300759,0
            123.909229,10.29997,0
            123.90906,10.299682,0
            123.908752,10.29912,0
            123.90843,10.298503,0
            123.907727,10.298518,0
            123.907226,10.298481,0
            123.90626,10.298318,0
            123.906105,10.298365,0
            123.906054,10.298376,0
            123.90597,10.297845,0
            123.905877,10.297362,0
            123.905681,10.296502,0
            123.905225,10.296716,0
            123.904849,10.296882,0
            123.904439,10.297046,0
            123.904208,10.296571,0
            123.90401,10.296172,0
            123.90376,10.29566,0
          </coordinates>
        </LineString>
      </Placemark>
    </Folder>
  </Document>
</kml>
