<?xml version="1.0" encoding="UTF-8"?>
<kml xmlns="http://www.opengis.net/kml/2.2">
  <Document>
    <name>Cebu Jeepney Route No. 23 (mandaue to punta engano)</name>
    <description><![CDATA[more cebu jeepneys route maps at cebujeepneys.weebly.com<br><br>Parkmall to Punta Engano<br><br>Parkmall to umapad<br>parkmall to new mactan-mandaue bridge <br>parkmall to pusok<br>parkmall to mepz 1<br>parkmall to punta engano<br>parkmall to hilton<br>parkmall to mactan shrine<br>parkmall to sharila's mactan<br>parkmall to palm beach<br>mandaue to pusok<br>mandaue to mepz 1<br>mandaue to punta engano<br>mandaue to shangrila's mactan<br>mandaue to mactan shrine<br>mandaue to amisa<br>highway to mepz 1<br>highway to punta engano<br>highway to mactan shrine<br>highway to shangrila's mactan<br>highway to movenpick<br>marina mall to punta engano<br>marina mall to mactan shrine<br>marina mall to shangrila<br>marina mall to movenpick<br>marina mall to palm beach<br>marina mall to amisa<br>marina mall to hilton<br>mepz 1 to punta engano<br>mepz 1 to mactan shrine<br>mepz 1 to shanrila<br>mepz 1 to amisa<br>mepz 1 to hilton<br>mepz 1 to palm beach<br><br>Punta Engano to Parkmall<br><br>P. engano  to mepz 1<br>p. engano to pusok<br>p. engano to new mactan-mandaue bridge<br>p. engano to marina mall<br>p. engano to mandaue<br>]]></description>
    <Style id="line-3333FF-5000-normal">
      <LineStyle>
        <color>ffff3333</color>
        <width>5</width>
      </LineStyle>
    </Style>
    <Style id="line-3333FF-5000-highlight">
      <LineStyle>
        <color>ffff3333</color>
        <width>7.5</width>
      </LineStyle>
    </Style>
    <StyleMap id="line-3333FF-5000">
      <Pair>
        <key>normal</key>
        <styleUrl>#line-3333FF-5000-normal</styleUrl>
      </Pair>
      <Pair>
        <key>highlight</key>
        <styleUrl>#line-3333FF-5000-highlight</styleUrl>
      </Pair>
    </StyleMap>
    <Style id="line-33FFFF-5000-normal">
      <LineStyle>
        <color>ffffff33</color>
        <width>5</width>
      </LineStyle>
    </Style>
    <Style id="line-33FFFF-5000-highlight">
      <LineStyle>
        <color>ffffff33</color>
        <width>7.5</width>
      </LineStyle>
    </Style>
    <StyleMap id="line-33FFFF-5000">
      <Pair>
        <key>normal</key>
        <styleUrl>#line-33FFFF-5000-normal</styleUrl>
      </Pair>
      <Pair>
        <key>highlight</key>
        <styleUrl>#line-33FFFF-5000-highlight</styleUrl>
      </Pair>
    </StyleMap>
    <Folder>
      <name>Untitled layer</name>
      <Placemark>
        <name>Parkmall to Punta Engano</name>
        <description><![CDATA[more cebu jeepneys route maps at cebujeepneys.weebly.com (http://cebujeepneys.weebly.com)<br>Like us on our Facebook Page (http://facebook.com/cebujeepneysroutemap)<br><br> <br>Parkmall to Punta Engano <br><br> <br>Parkmall - W.O. Seno St. - Chung Hua Hospital (ongoing) - MO2 - E.O. Perez St. - S&R Membership Shopping - P. Larazzabal Ave. - Cebu Doctors University - Ouano Ave. - St. James Amusement Park - A. Soriano Ave. - Mandaue City College - BIR mandaue - New Mandaue City Public Market - Jose L Briones Ave. - Norkis Park - University of the Visayas (mandaue) - Hotel Nenita - Plaridel St. - Metro Fresh & Easy (Tita Gwapa) - Umapad - Bridges Town Square - UN. Ave. - New Mactan-Mandaue Bridge - Pusok - Quezon National Highway - Marina Mall - Savemore Mactan - Mepz 1 - Gate 1, 2, 3, 4, 5 - Ibo - Buaya - Punta Engano Rd. - Brgy. Mactan - Mactan Shrine - Lapulapu Monument - Punta Engano - Shanrila's Mactan Resort & Spa - Movenpick Resort - Cebu Paradive Resort - Abaca Boutique Resort - Be Resort - Palm Beach Resort & Spa - Cebu Sea World - Casa Carmela Mactan Resort - Amisa Residences - Discovery Bay Hotel - Hilton Resort.]]></description>
        <styleUrl>#line-3333FF-5000</styleUrl>
        <LineString>
          <tessellate>1</tessellate>
          <coordinates>
            124.04211,10.32905,0
            124.04146,10.32856,0
            124.04045,10.32761,0
            124.03946,10.32648,0
            124.0389,10.32603,0
            124.0383,10.32535,0
            124.03823,10.32439,0
            124.03816,10.32421,0
            124.03802,10.32413,0
            124.03754,10.32412,0
            124.03685,10.32356,0
            124.03675,10.32354,0
            124.03667,10.32356,0
            124.0362,10.32418,0
            124.03607,10.32418,0
            124.03273,10.32121,0
            124.03123,10.32002,0
            124.02954,10.31843,0
            124.02856,10.31681,0
            124.02773,10.31577,0
            124.02746,10.31555,0
            124.02672,10.31514,0
            124.02631,10.31483,0
            124.02443,10.31309,0
            124.02384,10.31242,0
            124.02349,10.31183,0
            124.02302,10.31134,0
            124.02249,10.31058,0
            124.022,10.31021,0
            124.02092,10.31002,0
            124.02043,10.31,0
            124.01998,10.31009,0
            124.01906,10.31044,0
            124.01852,10.31048,0
            124.01737,10.31078,0
            124.01587,10.31081,0
            124.01568,10.31069,0
            124.01543,10.31038,0
            124.0152,10.31032,0
            124.0149,10.31042,0
            124.0147,10.31067,0
            124.01449,10.31075,0
            124.00777,10.31046,0
            124.00741,10.31066,0
            124.00706,10.31092,0
            124.00264,10.31441,0
            124.00218,10.3146,0
            124.00054,10.31512,0
            124.0003,10.31525,0
            123.99979,10.31567,0
            123.9993,10.31618,0
            123.99861,10.31673,0
            123.99808,10.31705,0
            123.99682,10.31762,0
            123.99625,10.31794,0
            123.99559,10.31859,0
            123.99387,10.32095,0
            123.99056,10.32532,0
            123.99045,10.32591,0
            123.99022,10.32844,0
            123.99011,10.32888,0
            123.98902,10.33085,0
            123.98859,10.3313,0
            123.98723,10.33231,0
            123.98658,10.33261,0
            123.98517,10.33285,0
            123.98476,10.33274,0
            123.98445,10.33254,0
            123.98259,10.33102,0
            123.98072,10.32929,0
            123.98041,10.32891,0
            123.97983,10.32799,0
            123.97914,10.32731,0
            123.976169,10.325704,0
            123.975609,10.32538,0
            123.97444,10.32465,0
            123.97214,10.32344,0
            123.97116,10.32308,0
            123.97008,10.32259,0
            123.96982,10.32251,0
            123.96967,10.32254,0
            123.96927,10.32276,0
            123.96584,10.32755,0
            123.9635,10.33063,0
            123.95947,10.33624,0
            123.95876,10.33709,0
            123.95825,10.33751,0
            123.95781,10.33776,0
            123.9551,10.33867,0
            123.95262,10.33653,0
            123.9523,10.33642,0
            123.95187,10.3364,0
            123.95104,10.33582,0
            123.95085,10.33562,0
            123.95054,10.33517,0
            123.9484,10.33136,0
            123.94741,10.32971,0
            123.94655,10.32793,0
            123.9463,10.32754,0
            123.94548,10.32652,0
            123.94362,10.32374,0
            123.94345,10.32365,0
            123.94256,10.32404,0
            123.94103,10.32199,0
            123.94,10.32258,0
            123.94061,10.32359,0
            123.94115,10.32439,0
            123.9413,10.32453,0
            123.93786,10.32579,0
            123.9375,10.32581,0
            123.93724,10.32575,0
            123.93465,10.32365,0
            123.93527,10.32282,0
            123.93157,10.31884,0
            123.93088,10.31926,0
            123.92913,10.31999,0
            123.92909,10.32018,0
            123.93036,10.32226,0
            123.93143,10.32385,0
            123.9324,10.325,0
            123.93301,10.3246,0
            123.93317,10.32463,0
            123.93323,10.32472,0
            123.93301,10.32489,0
            123.93287,10.32493,0
          </coordinates>
        </LineString>
      </Placemark>
      <Placemark>
        <name>Punta Engano to Parkmall</name>
        <description><![CDATA[more cebu jeepneys route maps at cebujeepneys.weebly.com (http://cebujeepneys.weebly.com)<br>Like us on our Facebook Page (http://facebook.com/cebujeepneysroutemap)<br><br> <br>Punta Engano to Parkmall<br><br><br>Punta Engano - Hilton Resort - Discovery Bay Hotel - Amisa Residences - Punta Engano Rd. - Casa Carmela Mactan Resort - Cebu Sea World - Palm Beach Resort & Spa - Be Resort - Abaca Boutique Resort - Cebu Paradive Resort - <br>Movenpick Resort - Shangrila's Mactan Resort & Spa - Lapulapu Monument - Mactan Shrine - Brgy. Mactan Quezon National Highway  - Buaya - Ibo - MEPZ 1 - Gate 4, 3, 2, 1 - Savemore Mactan - Marina Mall - Pusok - New Mactan Mandaue Bridge - UN. Ave. - Umapad - Plaridel St. - Bridge Town Square - Hotel Nenita - AC. Cortes Ave. - Prince Warehouse Club (mandaue) - STI  College - B.B. Cabahug St. - A. del Rosario St. - Tipolo (San Miguel Corp.) - C.D. Seno St. -  - CICC - W.O. Seno St. - Parkmall.]]></description>
        <styleUrl>#line-33FFFF-5000</styleUrl>
        <LineString>
          <tessellate>1</tessellate>
          <coordinates>
            124.042071,10.329069,0
            124.041564,10.328702,0
            124.04125,10.328446,0
            124.040915,10.328129,0
            124.040405,10.327646,0
            124.040035,10.327232,0
            124.039429,10.326533,0
            124.039013,10.326198,0
            124.038633,10.325807,0
            124.038254,10.325377,0
            124.038225,10.32524,0
            124.038193,10.324788,0
            124.038203,10.324514,0
            124.038166,10.324348,0
            124.038099,10.324253,0
            124.038034,10.324192,0
            124.037911,10.324171,0
            124.037691,10.324192,0
            124.037562,10.324176,0
            124.03742,10.324108,0
            124.036827,10.323609,0
            124.036758,10.323588,0
            124.036704,10.323617,0
            124.036243,10.324232,0
            124.03616,10.324266,0
            124.036068,10.324234,0
            124.035371,10.323641,0
            124.034684,10.323023,0
            124.033772,10.322208,0
            124.032823,10.321353,0
            124.031994,10.320675,0
            124.031383,10.320218,0
            124.030961,10.319857,0
            124.030159,10.319123,0
            124.029516,10.318469,0
            124.02906,10.317672,0
            124.028553,10.316875,0
            124.028156,10.316365,0
            124.027681,10.315801,0
            124.02748,10.315634,0
            124.026705,10.315196,0
            124.026343,10.314906,0
            124.026099,10.314716,0
            124.025517,10.314191,0
            124.024771,10.31351,0
            124.024307,10.313035,0
            124.023816,10.312473,0
            124.023419,10.311858,0
            124.022976,10.311359,0
            124.022861,10.311198,0
            124.022443,10.310605,0
            124.022301,10.31047,0
            124.021968,10.310262,0
            124.021252,10.310127,0
            124.020651,10.310061,0
            124.020396,10.310048,0
            124.020037,10.310127,0
            124.01953,10.310312,0
            124.019026,10.310504,0
            124.018629,10.310536,0
            124.018449,10.310557,0
            124.017443,10.310816,0
            124.017255,10.310829,0
            124.016322,10.310855,0
            124.015866,10.310842,0
            124.015748,10.310808,0
            124.015646,10.310721,0
            124.01552,10.310494,0
            124.015431,10.310436,0
            124.015308,10.310383,0
            124.015193,10.310372,0
            124.015045,10.310409,0
            124.014941,10.310457,0
            124.014726,10.310729,0
            124.014643,10.310779,0
            124.014519,10.310797,0
            124.014136,10.310784,0
            124.012897,10.310726,0
            124.011599,10.310663,0
            124.01044,10.310602,0
            124.009482,10.310568,0
            124.008533,10.310549,0
            124.007817,10.310523,0
            124.007715,10.310541,0
            124.00761,10.310599,0
            124.006918,10.311117,0
            124.006411,10.311518,0
            124.005792,10.312003,0
            124.005091,10.312563,0
            124.004019,10.313428,0
            124.003286,10.313998,0
            124.002653,10.314465,0
            124.002409,10.314574,0
            124.001967,10.314724,0
            124.001074,10.314977,0
            124.000505,10.315194,0
            124.000258,10.315355,0
            123.999738,10.315801,0
            123.999244,10.316307,0
            123.998665,10.316756,0
            123.998139,10.317083,0
            123.997753,10.317286,0
            123.997125,10.317529,0
            123.996685,10.317738,0
            123.996299,10.317972,0
            123.995932,10.318292,0
            123.995666,10.318595,0
            123.995454,10.318875,0
            123.994752,10.319849,0
            123.994145,10.320677,0
            123.993478,10.321535,0
            123.992933,10.322255,0
            123.992295,10.323123,0
            123.991747,10.323833,0
            123.991171,10.324585,0
            123.990605,10.325337,0
            123.990519,10.325796,0
            123.990465,10.326351,0
            123.99042,10.327008,0
            123.990358,10.328119,0
            123.990363,10.327593,0
            123.990283,10.328464,0
            123.990146,10.328897,0
            123.989905,10.329401,0
            123.989505,10.330161,0
            123.989127,10.33081,0
            123.98884,10.331156,0
            123.988569,10.331399,0
            123.987939,10.331852,0
            123.987448,10.332235,0
            123.986885,10.332546,0
            123.986536,10.332676,0
            123.985814,10.332831,0
            123.985181,10.332911,0
            123.984972,10.332874,0
            123.984709,10.332781,0
            123.984433,10.332597,0
            123.984074,10.332288,0
            123.983387,10.331718,0
            123.982604,10.331079,0
            123.982392,10.330897,0
            123.981732,10.330298,0
            123.981341,10.329947,0
            123.980882,10.32952,0
            123.980678,10.329314,0
            123.980429,10.329021,0
            123.979788,10.327997,0
            123.979114,10.327353,0
            123.978438,10.327002,0
            123.977516,10.326477,0
            123.9766,10.32599,0
            123.97555,10.32539,0
            123.97506,10.32521,0
            123.97259,10.32389,0
            123.97058,10.32293,0
            123.96978,10.32261,0
            123.96945,10.32276,0
            123.96886,10.32343,0
            123.96786,10.32495,0
            123.96551,10.32825,0
            123.96394,10.33023,0
            123.95919,10.33676,0
            123.95848,10.33747,0
            123.95804,10.33773,0
            123.95759,10.33794,0
            123.95518,10.33881,0
            123.95262,10.33659,0
            123.95246,10.33652,0
            123.95182,10.33643,0
            123.95101,10.33587,0
            123.95083,10.33569,0
            123.95055,10.33532,0
            123.94782,10.33048,0
            123.94737,10.33082,0
            123.94444,10.33262,0
            123.944192,10.332765,0
            123.943157,10.333388,0
            123.942599,10.333747,0
            123.941598,10.33433,0
            123.94126,10.334512,0
            123.94085,10.334678,0
            123.940727,10.334565,0
            123.940493,10.33432,0
            123.940228,10.334019,0
            123.939954,10.333676,0
            123.939396,10.333232,0
            123.939115,10.333029,0
            123.938339,10.332488,0
            123.938039,10.332314,0
            123.937575,10.331926,0
            123.937022,10.331435,0
            123.93665,10.331053,0
            123.936263,10.330625,0
            123.936169,10.330493,0
            123.935805,10.330522,0
            123.935308,10.330483,0
            123.935099,10.330454,0
            123.934925,10.330438,0
            123.93448,10.330269,0
            123.934131,10.3301,0
            123.933482,10.329852,0
            123.932613,10.329488,0
            123.932793,10.329158,0
            123.933455,10.328253,0
            123.934013,10.327464,0
            123.934565,10.326765,0
            123.933616,10.326021,0
            123.932849,10.325456,0
            123.932438,10.325113,0
            123.932599,10.325044,0
            123.932685,10.325089,0
            123.932862,10.324931,0
          </coordinates>
        </LineString>
      </Placemark>
    </Folder>
  </Document>
</kml>
