<?xml version="1.0" encoding="UTF-8"?>
<kml xmlns="http://www.opengis.net/kml/2.2">
  <Document>
    <name>Cebu Jeepney Route No. 23D / MI-23A (Opon)</name>
    <description><![CDATA[more cebu jeepneys route maps at cebujeepneys.weebly.com<br><br>Opon to Mandaue<br><br>opon to uc-lm<br>opon to mandaue<br>opon to highway<br>opon to guizo<br>opon to cicc<br>opon to parkmall<br>opon to s&r shopping <br>opon to cebu doctors university<br>mactan to uclm<br>mactan to mandaue<br>mactan to cicc<br>mactan to guizo<br>mactan to san miguel<br>mactan to parkmall<br>mactan to s&r shopping<br>mactan to cebu doctors university<br>uclm to parkmall<br>uclm to cdu<br>sti to parkmall<br>sti to cdu<br>sti cicc<br>guizo to parkmall<br>guizo to s&r shopping<br>guizo to cebu doctors university<br><br>Mandaue to Opon<br><br>Mandaue to opon public market<br>mandaue to GMC<br>parkmall to old mandaue public market<br>parkmall to nature spring plant<br>parkmall to uc-lm<br>parkmall to old bridge<br>parkmall to opon public market<br>parkmall to mactan<br>cdu to new mandaue public market<br>cdu to natures spring plant<br>cdu to uc-lm<br>cdu to mactan<br>cdu to opon public market<br>mandaue public market to uclm<br>mandaue public market to mactan<br>mandaue public market to opon public market<br><br>]]></description>
    <Style id="line-0000FF-5000-normal">
      <LineStyle>
        <color>ffff0000</color>
        <width>5</width>
      </LineStyle>
    </Style>
    <Style id="line-0000FF-5000-highlight">
      <LineStyle>
        <color>ffff0000</color>
        <width>7.5</width>
      </LineStyle>
    </Style>
    <StyleMap id="line-0000FF-5000">
      <Pair>
        <key>normal</key>
        <styleUrl>#line-0000FF-5000-normal</styleUrl>
      </Pair>
      <Pair>
        <key>highlight</key>
        <styleUrl>#line-0000FF-5000-highlight</styleUrl>
      </Pair>
    </StyleMap>
    <Style id="line-33FF33-5000-normal">
      <LineStyle>
        <color>ff33ff33</color>
        <width>5</width>
      </LineStyle>
    </Style>
    <Style id="line-33FF33-5000-highlight">
      <LineStyle>
        <color>ff33ff33</color>
        <width>7.5</width>
      </LineStyle>
    </Style>
    <StyleMap id="line-33FF33-5000">
      <Pair>
        <key>normal</key>
        <styleUrl>#line-33FF33-5000-normal</styleUrl>
      </Pair>
      <Pair>
        <key>highlight</key>
        <styleUrl>#line-33FF33-5000-highlight</styleUrl>
      </Pair>
    </StyleMap>
    <Folder>
      <name>Untitled layer</name>
      <Placemark>
        <name>Opon to Mandaue</name>
        <description><![CDATA[more cebu jeepeneys route maps at cebujeepneys.weebly.com (http://cebujeepneys.weebly.com)<br>Like us on our Facebook Page<br><br> <br>Opon to Mandaue<br><br> <br>Opon PUJ terminal - ML. Quezon Ave. - OLD Mactan-Mandaue Bridge - AC. Cortes Ave. - UCLM - Natures Spring Plant - Mandaue Coliseum - STI - B. B. Cabahug St. - Mandaue Catholic Cemetery - A. del Rosario St. - Guizo - C.D. Seno - Cicc - Parkmall.]]></description>
        <styleUrl>#line-0000FF-5000</styleUrl>
        <LineString>
          <tessellate>1</tessellate>
          <coordinates>
            123.95635,10.31289,0
            123.956305,10.312996,0
            123.9568,10.31329,0
            123.95824,10.31432,0
            123.95846,10.31441,0
            123.95848,10.31467,0
            123.95822,10.31495,0
            123.95629,10.31904,0
            123.95396,10.32324,0
            123.95316,10.32453,0
            123.95156,10.3274,0
            123.9512,10.32794,0
            123.95032,10.32889,0
            123.94892,10.32984,0
            123.94786,10.33043,0
            123.94739,10.33081,0
            123.9413,10.33449,0
            123.9409,10.33464,0
            123.94082,10.33463,0
            123.94043,10.33425,0
            123.93997,10.33367,0
            123.93915,10.33304,0
            123.93783,10.33213,0
            123.93726,10.33165,0
            123.93617,10.33048,0
            123.93576,10.33051,0
            123.93488,10.33042,0
            123.93262,10.32948,0
            123.9328,10.32915,0
            123.93398,10.32751,0
            123.93457,10.32676,0
            123.93247,10.32514,0
            123.93251,10.32507,0
            123.93294,10.32492,0
          </coordinates>
        </LineString>
      </Placemark>
      <Placemark>
        <name>Mandaue to Opon</name>
        <description><![CDATA[More cebu jeepneys route maps at cebujeepneys.weebly.com (http://cebujeepneys.weebly.com)<br>Like us on our Facebook Page (http://facebook.com/cebujeepneysroutemap)<br><br> <br>Mandaue to Opon <br><br> <br>Parkmall - W.O. Seno St. - E.O Perez St. - S&R Shopping - P. Larazzabal Ave. - Cebu Doctors University - Ouano Ave. - CICC - New Mandaue Public Market - J.L. Briones St. - Norkis Park - University of the Visayas - AC. Cortes Ave. - Natures Spring Plant - UC-LM - Old  Mandaue-Mactan Bridge - ML. Quezon Ave. - General Milling Corp. - Metro Mactan - Mantawe Rd. - Ompad St. - GY dela Serna St. - La Nueva Supermart - Opon PUJ terminal.]]></description>
        <styleUrl>#line-33FF33-5000</styleUrl>
        <LineString>
          <tessellate>1</tessellate>
          <coordinates>
            123.932948,10.324918,0
            123.933143,10.324815,0
            123.933176,10.324738,0
            123.93313,10.324664,0
            123.932999,10.324646,0
            123.932846,10.324762,0
            123.932674,10.324878,0
            123.932519,10.324989,0
            123.932382,10.325021,0
            123.931628,10.324102,0
            123.931413,10.323854,0
            123.930907,10.323089,0
            123.930233,10.322063,0
            123.929606,10.321031,0
            123.929088,10.320171,0
            123.929134,10.319973,0
            123.930719,10.319358,0
            123.931561,10.318849,0
            123.932167,10.319543,0
            123.933157,10.320585,0
            123.933927,10.321408,0
            123.934914,10.32244,0
            123.935281,10.322823,0
            123.934651,10.323646,0
            123.935654,10.32448,0
            123.93666,10.325316,0
            123.936925,10.325541,0
            123.937242,10.325738,0
            123.93751,10.325812,0
            123.937843,10.325794,0
            123.938586,10.325527,0
            123.940072,10.324981,0
            123.941351,10.324525,0
            123.941139,10.324393,0
            123.940517,10.323435,0
            123.940037,10.322701,0
            123.940007,10.322585,0
            123.94104,10.322007,0
            123.941713,10.322936,0
            123.942561,10.324058,0
            123.943113,10.323799,0
            123.943339,10.32368,0
            123.943462,10.323654,0
            123.943593,10.323699,0
            123.944143,10.324503,0
            123.944792,10.325456,0
            123.945318,10.326232,0
            123.945474,10.32652,0
            123.945997,10.327179,0
            123.946313,10.327562,0
            123.946654,10.328127,0
            123.947032,10.328918,0
            123.947383,10.329686,0
            123.947837,10.330401,0
            123.948668,10.32996,0
            123.948974,10.32976,0
            123.94962,10.329309,0
            123.950291,10.328873,0
            123.950988,10.328137,0
            123.951407,10.327586,0
            123.951825,10.32686,0
            123.952217,10.326192,0
            123.952662,10.325348,0
            123.952952,10.324802,0
            123.953166,10.324448,0
            123.953641,10.323701,0
            123.954011,10.323094,0
            123.954413,10.322379,0
            123.9548,10.321688,0
            123.955205,10.320938,0
            123.955733,10.319957,0
            123.95621,10.319099,0
            123.956597,10.318321,0
            123.957053,10.317376,0
            123.957396,10.316661,0
            123.95779,10.315832,0
            123.958016,10.315328,0
            123.958273,10.314793,0
            123.958351,10.314579,0
            123.958198,10.314328,0
            123.957586,10.313869,0
            123.956768,10.313333,0
            123.956224,10.313003,0
            123.955221,10.312383,0
            123.954582,10.312014,0
            123.954006,10.312824,0
            123.953716,10.313183,0
            123.953617,10.313265,0
            123.953445,10.313249,0
            123.953255,10.313193,0
            123.953091,10.313143,0
            123.952788,10.313088,0
            123.952434,10.313059,0
            123.952262,10.313048,0
            123.951865,10.312961,0
            123.951356,10.312671,0
            123.951745,10.311892,0
            123.951908,10.311552,0
            123.951983,10.311428,0
            123.952168,10.31118,0
            123.952211,10.311154,0
            123.953048,10.311204,0
            123.953319,10.311238,0
            123.954456,10.311892,0
            123.954843,10.312109,0
            123.955693,10.312629,0
            123.956232,10.312964,0
            123.956299,10.31289,0
          </coordinates>
        </LineString>
      </Placemark>
    </Folder>
  </Document>
</kml>
