<?xml version="1.0" encoding="UTF-8"?>
<kml xmlns="http://www.opengis.net/kml/2.2">
  <Document>
    <name><![CDATA[Cebu Jeepney Route No. 24 (Consolacion to Sm & White Gold) via Highway ]]></name>
    <description><![CDATA[Consolacion to White Gold via Mabolo<br><br>Consolacion to Sm Consolacion<br>Consolacion to Fooda Consolacion<br>Consolacion to cor. Canduman<br>Consolacion to basak<br>Consolacion to Pacific Mall<br>Consolacion to Metro Mandaue<br>Consolacion to highway<br>Consolacion to subandako<br>Consolacion to mabolo<br>Consolacion to sm city cebu<br>Consolacion to white gold<br>sm consolacion to fooda consolacion<br>sm consolacion to basak<br>sm consolacion to pacific mall<br>sm consolacion to highway<br>sm consolacion to subangdako<br>sm consolacion to mabolo<br>sm consolacion to Sm City Cebu<br>sm consolacion to white gold<br>canduman to pacific mall<br>canduman to highway<br>canduman to subandako<br>canduman to mabolo<br>canduman to sm city cebu<br>canduman to white gold<br>pacific mall to highway<br>pacific mall to subangdako<br>pacific mall to mabolo<br>pacific mall to sm city cebu<br>pacific mall to white gold<br>highway to mabolo<br>highway to sm city cebu<br>highway to white gold<br><br>White Gold to Consolacion<br><br>white gold to north bus terminal<br>white gold to tipolo<br>white gold to highway......]]></description>
    <Style id="line-0000FF-5000-normal">
      <LineStyle>
        <color>ffff0000</color>
        <width>5</width>
      </LineStyle>
    </Style>
    <Style id="line-0000FF-5000-highlight">
      <LineStyle>
        <color>ffff0000</color>
        <width>7.5</width>
      </LineStyle>
    </Style>
    <StyleMap id="line-0000FF-5000">
      <Pair>
        <key>normal</key>
        <styleUrl>#line-0000FF-5000-normal</styleUrl>
      </Pair>
      <Pair>
        <key>highlight</key>
        <styleUrl>#line-0000FF-5000-highlight</styleUrl>
      </Pair>
    </StyleMap>
    <Style id="line-33FF33-5000-normal">
      <LineStyle>
        <color>ff33ff33</color>
        <width>5</width>
      </LineStyle>
    </Style>
    <Style id="line-33FF33-5000-highlight">
      <LineStyle>
        <color>ff33ff33</color>
        <width>7.5</width>
      </LineStyle>
    </Style>
    <StyleMap id="line-33FF33-5000">
      <Pair>
        <key>normal</key>
        <styleUrl>#line-33FF33-5000-normal</styleUrl>
      </Pair>
      <Pair>
        <key>highlight</key>
        <styleUrl>#line-33FF33-5000-highlight</styleUrl>
      </Pair>
    </StyleMap>
    <Folder>
      <name>Untitled layer</name>
      <Placemark>
        <name>Consolacion to White Gold via Sm and Mabolo</name>
        <description><![CDATA[more cebu jeepneys route maps at cebujeepneys.weebly.com (http://cebujeepneys.weebly.com)<br>Like us on our Facebook Page (http://facebook.com/cebujeepneysroutemap)<br><br> <br>Consolacion to SM City Cebu - White Gold<br><br> <br>Consolacion - Sm Consolacion - Fooda Consolacion - cor. Canduman - Basak - Insular Square - Mandaue City - Pacific Mall - Super Metro Mandaue - Highway - Tipolo - Wireless - Subangdako - Innodata - Mabolo - Sm City Cebu - White Gold Club - White Gold Terminal.]]></description>
        <styleUrl>#line-0000FF-5000</styleUrl>
        <LineString>
          <tessellate>1</tessellate>
          <coordinates>
            123.97675,10.38583,0
            123.9761,10.3854,0
            123.97415,10.38435,0
            123.97294,10.38362,0
            123.97176,10.38268,0
            123.96994,10.38134,0
            123.96962,10.38119,0
            123.96779,10.38065,0
            123.96462,10.37915,0
            123.96369,10.37861,0
            123.96257,10.37769,0
            123.96143,10.37695,0
            123.96113,10.37682,0
            123.95973,10.37646,0
            123.95761,10.37621,0
            123.95689,10.37589,0
            123.95636,10.37556,0
            123.95567,10.37483,0
            123.95515,10.37418,0
            123.9533,10.37065,0
            123.95308,10.36992,0
            123.95301,10.36887,0
            123.9528,10.36837,0
            123.95012,10.36436,0
            123.95002,10.3641,0
            123.9497,10.36095,0
            123.95007,10.35646,0
            123.95002,10.35531,0
            123.94974,10.3534,0
            123.94932,10.35116,0
            123.94822,10.34711,0
            123.94767,10.34457,0
            123.94759,10.34407,0
            123.94766,10.34278,0
            123.94724,10.34148,0
            123.94647,10.34012,0
            123.94569,10.33935,0
            123.94515,10.33894,0
            123.94236,10.33701,0
            123.94083,10.33589,0
            123.93971,10.33515,0
            123.938473,10.334235,0
            123.938216,10.334085,0
            123.935472,10.332114,0
            123.93053,10.32863,0
            123.927,10.32531,0
            123.92511,10.32362,0
            123.92086,10.31992,0
            123.91897,10.31847,0
            123.91606,10.31509,0
            123.91573,10.31481,0
            123.91476,10.31432,0
            123.91467,10.31419,0
            123.91509,10.31349,0
            123.91613,10.31238,0
            123.91052,10.30782,0
            123.911,10.30724,0
            123.91113,10.30717,0
            123.91171,10.30761,0
            123.91178,10.30751,0
          </coordinates>
        </LineString>
      </Placemark>
      <Placemark>
        <name>White Gold to Consolacion</name>
        <description><![CDATA[more cebu jeepneys route maps at cebujeepneys.weebly.com (http://cebujeepneys.weebly.com)<br>Like us on our Facebook Page (http://facebook.com/cebujeepneysroutemap)<br><br> <br>White Gold to Consolacion<br><br> <br>White Gold Terminal - Sm City Cebu - Sm Hypermarket - Cebu North Bus Terminal - Wireless - Subangdako - Tipolo - Highway - Maguikay - Pacific Mall - Super Metro Mandaue - Paknaan - Basak - Cor. Canduman - Consolacion - Fooda Consolacion - Sm City Consolacion - Bagong Daan.]]></description>
        <styleUrl>#line-33FF33-5000</styleUrl>
        <LineString>
          <tessellate>1</tessellate>
          <coordinates>
            123.91181,10.30754,0
            123.9114,10.30801,0
            123.91132,10.30797,0
            123.91124,10.30804,0
            123.91113,10.30799,0
            123.91108,10.30804,0
            123.91256,10.30931,0
            123.91627,10.31228,0
            123.91633,10.3124,0
            123.91763,10.31349,0
            123.91789,10.31365,0
            123.91802,10.31385,0
            123.91848,10.31422,0
            123.91871,10.31434,0
            123.91951,10.31422,0
            123.92019,10.31404,0
            123.92054,10.31388,0
            123.9209,10.31357,0
            123.92158,10.3128,0
            123.92223,10.31337,0
            123.92268,10.31385,0
            123.92456,10.31616,0
            123.925,10.31691,0
            123.92527,10.31755,0
            123.92601,10.31974,0
            123.92607,10.32027,0
            123.92595,10.32103,0
            123.92578,10.32136,0
            123.92575,10.32159,0
            123.92462,10.32314,0
            123.9271,10.32532,0
            123.9303,10.32835,0
            123.93126,10.3291,0
            123.935445,10.332045,0
            123.935526,10.332095,0
            123.938232,10.334043,0
            123.938511,10.334201,0
            123.939831,10.335175,0
            123.940772,10.335813,0
            123.940936,10.335927,0
            123.94104,10.33599,0
            123.9427,10.33719,0
            123.94524,10.33894,0
            123.94599,10.33955,0
            123.94646,10.34003,0
            123.94728,10.34144,0
            123.9477,10.34277,0
            123.94764,10.34407,0
            123.94771,10.34448,0
            123.94827,10.3471,0
            123.94921,10.35048,0
            123.94982,10.35355,0
            123.95007,10.35535,0
            123.95012,10.35604,0
            123.95011,10.35675,0
            123.94975,10.36104,0
            123.95007,10.36411,0
            123.95015,10.36433,0
            123.95285,10.36834,0
            123.95306,10.36888,0
            123.95313,10.36995,0
            123.95332,10.37054,0
            123.9551,10.37397,0
            123.95553,10.37458,0
            123.95639,10.37552,0
            123.95694,10.37586,0
            123.95751,10.37613,0
            123.95986,10.37643,0
            123.9608,10.37666,0
            123.96145,10.37689,0
            123.96247,10.37755,0
            123.96373,10.37855,0
            123.9648,10.37918,0
            123.96771,10.38056,0
            123.96953,10.3811,0
            123.96995,10.3813,0
            123.9731,10.38367,0
            123.97446,10.38446,0
            123.97613,10.38535,0
            123.97677,10.38578,0
          </coordinates>
        </LineString>
      </Placemark>
    </Folder>
  </Document>
</kml>
