<?xml version="1.0" encoding="UTF-8"?>
<kml xmlns="http://www.opengis.net/kml/2.2">
  <Document>
    <name><![CDATA[Cebu Jeepney Route No. 25 (Liloan to SM & White Gold via Highway)]]></name>
    <description/>
    <Style id="line-0000FF-5000-normal">
      <LineStyle>
        <color>ffff0000</color>
        <width>5</width>
      </LineStyle>
    </Style>
    <Style id="line-0000FF-5000-highlight">
      <LineStyle>
        <color>ffff0000</color>
        <width>7.5</width>
      </LineStyle>
    </Style>
    <StyleMap id="line-0000FF-5000">
      <Pair>
        <key>normal</key>
        <styleUrl>#line-0000FF-5000-normal</styleUrl>
      </Pair>
      <Pair>
        <key>highlight</key>
        <styleUrl>#line-0000FF-5000-highlight</styleUrl>
      </Pair>
    </StyleMap>
    <Style id="line-33FF33-5000-normal">
      <LineStyle>
        <color>ff33ff33</color>
        <width>5</width>
      </LineStyle>
    </Style>
    <Style id="line-33FF33-5000-highlight">
      <LineStyle>
        <color>ff33ff33</color>
        <width>7.5</width>
      </LineStyle>
    </Style>
    <StyleMap id="line-33FF33-5000">
      <Pair>
        <key>normal</key>
        <styleUrl>#line-33FF33-5000-normal</styleUrl>
      </Pair>
      <Pair>
        <key>highlight</key>
        <styleUrl>#line-33FF33-5000-highlight</styleUrl>
      </Pair>
    </StyleMap>
    <Folder>
      <name>Untitled layer</name>
      <Placemark>
        <name><![CDATA[Liloan to SM & White Gold via Highway]]></name>
        <description><![CDATA[more cebu jeepneys route maps at cebujeepneys.weebly.com (http://cebujeepneys.weebly.com)<br>Like us on our Facebook Page (http://facebook.com/cebujeepneysroutemap)]]></description>
        <styleUrl>#line-0000FF-5000</styleUrl>
        <LineString>
          <tessellate>1</tessellate>
          <coordinates>
            124.00014,10.39979,0
            124.00018,10.39969,0
            124.00009,10.39932,0
            123.99988,10.39925,0
            123.99967,10.39929,0
            123.99846,10.39985,0
            123.99614,10.40073,0
            123.99358,10.40098,0
            123.99121,10.40133,0
            123.99106,10.4013,0
            123.9908,10.4011,0
            123.99017,10.40041,0
            123.98851,10.39756,0
            123.98809,10.39691,0
            123.98762,10.39632,0
            123.98421,10.39269,0
            123.97817,10.38697,0
            123.97671,10.38582,0
            123.97607,10.38537,0
            123.97305,10.38371,0
            123.96991,10.38132,0
            123.96961,10.38119,0
            123.96781,10.38066,0
            123.9642,10.37893,0
            123.9637,10.37861,0
            123.96207,10.37733,0
            123.96139,10.37692,0
            123.95976,10.37646,0
            123.9575,10.37618,0
            123.95663,10.37575,0
            123.95617,10.37538,0
            123.95516,10.37421,0
            123.95342,10.37092,0
            123.95308,10.36995,0
            123.95303,10.36899,0
            123.9528,10.36837,0
            123.95011,10.36437,0
            123.95002,10.36412,0
            123.94971,10.36127,0
            123.94977,10.35998,0
            123.95008,10.35637,0
            123.95002,10.35529,0
            123.94936,10.35135,0
            123.94821,10.34709,0
            123.94765,10.34448,0
            123.94759,10.34363,0
            123.947601,10.342966,0
            123.947561,10.342782,0
            123.94729,10.3416,0
            123.947142,10.341275,0
            123.946981,10.340956,0
            123.946721,10.34061,0
            123.946501,10.340146,0
            123.945909,10.339555,0
            123.945463,10.339156,0
            123.944986,10.338832,0
            123.942765,10.337283,0
            123.940898,10.33594,0
            123.940493,10.33566,0
            123.939477,10.334982,0
            123.938471,10.33424,0
            123.938208,10.334074,0
            123.936859,10.333122,0
            123.935496,10.332143,0
            123.93482,10.331668,0
            123.93276,10.330216,0
            123.931757,10.329533,0
            123.93125,10.329158,0
            123.930279,10.328406,0
            123.929788,10.327915,0
            123.929295,10.327438,0
            123.928241,10.326496,0
            123.92775,10.326015,0
            123.926623,10.324955,0
            123.925593,10.324047,0
            123.92352,10.32225,0
            123.92351,10.32217,0
            123.92585,10.31942,0
            123.9254,10.31802,0
            123.92508,10.31722,0
            123.92464,10.31642,0
            123.92406,10.3156,0
            123.92264,10.31387,0
            123.92159,10.31286,0
            123.92158,10.31279,0
            123.9225,10.31169,0
            123.91272,10.30378,0
            123.91001,10.30712,0
            123.9111,10.30806,0
          </coordinates>
        </LineString>
      </Placemark>
      <Placemark>
        <name>White Gold to Liloan via J Mall</name>
        <description><![CDATA[more cebu jeepneys route maps at cebujeepneys.weebly.com (http://cebujeepneys.weebly.com)<br>Like us on our Facebook Page (http://facebook.com/cebujeepneysroutemap)]]></description>
        <styleUrl>#line-33FF33-5000</styleUrl>
        <LineString>
          <tessellate>1</tessellate>
          <coordinates>
            123.9111,10.30806,0
            123.91627,10.31229,0
            123.91634,10.3124,0
            123.91756,10.31344,0
            123.91786,10.31363,0
            123.91806,10.3139,0
            123.9187,10.31436,0
            123.91959,10.31421,0
            123.92018,10.31405,0
            123.92053,10.31388,0
            123.92091,10.31359,0
            123.92156,10.31283,0
            123.92161,10.31283,0
            123.92238,10.31354,0
            123.92373,10.31511,0
            123.92455,10.31615,0
            123.92497,10.31691,0
            123.92533,10.31769,0
            123.92602,10.31976,0
            123.92606,10.32042,0
            123.92596,10.32101,0
            123.92577,10.32137,0
            123.92574,10.32158,0
            123.9246,10.32313,0
            123.926988,10.325232,0
            123.928225,10.326406,0
            123.92934,10.3274,0
            123.93033,10.328398,0
            123.93224,10.32982,0
            123.933565,10.330712,0
            123.934866,10.331647,0
            123.935499,10.332082,0
            123.937712,10.333663,0
            123.938229,10.334035,0
            123.938479,10.334193,0
            123.938677,10.334341,0
            123.939879,10.335198,0
            123.940402,10.335552,0
            123.940938,10.335908,0
            123.94104,10.33599,0
            123.94242,10.33699,0
            123.94548,10.33911,0
            123.94606,10.33961,0
            123.946491,10.340061,0
            123.94662,10.34027,0
            123.946759,10.340542,0
            123.946941,10.3408,0
            123.94726,10.3414,0
            123.94755,10.34236,0
            123.947647,10.343051,0
            123.94761,10.34357,0
            123.94768,10.3445,0
            123.94829,10.34738,0
            123.94934,10.35098,0
            123.94983,10.35376,0
            123.95004,10.35538,0
            123.9501,10.35645,0
            123.94972,10.36128,0
            123.95009,10.36418,0
            123.95036,10.36469,0
            123.95286,10.36838,0
            123.95313,10.36906,0
            123.9532,10.37027,0
            123.95336,10.37068,0
            123.95523,10.37421,0
            123.9562,10.37535,0
            123.95692,10.37586,0
            123.95743,10.3761,0
            123.95984,10.37643,0
            123.9612,10.37678,0
            123.9621,10.37728,0
            123.96358,10.37847,0
            123.96433,10.37895,0
            123.96762,10.38051,0
            123.96986,10.38124,0
            123.97104,10.38207,0
            123.97309,10.38367,0
            123.97564,10.38508,0
            123.97659,10.38566,0
            123.97854,10.38724,0
            123.98008,10.38875,0
            123.98436,10.39275,0
            123.98753,10.39616,0
            123.98796,10.39663,0
            123.98823,10.39702,0
            123.98933,10.39879,0
            123.99024,10.4004,0
            123.99082,10.40105,0
            123.99107,10.40125,0
            123.99121,10.40129,0
            123.99286,10.40103,0
            123.99624,10.40066,0
            123.99844,10.39982,0
            123.99961,10.39927,0
            123.99994,10.39923,0
            124.00014,10.39932,0
            124.00022,10.39972,0
          </coordinates>
        </LineString>
      </Placemark>
    </Folder>
  </Document>
</kml>
