<?xml version="1.0" encoding="UTF-8"?>
<kml xmlns="http://www.opengis.net/kml/2.2">
  <Document>
    <name>44A</name>
    <Style id="icon-1899-DB4436-nodesc-normal">
      <IconStyle>
        <color>ff3644db</color>
        <scale>1</scale>
        <Icon>
          <href>https://www.gstatic.com/mapspro/images/stock/503-wht-blank_maps.png</href>
        </Icon>
        <hotSpot x="32" xunits="pixels" y="64" yunits="insetPixels"/>
      </IconStyle>
      <LabelStyle>
        <scale>0</scale>
      </LabelStyle>
      <BalloonStyle>
        <text><![CDATA[<h3>$[name]</h3>]]></text>
      </BalloonStyle>
    </Style>
    <Style id="icon-1899-DB4436-nodesc-highlight">
      <IconStyle>
        <color>ff3644db</color>
        <scale>1</scale>
        <Icon>
          <href>https://www.gstatic.com/mapspro/images/stock/503-wht-blank_maps.png</href>
        </Icon>
        <hotSpot x="32" xunits="pixels" y="64" yunits="insetPixels"/>
      </IconStyle>
      <LabelStyle>
        <scale>1</scale>
      </LabelStyle>
      <BalloonStyle>
        <text><![CDATA[<h3>$[name]</h3>]]></text>
      </BalloonStyle>
    </Style>
    <StyleMap id="icon-1899-DB4436-nodesc">
      <Pair>
        <key>normal</key>
        <styleUrl>#icon-1899-DB4436-nodesc-normal</styleUrl>
      </Pair>
      <Pair>
        <key>highlight</key>
        <styleUrl>#icon-1899-DB4436-nodesc-highlight</styleUrl>
      </Pair>
    </StyleMap>
    <Style id="line-1267FF-5000-nodesc-normal">
      <LineStyle>
        <color>ffff6712</color>
        <width>5</width>
      </LineStyle>
      <BalloonStyle>
        <text><![CDATA[<h3>$[name]</h3>]]></text>
      </BalloonStyle>
    </Style>
    <Style id="line-1267FF-5000-nodesc-highlight">
      <LineStyle>
        <color>ffff6712</color>
        <width>7.5</width>
      </LineStyle>
      <BalloonStyle>
        <text><![CDATA[<h3>$[name]</h3>]]></text>
      </BalloonStyle>
    </Style>
    <StyleMap id="line-1267FF-5000-nodesc">
      <Pair>
        <key>normal</key>
        <styleUrl>#line-1267FF-5000-nodesc-normal</styleUrl>
      </Pair>
      <Pair>
        <key>highlight</key>
        <styleUrl>#line-1267FF-5000-nodesc-highlight</styleUrl>
      </Pair>
    </StyleMap>
    <Placemark>
      <name>44A</name>
      <styleUrl>#line-1267FF-5000-nodesc</styleUrl>
      <LineString>
        <tessellate>1</tessellate>
        <coordinates>
          123.75482,10.20446,0
          123.7552,10.20511,0
          123.75539,10.20542,0
          123.75547,10.20554,0
          123.7556,10.20568,0
          123.75584,10.20588,0
          123.756,10.20598,0
          123.75618,10.20611,0
          123.75622,10.20614,0
          123.75624,10.20615,0
          123.75638,10.20624,0
          123.75641,10.20626,0
          123.75648,10.20631,0
          123.75657,10.20637,0
          123.75682,10.20653,0
          123.75716,10.20678,0
          123.75731,10.20688,0
          123.75773,10.20716,0
          123.75799,10.20735,0
          123.75817,10.20757,0
          123.75821,10.20764,0
          123.75837,10.20788,0
          123.75844,10.208,0
          123.75845,10.20803,0
          123.75851,10.20813,0
          123.75859,10.20827,0
          123.7586,10.20829,0
          123.75866,10.20848,0
          123.75872,10.20878,0
          123.75873,10.20881,0
          123.75875,10.20898,0
          123.75876,10.20908,0
          123.75877,10.20917,0
          123.75878,10.20927,0
          123.75878,10.20932,0
          123.7588,10.20957,0
          123.75882,10.20998,0
          123.75884,10.21013,0
          123.75889,10.21048,0
          123.75897,10.21105,0
          123.75913,10.21199,0
          123.75926,10.21272,0
          123.75928,10.21278,0
          123.7593,10.21292,0
          123.75952,10.21404,0
          123.75961,10.21452,0
          123.75973,10.21503,0
          123.7598,10.21531,0
          123.7599,10.21576,0
          123.76002,10.21633,0
          123.7602,10.2169,0
          123.76026,10.21714,0
          123.76035,10.21734,0
          123.7604,10.21742,0
          123.76084,10.2182,0
          123.7611,10.21872,0
          123.76122,10.21897,0
          123.76137,10.21926,0
          123.76155,10.21966,0
          123.7616,10.21979,0
          123.76163,10.21986,0
          123.76178,10.2202,0
          123.76185,10.22037,0
          123.76204,10.22081,0
          123.76206,10.22087,0
          123.76212,10.22102,0
          123.76236,10.22163,0
          123.76239,10.22172,0
          123.76259,10.22225,0
          123.76276,10.22264,0
          123.76286,10.22285,0
          123.76312,10.22331,0
          123.76338,10.22373,0
          123.76365,10.22417,0
          123.7638,10.22438,0
          123.76429,10.22495,0
          123.76471,10.22538,0
          123.76498,10.22569,0
          123.76568,10.22642,0
          123.76574,10.2265,0
          123.76594,10.22674,0
          123.76626,10.22712,0
          123.76738,10.22839,0
          123.76761,10.22865,0
          123.76792,10.22901,0
          123.76796,10.22905,0
          123.76803,10.22914,0
          123.76807,10.22918,0
          123.76825,10.22939,0
          123.76948,10.23078,0
          123.77038,10.2318,0
          123.77046,10.23188,0
          123.7711,10.2326,0
          123.77115,10.23266,0
          123.77146,10.233,0
          123.77193,10.23353,0
          123.77223,10.23388,0
          123.77252,10.23422,0
          123.77318,10.23495,0
          123.7738,10.23565,0
          123.77403,10.23591,0
          123.77432,10.23622,0
          123.7745,10.2364,0
          123.77477,10.23662,0
          123.77506,10.23684,0
          123.77523,10.23696,0
          123.77529,10.23699,0
          123.77589,10.23733,0
          123.77634,10.23757,0
          123.77718,10.23797,0
          123.77745,10.23809,0
          123.77752,10.23812,0
          123.77837,10.23852,0
          123.77896,10.23879,0
          123.77953,10.23906,0
          123.77968,10.23913,0
          123.78043,10.23948,0
          123.78242,10.2404,0
          123.78305,10.24071,0
          123.7831,10.24073,0
          123.78343,10.2409,0
          123.78348,10.24092,0
          123.78376,10.24106,0
          123.78439,10.24136,0
          123.78456,10.24144,0
          123.78485,10.24158,0
          123.78493,10.24162,0
          123.78544,10.24186,0
          123.78575,10.24201,0
          123.78595,10.24211,0
          123.78611,10.24219,0
          123.7863,10.24228,0
          123.78635,10.24231,0
          123.78641,10.24234,0
          123.78652,10.24239,0
          123.78723,10.24271,0
          123.78727,10.24273,0
          123.7877,10.24292,0
          123.78789,10.24299,0
          123.78805,10.24305,0
          123.78818,10.24309,0
          123.78923,10.24341,0
          123.7895,10.24349,0
          123.78974,10.24357,0
          123.79035,10.24376,0
          123.7904,10.24378,0
          123.79094,10.24395,0
          123.79099,10.24397,0
          123.79117,10.24402,0
          123.79205,10.24428,0
          123.79274,10.24453,0
          123.79415,10.24489,0
          123.79537,10.24521,0
          123.79541,10.24522,0
          123.7959,10.24537,0
          123.79591,10.24537,0
          123.79669,10.24564,0
          123.79705,10.24576,0
          123.79748,10.2459,0
          123.79823,10.24617,0
          123.79903,10.24645,0
          123.7991,10.24648,0
          123.79951,10.24667,0
          123.79967,10.24678,0
          123.79988,10.24691,0
          123.79996,10.24696,0
          123.80002,10.247,0
          123.80006,10.24703,0
          123.8001,10.24706,0
          123.80031,10.2472,0
          123.80059,10.2474,0
          123.8015,10.24806,0
          123.80209,10.24848,0
          123.80262,10.2489,0
          123.8031,10.24923,0
          123.8033,10.24939,0
          123.80363,10.24964,0
          123.80381,10.24978,0
          123.80398,10.24992,0
          123.8042,10.25009,0
          123.80439,10.25024,0
          123.80445,10.25029,0
          123.80474,10.25052,0
          123.80476,10.25054,0
          123.80504,10.25076,0
          123.8054,10.25106,0
          123.80553,10.25117,0
          123.80619,10.25169,0
          123.80646,10.2519,0
          123.80657,10.25199,0
          123.8067,10.25209,0
          123.80678,10.25215,0
          123.80694,10.25227,0
          123.80709,10.25238,0
          123.80711,10.2524,0
          123.80733,10.25256,0
          123.80745,10.25266,0
          123.80809,10.25315,0
          123.80831,10.25332,0
          123.80847,10.25344,0
          123.80861,10.25354,0
          123.80937,10.25408,0
          123.80947,10.25415,0
          123.81046,10.25479,0
          123.81054,10.25483,0
          123.81077,10.25499,0
          123.81124,10.25527,0
          123.81167,10.2555,0
          123.81178,10.25556,0
          123.81182,10.25558,0
          123.81187,10.25561,0
          123.81314,10.25622,0
          123.8132,10.25625,0
          123.81406,10.25667,0
          123.81429,10.25678,0
          123.81459,10.2569,0
          123.81492,10.25703,0
          123.81504,10.25708,0
          123.81516,10.25712,0
          123.81543,10.25721,0
          123.81546,10.25722,0
          123.81589,10.25735,0
          123.81616,10.25742,0
          123.81632,10.25746,0
          123.8166,10.25752,0
          123.81755,10.25771,0
          123.81771,10.25774,0
          123.81786,10.25777,0
          123.81815,10.25782,0
          123.81854,10.25789,0
          123.81868,10.25792,0
          123.81871,10.25792,0
          123.81877,10.25793,0
          123.81887,10.25795,0
          123.81894,10.25796,0
          123.81898,10.25797,0
          123.81919,10.258,0
          123.81924,10.25801,0
          123.81971,10.25807,0
          123.81996,10.25811,0
          123.82002,10.25812,0
          123.82012,10.25813,0
          123.8202,10.25814,0
          123.82057,10.2582,0
          123.82086,10.25824,0
          123.82105,10.25827,0
          123.82142,10.25832,0
          123.82186,10.25837,0
          123.82194,10.25838,0
          123.82202,10.25839,0
          123.82227,10.25842,0
          123.8223,10.25843,0
          123.82273,10.25847,0
          123.82345,10.25854,0
          123.82377,10.25857,0
          123.82382,10.25857,0
          123.82387,10.25858,0
          123.82392,10.25858,0
          123.82402,10.25859,0
          123.82405,10.25859,0
          123.82413,10.2586,0
          123.82437,10.25861,0
          123.8247,10.25865,0
          123.82494,10.25867,0
          123.82507,10.25868,0
          123.82508,10.25869,0
          123.82518,10.2587,0
          123.82594,10.25878,0
          123.82598,10.25879,0
          123.826,10.25879,0
          123.82625,10.25882,0
          123.82627,10.25882,0
          123.82635,10.25883,0
          123.82642,10.25884,0
          123.82655,10.25886,0
          123.82692,10.25892,0
          123.82746,10.25901,0
          123.82764,10.25903,0
          123.82793,10.25907,0
          123.82915,10.25925,0
          123.82974,10.25936,0
          123.82988,10.25939,0
          123.83026,10.25948,0
          123.83094,10.25964,0
          123.83166,10.25986,0
          123.83172,10.25988,0
          123.83199,10.25996,0
          123.83214,10.26,0
          123.83218,10.26002,0
          123.83221,10.26003,0
          123.83307,10.26032,0
          123.83339,10.26044,0
          123.83345,10.26046,0
          123.83368,10.26054,0
          123.83397,10.2606,0
          123.83421,10.26067,0
          123.83516,10.26102,0
          123.83565,10.26121,0
          123.83613,10.26141,0
          123.83618,10.26142,0
          123.83634,10.26149,0
          123.83668,10.26166,0
          123.83693,10.26177,0
          123.83765,10.26209,0
          123.83781,10.26216,0
          123.83805,10.2623,0
          123.83826,10.26241,0
          123.83859,10.2626,0
          123.83862,10.26269,0
          123.8394,10.2635,0
          123.83946,10.26357,0
          123.83953,10.26364,0
          123.84028,10.26446,0
          123.8404,10.26453,0
          123.84111,10.2653,0
          123.84152,10.26578,0
          123.84153,10.26579,0
          123.84189,10.26619,0
          123.84207,10.26639,0
          123.84228,10.2666,0
          123.84259,10.26693,0
          123.84294,10.26732,0
          123.84336,10.26777,0
          123.84339,10.2678,0
          123.84402,10.26849,0
          123.8447,10.26924,0
          123.84492,10.26947,0
          123.84523,10.26982,0
          123.84538,10.26999,0
          123.84555,10.27016,0
          123.84576,10.2704,0
          123.84599,10.27065,0
          123.84613,10.27082,0
          123.84642,10.27113,0
          123.84647,10.27119,0
          123.84654,10.27126,0
          123.84663,10.27132,0
          123.84668,10.27135,0
          123.84673,10.27138,0
          123.8468,10.27144,0
          123.84689,10.2715,0
          123.84707,10.27162,0
          123.84737,10.27182,0
          123.84768,10.27202,0
          123.84783,10.27211,0
          123.84793,10.27217,0
          123.84808,10.27229,0
          123.84828,10.27248,0
          123.8488,10.273,0
          123.849,10.27319,0
          123.84914,10.27332,0
          123.84935,10.27354,0
          123.84939,10.27358,0
          123.84941,10.27365,0
          123.84957,10.2738,0
          123.8497,10.27392,0
          123.85052,10.27472,0
          123.85059,10.27479,0
          123.85065,10.27486,0
          123.85142,10.27561,0
          123.85154,10.27573,0
          123.85182,10.276,0
          123.85185,10.27603,0
          123.8524,10.27657,0
          123.85267,10.27685,0
          123.85278,10.27696,0
          123.85281,10.27699,0
          123.85292,10.2771,0
          123.85301,10.27719,0
          123.85321,10.27741,0
          123.85345,10.27766,0
          123.85351,10.27771,0
          123.85363,10.27784,0
          123.85372,10.27792,0
          123.85379,10.27799,0
          123.85453,10.27869,0
          123.85475,10.27891,0
          123.85479,10.27895,0
          123.85516,10.27931,0
          123.85521,10.27936,0
          123.85543,10.27958,0
          123.85564,10.27981,0
          123.85569,10.27986,0
          123.85621,10.28042,0
          123.85664,10.28091,0
          123.857,10.2813,0
          123.85752,10.28189,0
          123.85774,10.28215,0
          123.85789,10.28234,0
          123.85803,10.28252,0
          123.85813,10.28263,0
          123.85819,10.2827,0
          123.85828,10.28275,0
          123.85852,10.28301,0
          123.85899,10.28355,0
          123.85904,10.28361,0
          123.85912,10.28371,0
          123.85939,10.28401,0
          123.85971,10.28437,0
          123.85973,10.2844,0
          123.8602,10.28494,0
          123.86039,10.28516,0
          123.86041,10.28518,0
          123.86051,10.2853,0
          123.86057,10.28537,0
          123.86068,10.2855,0
          123.86085,10.28569,0
          123.86119,10.28608,0
          123.86153,10.28645,0
          123.86191,10.28679,0
          123.86202,10.28688,0
          123.86216,10.28698,0
          123.86222,10.28701,0
          123.86247,10.28717,0
          123.86255,10.28722,0
          123.86269,10.28729,0
          123.86283,10.28736,0
          123.86307,10.28748,0
          123.86309,10.28749,0
          123.86334,10.2876,0
          123.86388,10.28783,0
          123.86466,10.28813,0
          123.86483,10.28821,0
          123.86528,10.28839,0
          123.8653,10.2884,0
          123.86544,10.28846,0
          123.86551,10.28848,0
          123.86564,10.28853,0
          123.86573,10.28856,0
          123.86608,10.28867,0
          123.86648,10.28878,0
          123.86671,10.28884,0
          123.86736,10.28901,0
          123.86769,10.2891,0
          123.86801,10.28917,0
          123.86872,10.28935,0
          123.8689,10.28939,0
          123.86926,10.28948,0
          123.86956,10.28957,0
          123.87001,10.28966,0
          123.87015,10.28969,0
          123.87038,10.28972,0
          123.87047,10.28973,0
          123.87072,10.28974,0
          123.87071,10.28984,0
          123.87069,10.29004,0
          123.87067,10.29026,0
          123.87064,10.29069,0
          123.87059,10.29113,0
          123.87054,10.29172,0
          123.87051,10.29205,0
          123.87049,10.29215,0
          123.87048,10.29224,0
          123.87046,10.29256,0
          123.87044,10.29274,0
          123.8704,10.29306,0
          123.87034,10.29338,0
          123.87028,10.29369,0
          123.87027,10.29373,0
        </coordinates>
      </LineString>
    </Placemark>
    <Placemark>
      <name>Point 1</name>
      <styleUrl>#icon-1899-DB4436-nodesc</styleUrl>
      <Point>
        <coordinates>
          123.7548169,10.2044575,0
        </coordinates>
      </Point>
    </Placemark>
    <Placemark>
      <name>Point 2</name>
      <styleUrl>#icon-1899-DB4436-nodesc</styleUrl>
      <Point>
        <coordinates>
          123.8702667,10.2937309,0
        </coordinates>
      </Point>
    </Placemark>
  </Document>
</kml>
