<?xml version="1.0" encoding="UTF-8"?>
<kml xmlns="http://www.opengis.net/kml/2.2">
  <Document>
    <name>Cebu Jeepney Route No. 62B</name>
    <description><![CDATA[Pit-os to Carbon<br><br>Pit-os to talamban<br>Pit-os to Country mall  <br>Pit-os to Ayala <br>pit-os to gorordo ave. <br>pit-os to gen. echavez st. <br>pit-os to manalili st. <br>pit-os to carbon<br>pit-os to sto. nino<br>talamban to san carlos<br>talamban to gaisano country mall<br>talamban to ayala <br>talamban to echavez st. <br>talamban to manalili st. <br>talamban to carbon<br>talamban to sto. nino<br>country mall to ayala<br>country mall to manalili st.<br>country mall to carbon<br>country mall to sto. nino<br>ayala to manalili st.<br>ayala to carbon<br>ayala to sto. nino<br><br>Carbon to Pit-os<br><br>Carbon to imus ave. <br>carbon to ayala <br>carbon to metro ayala<br>carbon to country mall<br>carbon to uc banilad<br>carbon to banilad<br>carbon to san carlos banilad<br>carbon to talamban<br>carbon to bacayan <br>carbon to pit-os<br>uv to ayala<br>uv to country mall<br>uv to banilad<br>uv to san carlos banilad<br>uv to talamban<br>uv to bacayan<br>uv to pit-os<br>ayala to country mall<br>ayala to banilad<br>ayala to san carlos banilad<br>ayala to talamban<br>ayala to bacaya<br>ayala to pit-os <br>country mall to san carlos<br>]]></description>
    <Style id="line-0000FF-5000-normal">
      <LineStyle>
        <color>ffff0000</color>
        <width>5</width>
      </LineStyle>
    </Style>
    <Style id="line-0000FF-5000-highlight">
      <LineStyle>
        <color>ffff0000</color>
        <width>7.5</width>
      </LineStyle>
    </Style>
    <StyleMap id="line-0000FF-5000">
      <Pair>
        <key>normal</key>
        <styleUrl>#line-0000FF-5000-normal</styleUrl>
      </Pair>
      <Pair>
        <key>highlight</key>
        <styleUrl>#line-0000FF-5000-highlight</styleUrl>
      </Pair>
    </StyleMap>
    <Style id="line-33FF33-5000-normal">
      <LineStyle>
        <color>ff33ff33</color>
        <width>5</width>
      </LineStyle>
    </Style>
    <Style id="line-33FF33-5000-highlight">
      <LineStyle>
        <color>ff33ff33</color>
        <width>7.5</width>
      </LineStyle>
    </Style>
    <StyleMap id="line-33FF33-5000">
      <Pair>
        <key>normal</key>
        <styleUrl>#line-33FF33-5000-normal</styleUrl>
      </Pair>
      <Pair>
        <key>highlight</key>
        <styleUrl>#line-33FF33-5000-highlight</styleUrl>
      </Pair>
    </StyleMap>
    <Folder>
      <name>Untitled layer</name>
      <Placemark>
        <name>Pit-os to Carbon</name>
        <description><![CDATA[more cebu jeepneys route map at cebujeepneys.weebly.com (http://cebujeepneys.weebly.com)<br>Like us on our Facebook Page. (http://www.facebook.com/cebujeepneysroutemap)<br><br> <br>Pit-os - Bacayan - Talamban - Gov. M. Cuenco Gaisano Talamban - The Family Park - University of San Carlos (talamban campus) - Gaisano Country Mall - UC-Banilad - Banilad - Pope John Paul 2 Ave. - Cebu Business Park - Ayala Center Cebu - Marriot Hotel - Samar Loop - Luzon Ave. - Arch. Reyes Ave. - Gorordo Ave. - Asilo dela Milagrosa - Gen. Echavez St. - Sikatuna St. - Zapatera - colon Obelisk - V. Gullas St. - Manalili St. - Carbon Public Market - Progreso St.]]></description>
        <styleUrl>#line-0000FF-5000</styleUrl>
        <LineString>
          <tessellate>1</tessellate>
          <coordinates>
            123.92164,10.39618,0
            123.92164,10.39591,0
            123.92184,10.39516,0
            123.92212,10.3947,0
            123.92246,10.39438,0
            123.92267,10.39384,0
            123.92271,10.3935,0
            123.92263,10.39323,0
            123.92172,10.39202,0
            123.92155,10.39152,0
            123.92162,10.39012,0
            123.92133,10.38845,0
            123.92137,10.38821,0
            123.92124,10.38622,0
            123.92137,10.38412,0
            123.92124,10.3838,0
            123.92122,10.38326,0
            123.92077,10.38217,0
            123.92069,10.38037,0
            123.91979,10.3777,0
            123.91933,10.37516,0
            123.91921,10.37485,0
            123.91872,10.37396,0
            123.91725,10.37185,0
            123.9167,10.37063,0
            123.91667,10.37033,0
            123.91646,10.36998,0
            123.91646,10.36989,0
            123.91676,10.36933,0
            123.91674,10.36929,0
            123.916,10.36896,0
            123.91398,10.36768,0
            123.91383,10.3673,0
            123.91378,10.36549,0
            123.91389,10.36517,0
            123.91457,10.36446,0
            123.91472,10.36415,0
            123.91531,10.36211,0
            123.91535,10.3618,0
            123.91532,10.36074,0
            123.91569,10.35884,0
            123.91567,10.35862,0
            123.91511,10.35768,0
            123.91507,10.35577,0
            123.91494,10.35535,0
            123.91471,10.3549,0
            123.91396,10.35255,0
            123.91375,10.3514,0
            123.91352,10.35049,0
            123.91209,10.34239,0
            123.91177,10.33994,0
            123.91148,10.33863,0
            123.91073,10.33428,0
            123.91023,10.33177,0
            123.910136,10.331486,0
            123.910004,10.331124,0
            123.909798,10.330644,0
            123.909529,10.330005,0
            123.909216,10.329219,0
            123.908974,10.328646,0
            123.908609,10.327863,0
            123.908459,10.327528,0
            123.908314,10.32738,0
            123.907952,10.326517,0
            123.90773,10.326142,0
            123.907579,10.326015,0
            123.907539,10.32591,0
            123.907716,10.325606,0
            123.908277,10.324701,0
            123.908792,10.323897,0
            123.909301,10.323057,0
            123.909996,10.321933,0
            123.910511,10.321081,0
            123.910718,10.320683,0
            123.910106,10.320289,0
            123.909028,10.319616,0
            123.908247,10.318885,0
            123.907891,10.318471,0
            123.907966,10.318279,0
            123.908355,10.317909,0
            123.908752,10.317529,0
            123.908867,10.317395,0
            123.908955,10.317231,0
            123.909006,10.316925,0
            123.908958,10.31655,0
            123.908811,10.316207,0
            123.908556,10.315938,0
            123.908422,10.315782,0
            123.908113,10.315579,0
            123.907727,10.315529,0
            123.907539,10.315571,0
            123.907059,10.315824,0
            123.906756,10.315956,0
            123.906413,10.316059,0
            123.90571,10.316244,0
            123.904986,10.316416,0
            123.904535,10.316584,0
            123.904363,10.316661,0
            123.904138,10.316838,0
            123.903993,10.316988,0
            123.903704,10.317244,0
            123.903307,10.317447,0
            123.902615,10.31773,0
            123.902531,10.317653,0
            123.90233,10.317241,0
            123.902075,10.316656,0
            123.901971,10.316397,0
            123.901853,10.315964,0
            123.901719,10.315452,0
            123.901673,10.315302,0
            123.901788,10.315006,0
            123.902075,10.314526,0
            123.902451,10.313777,0
            123.902722,10.31323,0
            123.903041,10.312613,0
            123.903277,10.312143,0
            123.903682,10.311206,0
            123.903899,10.31065,0
            123.903797,10.310217,0
            123.903583,10.309581,0
            123.903336,10.308763,0
            123.903092,10.307971,0
            123.902794,10.307317,0
            123.902518,10.306718,0
            123.902368,10.306485,0
            123.902196,10.30634,0
            123.901931,10.306116,0
            123.901451,10.30577,0
            123.901456,10.305673,0
            123.901595,10.305369,0
            123.901617,10.30515,0
            123.901668,10.304723,0
            123.901732,10.304105,0
            123.901837,10.303303,0
            123.901915,10.302783,0
            123.902,10.302398,0
            123.90218,10.302015,0
            123.902641,10.301171,0
            123.902877,10.300653,0
            123.902955,10.300358,0
            123.903103,10.300147,0
            123.903274,10.299806,0
            123.903336,10.299284,0
            123.903411,10.298991,0
            123.90354,10.298737,0
            123.903706,10.298318,0
            123.903725,10.298025,0
            123.903789,10.297779,0
            123.903856,10.297349,0
            123.903827,10.297217,0
            123.9034,10.297157,0
            123.902556,10.296998,0
            123.90218,10.296924,0
            123.901611,10.296914,0
            123.901359,10.296872,0
            123.900868,10.296679,0
            123.900423,10.296476,0
            123.900233,10.296397,0
            123.900083,10.296283,0
            123.899541,10.295761,0
            123.899283,10.295143,0
            123.899058,10.294407,0
            123.8989,10.293853,0
            123.898733,10.29342,0
            123.898449,10.292401,0
            123.89931,10.292116,0
            123.899439,10.291974,0
          </coordinates>
        </LineString>
      </Placemark>
      <Placemark>
        <name>Carbon to Pit-os</name>
        <description><![CDATA[more cebu jeepneys route maps at cebujeepneys.weebly.com (http://cebujeepneys.weebly.com)<br>Like us on our Facebook Page.<br><br> <br>Carbon Public Market - MC. Briones St. - D. Jakosalem St. - Cebu City Hall - Basilica del Sto. Nino - The Freeman - Gaisano main - University of the Visayas - Imus Ave. - Gen. Maxilom Ave.( Mango Ave.) - Sorsogon Rd. - Negros Rd. - Cardinal Rosales Ave. - Luzon Ave. - Metro Ayala - Ayala PUJ Terminal - Arch. Reyes Ave. - Quest Hotel - Honkong Plaza Hotel - Gov. M. Cuenco Ave. - Banilad - Gaisano Country Mall - BTC - Foodland - Univesity of San Carlos (Talamban) - The Family Park - Talamban - Gaisano Grand Talamban - Talamban Rd. - Bacayan - Pit-os]]></description>
        <styleUrl>#line-33FF33-5000</styleUrl>
        <LineString>
          <tessellate>1</tessellate>
          <coordinates>
            123.899426,10.291971,0
            123.899756,10.292032,0
            123.900161,10.292129,0
            123.901094,10.292388,0
            123.901057,10.29262,0
            123.90103,10.292778,0
            123.901057,10.292947,0
            123.901169,10.293306,0
            123.901303,10.293765,0
            123.901491,10.294425,0
            123.901636,10.294877,0
            123.901808,10.295549,0
            123.902084,10.296373,0
            123.902197,10.296819,0
            123.902199,10.296967,0
            123.902223,10.297093,0
            123.902226,10.297331,0
            123.90217,10.297574,0
            123.902097,10.297737,0
            123.901953,10.298389,0
            123.90181,10.299007,0
            123.901733,10.299268,0
            123.901714,10.299666,0
            123.901615,10.300107,0
            123.901483,10.300429,0
            123.901357,10.300709,0
            123.901132,10.301036,0
            123.900955,10.301287,0
            123.900829,10.30164,0
            123.901615,10.301851,0
            123.902084,10.301986,0
            123.902229,10.302052,0
            123.902494,10.302321,0
            123.902808,10.302743,0
            123.903339,10.303548,0
            123.904117,10.304609,0
            123.904621,10.305366,0
            123.905523,10.306588,0
            123.906215,10.307464,0
            123.906738,10.308103,0
            123.907204,10.308726,0
            123.907156,10.308839,0
            123.9067,10.309085,0
            123.905716,10.309663,0
            123.905168,10.309971,0
            123.90505,10.310647,0
            123.90493,10.311423,0
            123.905262,10.31161,0
            123.904822,10.312608,0
            123.904455,10.313431,0
            123.90427,10.313895,0
            123.904782,10.314088,0
            123.904965,10.314194,0
            123.905024,10.314241,0
            123.905166,10.314373,0
            123.905219,10.314489,0
            123.905429,10.314919,0
            123.90563,10.31545,0
            123.905847,10.315985,0
            123.905871,10.316096,0
            123.905726,10.31626,0
            123.904975,10.31645,0
            123.904568,10.3166,0
            123.904257,10.316777,0
            123.903988,10.31702,0
            123.903733,10.317255,0
            123.90328,10.317474,0
            123.902636,10.317764,0
            123.902996,10.318455,0
            123.903202,10.318912,0
            123.903417,10.318796,0
            123.90365,10.318695,0
            123.90372,10.318864,0
            123.90335,10.319023,0
            123.90331,10.318954,0
            123.903235,10.318983,0
            123.903452,10.31949,0
            123.903508,10.319672,0
            123.903846,10.320305,0
            123.903956,10.320561,0
            123.904283,10.321055,0
            123.904737,10.321743,0
            123.905227,10.322487,0
            123.90593,10.323522,0
            123.906719,10.324691,0
            123.907041,10.325166,0
            123.907338,10.325575,0
            123.907617,10.325897,0
            123.907845,10.326105,0
            123.907931,10.326219,0
            123.907993,10.326327,0
            123.908105,10.326591,0
            123.908242,10.326939,0
            123.908473,10.327456,0
            123.908674,10.327931,0
            123.909068,10.328749,0
            123.909232,10.329127,0
            123.909524,10.329876,0
            123.909886,10.330752,0
            123.910034,10.331079,0
            123.910275,10.331728,0
            123.910418,10.332417,0
            123.910514,10.33295,0
            123.910686,10.333837,0
            123.910788,10.334309,0
            123.910951,10.335235,0
            123.911061,10.335874,0
            123.911217,10.336795,0
            123.911372,10.337737,0
            123.911547,10.338663,0
            123.911716,10.339457,0
            123.911842,10.339972,0
            123.91193,10.340718,0
            123.912008,10.341486,0
            123.912064,10.341866,0
            123.912188,10.342637,0
            123.912322,10.343436,0
            123.912475,10.344281,0
            123.912641,10.345267,0
            123.912754,10.34598,0
            123.912845,10.346439,0
            123.912995,10.347241,0
            123.913084,10.347679,0
            123.913223,10.348405,0
            123.913365,10.349083,0
            123.913494,10.349998,0
            123.913556,10.350336,0
            123.913599,10.350547,0
            123.913762,10.351202,0
            123.913805,10.351399,0
            123.913921,10.352012,0
            123.914012,10.352537,0
            123.914288,10.353381,0
            123.914454,10.35393,0
            123.914556,10.354312,0
            123.914757,10.354869,0
            123.914991,10.355341,0
            123.915117,10.355742,0
            123.915141,10.35655,0
            123.915133,10.357413,0
            123.91516,10.357663,0
            123.915302,10.357927,0
            123.915514,10.358207,0
            123.91571,10.358555,0
            123.915755,10.35869,0
            123.915731,10.359038,0
            123.915608,10.3597,0
            123.915549,10.360009,0
            123.915516,10.360202,0
            123.91538,10.360769,0
            123.915358,10.361014,0
            123.915406,10.361457,0
            123.915423,10.361737,0
            123.915361,10.36213,0
            123.915187,10.36275,0
            123.914924,10.363629,0
            123.914792,10.364175,0
            123.914621,10.364486,0
            123.914334,10.364814,0
            123.914081,10.36503,0
            123.913921,10.365217,0
            123.913837,10.365494,0
            123.913843,10.366217,0
            123.913867,10.367091,0
            123.913899,10.367368,0
            123.913915,10.36746,0
            123.914055,10.367666,0
            123.914478,10.367953,0
            123.9149,10.368214,0
            123.91571,10.368718,0
            123.916141,10.36898,0
            123.916831,10.369283,0
            123.916707,10.369539,0
            123.916552,10.369816,0
            123.91652,10.369953,0
            123.916734,10.370294,0
            123.916764,10.37065,0
            123.917048,10.371243,0
            123.917244,10.371668,0
            123.917319,10.371863,0
            123.917477,10.372064,0
            123.917984,10.372811,0
            123.918526,10.373562,0
            123.918781,10.37394,0
            123.919143,10.374652,0
            123.919325,10.375008,0
            123.91939,10.375177,0
            123.919494,10.375784,0
            123.919671,10.376729,0
            123.919848,10.377676,0
            123.920025,10.378251,0
            123.920267,10.37895,0
            123.920535,10.379712,0
            123.920749,10.380338,0
            123.920782,10.380863,0
            123.920798,10.381554,0
            123.92083,10.382169,0
            123.921036,10.382757,0
            123.921267,10.383261,0
            123.921326,10.383385,0
            123.921302,10.383791,0
            123.921412,10.384108,0
            123.921447,10.384459,0
            123.921361,10.385184,0
            123.921323,10.385852,0
            123.921297,10.386266,0
            123.921299,10.386804,0
            123.921353,10.387332,0
            123.92138,10.387918,0
            123.921439,10.388176,0
            123.921417,10.388319,0
            123.921382,10.388466,0
            123.92142,10.388717,0
            123.921525,10.389084,0
            123.921635,10.389701,0
            123.921675,10.39012,0
            123.921672,10.390619,0
            123.921632,10.391131,0
            123.921597,10.391392,0
            123.921605,10.391503,0
            123.921651,10.391685,0
            123.921766,10.39198,0
            123.922168,10.392516,0
            123.922426,10.39283,0
            123.922675,10.393223,0
            123.922742,10.393402,0
            123.922777,10.393526,0
            123.922764,10.393653,0
            123.922721,10.393888,0
            123.922622,10.394162,0
            123.922498,10.394413,0
            123.92219,10.394721,0
            123.922096,10.394856,0
            123.921873,10.395199,0
            123.921755,10.395642,0
            123.921694,10.396041,0
            123.921686,10.396204,0
          </coordinates>
        </LineString>
      </Placemark>
    </Folder>
  </Document>
</kml>
