<?xml version="1.0" encoding="UTF-8"?>
<kml xmlns="http://www.opengis.net/kml/2.2">
  <Document>
    <name>Cebu Jeepney Route No. 62C</name>
    <description><![CDATA[PIT-OS TO CARBON<br><br>pit-os to talamban<br>pit-os to banilad<br>pit-os to country mall<br>pit-os to ayala<br>pit-os to colon<br>pit-os to carbon<br>bacayan to colon<br>bacayan to ayala<br>talamban to banilad<br>talamban to Ayala<br>talamban to colon<br>talamban to carbon<br>banilad to ayala<br>banilad to usc seminary<br>banilad to echavez st. <br>banilad to ramos<br>talamban to ramos<br>pit-os to ramos<br>bacayan to ramos<br>banilad to colon<br>banilad to uv<br>banilad to carbon<br>ramos to carbon<br><br>CARBON  TO PIT-OS<br><br>carbon to ramos<br>carbon to ayala <br>carbon to banilad<br>carbon to talamban<br>carbon to bacayan <br>carbon to pit-os<br>colon to ramos<br>colon to ayala<br>colon to banilad<br>colon to talamban<br>colon to bacayan<br>colon to pit-os<br>ramos to ayala<br>ramos to banilad<br>ramos to country mall<br>ramos to talamban<br>ramos to usc talamban<br>ramos to pit-os <br>ayala to country mall<br>ayala to paradise<br>ayala to banilad<br>ayala to usc talamban<br>ayala to talamban<br>ayala to pit-os<br>banilad to  talamban<br>banilad to pit-os<br>banilad to  bacayan<br>banilad to country mall<br>banilad to usc talamban]]></description>
    <Style id="line-0000FF-5000-normal">
      <LineStyle>
        <color>ffff0000</color>
        <width>5</width>
      </LineStyle>
    </Style>
    <Style id="line-0000FF-5000-highlight">
      <LineStyle>
        <color>ffff0000</color>
        <width>7.5</width>
      </LineStyle>
    </Style>
    <StyleMap id="line-0000FF-5000">
      <Pair>
        <key>normal</key>
        <styleUrl>#line-0000FF-5000-normal</styleUrl>
      </Pair>
      <Pair>
        <key>highlight</key>
        <styleUrl>#line-0000FF-5000-highlight</styleUrl>
      </Pair>
    </StyleMap>
    <Style id="line-33FF33-5000-normal">
      <LineStyle>
        <color>ff33ff33</color>
        <width>5</width>
      </LineStyle>
    </Style>
    <Style id="line-33FF33-5000-highlight">
      <LineStyle>
        <color>ff33ff33</color>
        <width>7.5</width>
      </LineStyle>
    </Style>
    <StyleMap id="line-33FF33-5000">
      <Pair>
        <key>normal</key>
        <styleUrl>#line-33FF33-5000-normal</styleUrl>
      </Pair>
      <Pair>
        <key>highlight</key>
        <styleUrl>#line-33FF33-5000-highlight</styleUrl>
      </Pair>
    </StyleMap>
    <Folder>
      <name>Untitled layer</name>
      <Placemark>
        <name>Pit-os to Carbon</name>
        <description><![CDATA[more cebu jeepneys route map at cebujeepneys.weebly.com (http://cebujeepneys.weebly.com)<br><br> <br>Pit-os - Talamban - Gaisano Grand Talamban - USC-talamban - Banilad - Gaisano Country mall -  Gov. M.Cuenco ave. - Juan Luna Ave. - Sn. Carlos Seminary College - C. Rosales Ave. - Ayala Center Cebu - Keppel - Samar Loop - Luzon Ave. - Arch. Reyes ave. - Hotel Elizabeth -  Asilo  dela Milagrosa - Gorordo ave. -  G. Echavez St. - Sikatuna St. - D. Jakosalem st. - Ramos Public Market - Junquera St. ext. - Junquera st. - University of San Carlos (main) - Colon St. - Gaisano Main - University of the visayas - P. Burgos St. -   V. gullas st. - Manalili st. -  Carbon Public Market -  Progreso st.]]></description>
        <styleUrl>#line-0000FF-5000</styleUrl>
        <LineString>
          <tessellate>1</tessellate>
          <coordinates>
            123.92164,10.396228,0
            123.921648,10.395927,0
            123.921715,10.395584,0
            123.921836,10.395186,0
            123.921983,10.394901,0
            123.922109,10.394719,0
            123.92242,10.394415,0
            123.922463,10.394349,0
            123.922581,10.39412,0
            123.922683,10.393798,0
            123.922726,10.393611,0
            123.922694,10.393392,0
            123.92234,10.392809,0
            123.921726,10.392012,0
            123.921589,10.391672,0
            123.921554,10.391492,0
            123.921554,10.391363,0
            123.921616,10.390667,0
            123.921637,10.390134,0
            123.921543,10.38945,0
            123.921476,10.389097,0
            123.921361,10.388712,0
            123.921345,10.388448,0
            123.921382,10.388197,0
            123.921331,10.387918,0
            123.921321,10.387619,0
            123.921281,10.387026,0
            123.921259,10.386282,0
            123.921243,10.386211,0
            123.921294,10.38562,0
            123.921294,10.385184,0
            123.921356,10.384696,0
            123.921393,10.384393,0
            123.921374,10.384118,0
            123.921259,10.383812,0
            123.921267,10.383353,0
            123.921015,10.382831,0
            123.92079,10.382185,0
            123.920752,10.38167,0
            123.920723,10.380794,0
            123.920704,10.380338,0
            123.920511,10.379786,0
            123.920269,10.379098,0
            123.920006,10.378348,0
            123.919803,10.377744,0
            123.919671,10.377003,0
            123.919524,10.376196,0
            123.919459,10.375829,0
            123.91936,10.375314,0
            123.91932,10.37514,0
            123.91921,10.374855,0
            123.918926,10.374378,0
            123.918722,10.373964,0
            123.91814,10.373114,0
            123.917635,10.372394,0
            123.91741,10.372077,0
            123.917249,10.371826,0
            123.917153,10.371576,0
            123.916863,10.370974,0
            123.916729,10.37065,0
            123.916683,10.370315,0
            123.916608,10.370206,0
            123.916493,10.370006,0
            123.916461,10.369908,0
            123.916479,10.369821,0
            123.916777,10.369317,0
            123.916404,10.369172,0
            123.916015,10.368972,0
            123.915755,10.368798,0
            123.915184,10.368436,0
            123.914723,10.36817,0
            123.914309,10.367903,0
            123.914009,10.367684,0
            123.91388,10.367502,0
            123.913827,10.367296,0
            123.913813,10.366961,0
            123.913789,10.366122,0
            123.913781,10.365745,0
            123.913797,10.365497,0
            123.913883,10.365183,0
            123.914022,10.365009,0
            123.91428,10.364779,0
            123.914583,10.36446,0
            123.914733,10.364146,0
            123.914913,10.363484,0
            123.915168,10.362613,0
            123.915315,10.362106,0
            123.91535,10.361774,0
            123.915342,10.361479,0
            123.915296,10.361019,0
            123.915321,10.360734,0
            123.915468,10.360107,0
            123.9156,10.359502,0
            123.915675,10.359088,0
            123.915704,10.358906,0
            123.915707,10.358703,0
            123.915637,10.358516,0
            123.915498,10.35827,0
            123.915401,10.358136,0
            123.915251,10.357948,0
            123.915125,10.3577,0
            123.915071,10.35746,0
            123.915077,10.357091,0
            123.915085,10.356576,0
            123.915082,10.356114,0
            123.915069,10.355798,0
            123.915031,10.355658,0
            123.914921,10.35532,0
            123.914704,10.354885,0
            123.914586,10.35456,0
            123.914309,10.353613,0
            123.914012,10.352682,0
            123.913966,10.352542,0
            123.91384,10.351758,0
            123.913762,10.351394,0
            123.913534,10.350547,0
            123.913432,10.349938,0
            123.913365,10.349444,0
            123.913279,10.348953,0
            123.913148,10.348286,0
            123.913035,10.347637,0
            123.912942,10.347217,0
            123.912866,10.346816,0
            123.912799,10.346394,0
            123.9127,10.345956,0
            123.912598,10.345286,0
            123.912528,10.344819,0
            123.912405,10.34404,0
            123.912274,10.343389,0
            123.91214,10.342616,0
            123.91203,10.341887,0
            123.911971,10.341452,0
            123.911949,10.341336,0
            123.911904,10.341011,0
            123.911836,10.340436,0
            123.911777,10.339961,0
            123.911662,10.339478,0
            123.911541,10.3389,0
            123.91145,10.338452,0
            123.911308,10.337634,0
            123.911163,10.336787,0
            123.911056,10.336111,0
            123.910919,10.335417,0
            123.910852,10.334926,0
            123.910742,10.33428,0
            123.910589,10.333612,0
            123.910466,10.332929,0
            123.91041,10.332594,0
            123.91031,10.332114,0
            123.910222,10.331739,0
            123.909948,10.330979,0
            123.909777,10.33061,0
            123.909599,10.33019,0
            123.909339,10.329544,0
            123.909219,10.329206,0
            123.908964,10.328623,0
            123.908763,10.328198,0
            123.908468,10.327546,0
            123.908336,10.327382,0
            123.908138,10.326973,0
            123.908009,10.326657,0
            123.907891,10.326348,0
            123.907714,10.326121,0
            123.907531,10.325934,0
            123.907668,10.325696,0
            123.908111,10.324976,0
            123.908258,10.324741,0
            123.908623,10.324163,0
            123.908969,10.323585,0
            123.909176,10.323266,0
            123.90968,10.322456,0
            123.910106,10.32172,0
            123.91046,10.321157,0
            123.910745,10.32068,0
            123.91027,10.320387,0
            123.909382,10.319833,0
            123.909036,10.319611,0
            123.908371,10.318983,0
            123.907937,10.318503,0
            123.907961,10.318308,0
            123.908274,10.31798,0
            123.908677,10.317587,0
            123.908776,10.317492,0
            123.908934,10.317263,0
            123.909012,10.316925,0
            123.908956,10.316558,0
            123.9088,10.316194,0
            123.908502,10.315861,0
            123.908433,10.315774,0
            123.9081,10.315582,0
            123.90773,10.315532,0
            123.907505,10.315584,0
            123.907062,10.31583,0
            123.906582,10.316012,0
            123.905887,10.316215,0
            123.9057,10.316241,0
            123.904978,10.316431,0
            123.904375,10.316666,0
            123.903988,10.316996,0
            123.903696,10.317244,0
            123.903299,10.317439,0
            123.902607,10.317738,0
            123.902545,10.317661,0
            123.902344,10.317263,0
            123.902009,10.316489,0
            123.901837,10.315898,0
            123.90173,10.315471,0
            123.901663,10.315331,0
            123.901765,10.315041,0
            123.90199,10.314674,0
            123.902355,10.313959,0
            123.902516,10.313637,0
            123.902867,10.312935,0
            123.903269,10.312185,0
            123.903664,10.311246,0
            123.903905,10.310692,0
            123.903817,10.310256,0
            123.903707,10.309958,0
            123.903489,10.309262,0
            123.903302,10.308628,0
            123.903092,10.307984,0
            123.902867,10.307478,0
            123.902596,10.306889,0
            123.90251,10.306702,0
            123.902328,10.306451,0
            123.901969,10.30615,0
            123.901446,10.30577,0
            123.901226,10.306039,0
            123.900957,10.306343,0
            123.90063,10.30657,0
            123.900324,10.306644,0
            123.900043,10.306662,0
            123.899729,10.306623,0
            123.899788,10.306103,0
            123.899866,10.305578,0
            123.899895,10.305176,0
            123.899429,10.305029,0
            123.898702,10.304815,0
            123.898391,10.304728,0
            123.898232,10.304736,0
            123.898157,10.304741,0
            123.898149,10.304192,0
            123.898154,10.30349,0
            123.898173,10.302857,0
            123.898227,10.302128,0
            123.898203,10.301983,0
            123.8986,10.301292,0
            123.898938,10.300706,0
            123.899235,10.300197,0
            123.899528,10.299706,0
            123.899697,10.299365,0
            123.899938,10.298919,0
            123.900319,10.298323,0
            123.900595,10.297677,0
            123.900617,10.297634,0
            123.900925,10.297674,0
            123.901405,10.297713,0
            123.901883,10.297735,0
            123.902076,10.297742,0
            123.902733,10.297819,0
            123.903213,10.297896,0
            123.903744,10.297943,0
            123.903806,10.297779,0
            123.903843,10.297362,0
            123.903835,10.297199,0
            123.90295,10.297062,0
            123.902425,10.296975,0
            123.902175,10.29693,0
            123.901757,10.296906,0
            123.901349,10.296869,0
            123.900668,10.296584,0
            123.900201,10.296368,0
            123.900056,10.296265,0
            123.899541,10.295753,0
            123.899316,10.295201,0
            123.899152,10.294692,0
            123.899072,10.294409,0
            123.8989,10.293863,0
            123.898731,10.293372,0
            123.898463,10.292398,0
            123.898761,10.292288,0
            123.899337,10.292137,0
          </coordinates>
        </LineString>
      </Placemark>
      <Placemark>
        <name>Carbon To  Pit-os</name>
        <description><![CDATA[more cebu  jeepneys route map at cebujeepneys.weebly.com (http://cebujeepneys.weebly.com)<br><br>Carbon - MC. Briones St. - Cebu  City Hall - D. Jakosalem St. - Basilica del Sto. Nino - Gaisano Main - University of the Visayas - Ramos Pub. Market -  Bayantel - Sikatuna St. - Gen. Echavez St. - Gorordo Ave. - Arch. Reyes Ave. -Ayala Puj Terminal - BIR - Gov. M. Cuenco Ave. - Paradise Village - G. Country Mall - University of  Cebu-(banilad) - BAnilad - Banilad town center - Foodland - USC(talamban) - Talamban - Bacayan - Pit-os]]></description>
        <styleUrl>#line-33FF33-5000</styleUrl>
        <LineString>
          <tessellate>1</tessellate>
          <coordinates>
            123.89934,10.292135,0
            123.899453,10.291992,0
            123.90018,10.292127,0
            123.901102,10.292393,0
            123.901024,10.292728,0
            123.901041,10.292897,0
            123.901153,10.293288,0
            123.901274,10.293755,0
            123.901362,10.294095,0
            123.90159,10.294863,0
            123.901786,10.295531,0
            123.902052,10.296368,0
            123.902178,10.296835,0
            123.902172,10.296969,0
            123.902199,10.297072,0
            123.902199,10.297331,0
            123.902164,10.297481,0
            123.90206,10.297777,0
            123.90192,10.298389,0
            123.901794,10.298999,0
            123.901711,10.299263,0
            123.901698,10.299682,0
            123.901593,10.300136,0
            123.901293,10.300806,0
            123.901113,10.301025,0
            123.900936,10.301271,0
            123.90085,10.301495,0
            123.900791,10.301675,0
            123.900697,10.301936,0
            123.90056,10.302297,0
            123.900343,10.302714,0
            123.900249,10.302904,0
            123.900099,10.303414,0
            123.900083,10.304242,0
            123.899968,10.304934,0
            123.899949,10.305174,0
            123.899876,10.305725,0
            123.899788,10.306372,0
            123.899764,10.306591,0
            123.900086,10.306609,0
            123.900343,10.306601,0
            123.90059,10.306536,0
            123.900893,10.306335,0
            123.901151,10.30605,0
            123.901429,10.305715,0
            123.901735,10.305907,0
            123.90202,10.306129,0
            123.90224,10.306311,0
            123.902349,10.306406,0
            123.902561,10.306689,0
            123.902827,10.307256,0
            123.903114,10.307921,0
            123.903253,10.308301,0
            123.903406,10.308784,0
            123.903562,10.309293,0
            123.903736,10.309871,0
            123.903843,10.31019,0
            123.903953,10.310665,0
            123.90376,10.311138,0
            123.903629,10.31146,0
            123.903398,10.312009,0
            123.903334,10.31217,0
            123.903039,10.312726,0
            123.902779,10.31323,0
            123.902526,10.313721,0
            123.902323,10.314136,0
            123.902033,10.314708,0
            123.901818,10.315054,0
            123.901703,10.315328,0
            123.901767,10.315442,0
            123.901904,10.315956,0
            123.901998,10.316294,0
            123.902041,10.316455,0
            123.902127,10.316664,0
            123.902384,10.317255,0
            123.902572,10.31764,0
            123.902663,10.317862,0
            123.90295,10.318397,0
            123.903205,10.318907,0
            123.903312,10.318843,0
            123.903497,10.318756,0
            123.903642,10.318693,0
            123.903723,10.318872,0
            123.903374,10.319039,0
            123.903307,10.318917,0
            123.903216,10.318949,0
            123.903304,10.319199,0
            123.903463,10.319611,0
            123.903514,10.319725,0
            123.90383,10.320321,0
            123.903983,10.320653,0
            123.904377,10.321245,0
            123.904922,10.322068,0
            123.90519,10.322495,0
            123.905552,10.323015,0
            123.906118,10.323831,0
            123.906719,10.324717,0
            123.907,10.325161,0
            123.907295,10.325564,0
            123.907443,10.325736,0
            123.90765,10.325928,0
            123.907843,10.326124,0
            123.907923,10.326242,0
            123.908116,10.326638,0
            123.908274,10.327063,0
            123.908457,10.327469,0
            123.908551,10.327633,0
            123.908824,10.328219,0
            123.90898,10.32853,0
            123.909036,10.328673,0
            123.909256,10.329195,0
            123.909549,10.329963,0
            123.909897,10.330765,0
            123.910131,10.331346,0
            123.91027,10.331715,0
            123.910369,10.332166,0
            123.910458,10.332607,0
            123.910517,10.33295,0
            123.910611,10.333459,0
            123.910694,10.333863,0
            123.910793,10.334288,0
            123.910865,10.334744,0
            123.910946,10.335235,0
            123.910962,10.335409,0
            123.911067,10.33594,0
            123.911174,10.336634,0
            123.911244,10.337014,0
            123.911305,10.337394,0
            123.911402,10.337887,0
            123.911466,10.338259,0
            123.911541,10.338642,0
            123.911678,10.33932,0
            123.911828,10.339974,0
            123.911887,10.340465,0
            123.911965,10.341154,0
            123.912024,10.341589,0
            123.912083,10.341932,0
            123.912166,10.342521,0
            123.912255,10.343059,0
            123.912314,10.343418,0
            123.912376,10.343724,0
            123.912443,10.344127,0
            123.91251,10.344513,0
            123.912625,10.34517,0
            123.912748,10.345956,0
            123.91285,10.346407,0
            123.912933,10.346998,0
            123.91299,10.347209,0
            123.913084,10.347655,0
            123.913231,10.348463,0
            123.913349,10.349062,0
            123.913424,10.34951,0
            123.91351,10.350107,0
            123.913572,10.350513,0
            123.913733,10.351104,0
            123.913803,10.35137,0
            123.913907,10.351946,0
            123.914009,10.352537,0
            123.914157,10.353009,0
            123.914352,10.353597,0
            123.9145,10.354101,0
            123.914658,10.354634,0
            123.914744,10.354864,0
            123.91495,10.355252,0
            123.915079,10.355618,0
            123.915122,10.355795,0
            123.915141,10.356484,0
            123.91513,10.357223,0
            123.915122,10.357452,0
            123.915157,10.357661,0
            123.915321,10.357961,0
            123.915503,10.358202,0
            123.915608,10.358347,0
            123.915675,10.358492,0
            123.915752,10.358684,0
            123.915742,10.358906,0
            123.915726,10.359067,0
            123.915562,10.359911,0
            123.915511,10.360196,0
            123.915406,10.360603,0
            123.915377,10.360803,0
            123.91535,10.360996,0
            123.915393,10.361442,0
            123.915406,10.361716,0
            123.915364,10.362167,0
            123.915176,10.362787,0
            123.915007,10.363339,0
            123.914851,10.363887,0
            123.914779,10.364172,0
            123.914618,10.364494,0
            123.914304,10.364835,0
            123.914063,10.365038,0
            123.913937,10.365199,0
            123.913832,10.36551,0
            123.913837,10.365906,0
            123.913848,10.366534,0
            123.913862,10.366982,0
            123.913891,10.36737,0
            123.913907,10.367465,0
            123.914065,10.367679,0
            123.914328,10.367861,0
            123.914792,10.368146,0
            123.915444,10.368542,0
            123.915881,10.368821,0
            123.916115,10.368964,0
            123.91642,10.369122,0
            123.916839,10.369283,0
            123.916675,10.369592,0
            123.916514,10.369877,0
            123.916514,10.369977,0
            123.916686,10.370225,0
            123.916731,10.370312,0
            123.916766,10.370637,0
            123.916925,10.370998,0
            123.917174,10.37152,0
            123.917305,10.37184,0
            123.917528,10.372159,0
            123.918107,10.372985,0
            123.918529,10.373586,0
            123.918757,10.373927,0
            123.919065,10.374523,0
            123.919258,10.374826,0
            123.919352,10.375106,0
            123.919422,10.375399,0
            123.919607,10.376375,0
            123.91976,10.377246,0
            123.919851,10.377728,0
            123.920004,10.378211,0
            123.920299,10.379016,0
            123.920543,10.379747,0
            123.920749,10.380348,0
            123.920779,10.381116,0
            123.920822,10.381947,0
            123.920838,10.382156,0
            123.92105,10.382791,0
            123.921302,10.383324,0
            123.921297,10.383778,0
            123.921428,10.3841,0
            123.921439,10.384377,0
            123.921358,10.385126,0
            123.921342,10.385253,0
            123.92131,10.385915,0
            123.921291,10.386203,0
            123.92131,10.3863,0
            123.921321,10.386926,0
            123.921364,10.387651,0
            123.921374,10.38792,0
            123.921425,10.388163,0
            123.921417,10.388311,0
            123.921385,10.388458,0
            123.921412,10.388709,0
            123.92153,10.389097,0
            123.921624,10.389682,0
            123.921672,10.390086,0
            123.92168,10.390553,0
            123.921616,10.391326,0
            123.921608,10.391492,0
            123.921643,10.391693,0
            123.921763,10.39197,0
            123.922147,10.392492,0
            123.922635,10.393175,0
            123.922742,10.393431,0
            123.922769,10.393545,0
            123.922772,10.393637,0
            123.92267,10.394004,0
            123.922635,10.394112,0
            123.922485,10.394418,0
            123.922276,10.394619,0
            123.922141,10.394782,0
            123.921997,10.394988,0
            123.921876,10.395212,0
            123.921726,10.395769,0
            123.921696,10.395998,0
            123.921686,10.396233,0
          </coordinates>
        </LineString>
      </Placemark>
    </Folder>
  </Document>
</kml>
