<?xml version="1.0" encoding="UTF-8"?>
<kml xmlns="http://www.opengis.net/kml/2.2">
  <Document>
    <name>Cebu Jeepney Route No. MI-02B</name>
    <description><![CDATA[Mandaue to Maribago<br><br>mandaue to highland<br>mandaue to new bridge<br>mandaue to pusok<br>mandaue to mepz 1 <br>mandaue to mactan<br>mandaue to maribago<br>mandaue to agus<br>parkmall to new mandaue public market<br>parkmall to highland<br>parkmall to new mactan-mandaue bridge<br>parkmall to pusok <br>parkmall to marina mall<br>parkmall to savemore mactan<br>parkmall to mepz 1<br>parkmall to gate 1, 2, 3, 4, 5<br>parkmall to ibo<br>parkmall to soong<br>parkmall to brgy mactan<br>parkmall to mactan oceantown<br>parkmall to maribago<br>parkmall to agus<br>highland to pusok<br>highland to marina mall<br>highland to savemore mactan<br>highland to mepz 1<br>highland to so-ong<br>highland to mactan<br>highland to maribago bluewaters resort<br>highland to agus<br>pusok to soong<br>pusok to mactan<br>pusok to maribago<br>marina mall to maribago<br>marina mall to agus<br>mepz 1 to soong<br>mepz 1 to maribago<br>mepz 1 to agus<br>brgy.mactan to maribago<br><br>Maribago to Mandaue<br><br>maribago to mepz 1<br>maribago to marina mall<br>maribago to savemore mactan<br>maribago to pusok<br>maribago to mandaue<br>maribago to parkmall...]]></description>
    <Style id="line-0000FF-5000-normal">
      <LineStyle>
        <color>ffff0000</color>
        <width>5</width>
      </LineStyle>
    </Style>
    <Style id="line-0000FF-5000-highlight">
      <LineStyle>
        <color>ffff0000</color>
        <width>7.5</width>
      </LineStyle>
    </Style>
    <StyleMap id="line-0000FF-5000">
      <Pair>
        <key>normal</key>
        <styleUrl>#line-0000FF-5000-normal</styleUrl>
      </Pair>
      <Pair>
        <key>highlight</key>
        <styleUrl>#line-0000FF-5000-highlight</styleUrl>
      </Pair>
    </StyleMap>
    <Style id="line-33FFFF-5000-normal">
      <LineStyle>
        <color>ffffff33</color>
        <width>5</width>
      </LineStyle>
    </Style>
    <Style id="line-33FFFF-5000-highlight">
      <LineStyle>
        <color>ffffff33</color>
        <width>7.5</width>
      </LineStyle>
    </Style>
    <StyleMap id="line-33FFFF-5000">
      <Pair>
        <key>normal</key>
        <styleUrl>#line-33FFFF-5000-normal</styleUrl>
      </Pair>
      <Pair>
        <key>highlight</key>
        <styleUrl>#line-33FFFF-5000-highlight</styleUrl>
      </Pair>
    </StyleMap>
    <Style id="line-FF0000-5000-normal">
      <LineStyle>
        <color>ff0000ff</color>
        <width>5</width>
      </LineStyle>
    </Style>
    <Style id="line-FF0000-5000-highlight">
      <LineStyle>
        <color>ff0000ff</color>
        <width>7.5</width>
      </LineStyle>
    </Style>
    <StyleMap id="line-FF0000-5000">
      <Pair>
        <key>normal</key>
        <styleUrl>#line-FF0000-5000-normal</styleUrl>
      </Pair>
      <Pair>
        <key>highlight</key>
        <styleUrl>#line-FF0000-5000-highlight</styleUrl>
      </Pair>
    </StyleMap>
    <Style id="line-FF99FF-5000-normal">
      <LineStyle>
        <color>ffff99ff</color>
        <width>5</width>
      </LineStyle>
    </Style>
    <Style id="line-FF99FF-5000-highlight">
      <LineStyle>
        <color>ffff99ff</color>
        <width>7.5</width>
      </LineStyle>
    </Style>
    <StyleMap id="line-FF99FF-5000">
      <Pair>
        <key>normal</key>
        <styleUrl>#line-FF99FF-5000-normal</styleUrl>
      </Pair>
      <Pair>
        <key>highlight</key>
        <styleUrl>#line-FF99FF-5000-highlight</styleUrl>
      </Pair>
    </StyleMap>
    <Folder>
      <name>Untitled layer</name>
      <Placemark>
        <name>Mandaue to Maribago</name>
        <description><![CDATA[more cebu jeepneys route maps at cebujeepneys.weebly.com (http://cebujeepneys.weebly.com)<br>Like us on our Facebook Page (http://www.facebook.com/cebujeepneysroutemap)<br><br> <br>Mandaue to Maribago<br><br> <br>(Mandaue) Parkmall - W.O. Seno St. - E.O Perez St. - S&R Membership Shopping - P. Larrazabal Ave. - Cebu Doctors University - Ouano Ave. - St. James Amusement Park - CICC - A. Soriano Ave. - New Manadue  Public Market - Mandaue City Hospital - Jose L. Briones St. - University of the Visayas (mandaue) - Plaridel St. - Bridges Town Square - Highland - Total - UN Ave. - Brgy Umapad - New Mactan-Mandaue Bridge - Pusok - ML. Quezon Ntnl Highway - Marina Mall - Mepz 1 - Gate 1, 2, 3, 4, 5 - Ibo - Mactan - Punta Engano Rd. - Mactan Ocean Town - Maribago - Maribago Blue Waters - Cebu White Sands - Save More Maribago - Metro express Maribago.]]></description>
        <styleUrl>#line-0000FF-5000</styleUrl>
        <LineString>
          <tessellate>1</tessellate>
          <coordinates>
            123.932825,10.324994,0
            123.933184,10.324773,0
            123.933192,10.324728,0
            123.933173,10.324686,0
            123.933096,10.324635,0
            123.932951,10.324659,0
            123.93276,10.324799,0
            123.932613,10.324899,0
            123.932329,10.324984,0
            123.93187,10.324382,0
            123.931532,10.323994,0
            123.9314,10.323844,0
            123.930907,10.323115,0
            123.930344,10.322258,0
            123.929856,10.321469,0
            123.929311,10.320564,0
            123.929075,10.320186,0
            123.929145,10.319949,0
            123.930027,10.319622,0
            123.930719,10.319331,0
            123.930867,10.319268,0
            123.931567,10.31883,0
            123.93216,10.319516,0
            123.93308,10.320487,0
            123.933906,10.321358,0
            123.934391,10.321862,0
            123.935282,10.322791,0
            123.935217,10.322944,0
            123.934681,10.323606,0
            123.934708,10.323704,0
            123.935247,10.324126,0
            123.936164,10.324883,0
            123.93692,10.32553,0
            123.937234,10.325712,0
            123.937508,10.325783,0
            123.937878,10.325765,0
            123.938286,10.325628,0
            123.939195,10.325303,0
            123.93989,10.325042,0
            123.941333,10.324525,0
            123.94114,10.324379,0
            123.940574,10.323543,0
            123.939997,10.322593,0
            123.94104,10.322015,0
            123.941451,10.322548,0
            123.942234,10.323612,0
            123.942558,10.324044,0
            123.943175,10.323757,0
            123.943422,10.323646,0
            123.943594,10.323696,0
            123.94417,10.324519,0
            123.94494,10.325657,0
            123.945324,10.326237,0
            123.945501,10.326525,0
            123.946284,10.327514,0
            123.946584,10.327989,0
            123.947083,10.328987,0
            123.947397,10.329686,0
            123.947845,10.330404,0
            123.948709,10.331905,0
            123.948905,10.332333,0
            123.949135,10.332771,0
            123.949524,10.333451,0
            123.950133,10.334467,0
            123.950551,10.335204,0
            123.950911,10.335708,0
            123.951056,10.33585,0
            123.95175,10.336314,0
            123.951876,10.336404,0
            123.95229,10.336423,0
            123.952507,10.33646,0
            123.952611,10.33652,0
            123.952923,10.336787,0
            123.953832,10.337578,0
            123.954867,10.338446,0
            123.955098,10.338676,0
            123.956063,10.338344,0
            123.95726,10.337927,0
            123.957775,10.33775,0
            123.958201,10.337507,0
            123.958735,10.337095,0
            123.959167,10.336623,0
            123.959848,10.335686,0
            123.960658,10.33456,0
            123.961248,10.333763,0
            123.961768,10.333024,0
            123.962404,10.332166,0
            123.963147,10.331172,0
            123.963488,10.33067,0
            123.963971,10.329992,0
            123.96514,10.328475,0
            123.965977,10.327348,0
            123.966806,10.326232,0
            123.967444,10.325319,0
            123.967844,10.324744,0
            123.968292,10.324084,0
            123.968812,10.323379,0
            123.969115,10.322944,0
            123.96937,10.322667,0
            123.969579,10.322564,0
            123.969713,10.322524,0
            123.969893,10.322516,0
            123.970424,10.322728,0
            123.972065,10.323414,0
            123.973203,10.323981,0
            123.974453,10.324667,0
            123.975292,10.325132,0
            123.975644,10.325385,0
            123.976199,10.325731,0
            123.976692,10.325963,0
            123.978103,10.326757,0
            123.978717,10.327089,0
            123.97916,10.327314,0
            123.979661,10.327783,0
            123.979847,10.327995,0
            123.980254,10.328641,0
            123.98048,10.328995,0
            123.980868,10.329438,0
            123.981676,10.330182,0
            123.982615,10.331029,0
            123.982786,10.331177,0
            123.984111,10.332259,0
            123.984522,10.332578,0
            123.984779,10.332757,0
            123.985176,10.332858,0
            123.986166,10.332713,0
            123.986555,10.332628,0
            123.986871,10.332499,0
            123.987467,10.332151,0
            123.987917,10.331802,0
            123.988526,10.331359,0
            123.988797,10.331111,0
            123.989081,10.330768,0
            123.989358,10.330293,0
            123.989586,10.329892,0
            123.989811,10.329467,0
            123.990103,10.328873,0
            123.990237,10.328451,0
            123.990337,10.327303,0
            123.99038,10.326947,0
            123.990414,10.326245,0
            123.990498,10.325614,0
            123.990557,10.325322,0
            123.990846,10.324942,0
            123.991654,10.32387,0
            123.992378,10.322925,0
            123.993156,10.321881,0
            123.993971,10.320812,0
            123.994867,10.319609,0
            123.995631,10.31855,0
            123.995854,10.318284,0
            123.996012,10.318144,0
            123.996315,10.317899,0
            123.996664,10.317695,0
            123.997412,10.31736,0
            123.997793,10.317218,0
            123.998212,10.316983,0
            123.998692,10.316674,0
            123.999279,10.316196,0
            123.999832,10.315626,0
            124.00025,10.315278,0
            124.000534,10.31512,0
            124.001151,10.314896,0
            124.001918,10.314698,0
            124.00213,10.314624,0
            124.002645,10.314407,0
            124.003445,10.313806,0
            124.004375,10.313075,0
            124.005239,10.312381,0
            124.0061,10.311702,0
            124.007052,10.31095,0
            124.007444,10.310644,0
            124.007591,10.310557,0
            124.007699,10.310515,0
            124.007851,10.310481,0
            124.008763,10.310502,0
            124.01004,10.310539,0
            124.011025,10.310573,0
            124.010992,10.310027,0
            124.010976,10.309649,0
            124.010848,10.309006,0
            124.010638,10.308396,0
            124.010088,10.307488,0
            124.009421,10.306493,0
            124.00912,10.306042,0
            124.008704,10.305575,0
            124.008047,10.304923,0
            124.00732,10.304203,0
            124.00658,10.303546,0
            124.005821,10.302854,0
            124.005252,10.302171,0
            124.00481,10.301553,0
            124.004188,10.300899,0
            124.003978,10.300688,0
            124.003764,10.300418,0
            124.003614,10.300144,0
            124.003466,10.299745,0
            124.003096,10.298769,0
            124.002798,10.29832,0
            124.002208,10.297684,0
            124.001808,10.297365,0
            124.000601,10.296579,0
            123.999808,10.296019,0
            123.999378,10.295589,0
            123.998863,10.294874,0
            123.99856,10.294396,0
            123.998367,10.294043,0
            123.998311,10.293874,0
            123.998249,10.293517,0
            123.998249,10.292823,0
            123.998289,10.291984,0
            123.99834,10.291066,0
            123.998359,10.290614,0
            123.998429,10.290139,0
            123.998611,10.289749,0
            123.999067,10.289092,0
            123.999301,10.288757,0
            123.999411,10.288498,0
            123.999381,10.288218,0
            123.999228,10.287867,0
            123.999094,10.287704,0
            123.998826,10.287469,0
            123.998343,10.287038,0
            123.99745,10.286191,0
            123.996659,10.285505,0
            123.996388,10.28526,0
            123.995993,10.285004,0
            123.995623,10.284798,0
            123.995232,10.284634,0
            123.994969,10.284468,0
            123.994706,10.284246,0
            123.994513,10.284051,0
            123.993829,10.283294,0
            123.993338,10.282774,0
          </coordinates>
        </LineString>
      </Placemark>
      <Placemark>
        <name>To Agus</name>
        <description><![CDATA[more cebu jeepneys route maps at cebujeepneys.weebly.com (http://cebujeepneys.weebly.com)<br>Like us on our Facebook Page. (http://www.facebook.com/cebujeepneysroutemap)<br><br>Jeepneys that has a sign board in front of their windshield saying "Agus"]]></description>
        <styleUrl>#line-FF0000-5000</styleUrl>
        <LineString>
          <tessellate>1</tessellate>
          <coordinates>
            123.99333,10.28277,0
            123.99261,10.28199,0
            123.992287,10.281729,0
            123.99195,10.28154,0
            123.98893,10.27982,0
            123.98557,10.27803,0
            123.98244,10.27625,0
            123.98214,10.27613,0
            123.98176,10.27607,0
          </coordinates>
        </LineString>
      </Placemark>
      <Placemark>
        <name>From Agus</name>
        <description><![CDATA[more cebu jeepneys route maps at cebujeepneys.weebly.com (http://cebujeepneys.weebly.com)<br>Like us on our Facebook Page (http://www.facebook.com/cebujeepneysroutemap)<br><br> From Agus to Maribago, continue to the route of Maribago.]]></description>
        <styleUrl>#line-FF99FF-5000</styleUrl>
        <LineString>
          <tessellate>1</tessellate>
          <coordinates>
            123.98177,10.27603,0
            123.98241,10.27618,0
            123.98563,10.278,0
            123.98896,10.27978,0
            123.99203,10.28154,0
            123.99267,10.28196,0
            123.993357,10.282734,0
          </coordinates>
        </LineString>
      </Placemark>
      <Placemark>
        <name>Maribago to Mandaue</name>
        <description><![CDATA[more cebu jeepneys route maps at cebujeepneys.weebly.com (http://cebujeepneys.weebly.com)<br>Like us on our Facebook Page (http://www.facebook.com/cebujeepneysroutemap)<br><br> <br>Maribago to Mandaue<br><br> <br>Maribago - Cebu White Sands - Maribago BlueWater resort - Brgy. Mactan - Mactan Oceantown - Quezon National Highway - Ibo - Mepz 1 - Gate 1, 2, 3, 4, 5 - Marina Mall Savemore Mactan - Pusok - Marcelo B. Fernan Bridge - UN ave. - Highland - Plaridel St. - Bridges Town Square - AC Cortes Ave. - Prince Warehouse (mandue) - Mandaue Coliseum - STI College (mandaue) - BB Cabahug St. - Mandaue Catholic Cemtery - Brgy. Guizo - A. del Rosario St. - SSS(mandaue) - Highway - Tipolo (San Miguel) - CD. Seno St. - Hall of Justice - WO. Seno St. - Parkmall.]]></description>
        <styleUrl>#line-33FFFF-5000</styleUrl>
        <LineString>
          <tessellate>1</tessellate>
          <coordinates>
            123.99336,10.28273,0
            123.99401,10.28343,0
            123.994719,10.28418,0
            123.995165,10.284526,0
            123.99565,10.284753,0
            123.996058,10.284969,0
            123.99639,10.285199,0
            123.996586,10.285363,0
            123.997504,10.286176,0
            123.998281,10.286914,0
            123.998981,10.287537,0
            123.99929,10.287851,0
            123.999437,10.288208,0
            123.999462,10.288398,0
            123.999462,10.288498,0
            123.9994,10.288685,0
            123.999311,10.288849,0
            123.99893,10.289387,0
            123.998643,10.289783,0
            123.998469,10.290166,0
            123.99841,10.29058,0
            123.998373,10.291266,0
            123.99833,10.292201,0
            123.998292,10.29305,0
            123.998295,10.293512,0
            123.998354,10.293858,0
            123.998493,10.294175,0
            123.99882,10.294713,0
            123.999427,10.295565,0
            123.99988,10.296014,0
            124.000725,10.296605,0
            124.001811,10.297304,0
            124.002256,10.297671,0
            124.002855,10.298299,0
            124.003139,10.298737,0
            124.003528,10.299777,0
            124.003648,10.300107,0
            124.003817,10.300397,0
            124.004019,10.300666,0
            124.004249,10.300886,0
            124.00485,10.301516,0
            124.005255,10.302078,0
            124.005759,10.302677,0
            124.005888,10.302857,0
            124.006644,10.303538,0
            124.007484,10.304295,0
            124.008348,10.305155,0
            124.008946,10.305754,0
            124.009182,10.306045,0
            124.009528,10.30657,0
            124.010062,10.307388,0
            124.010523,10.308127,0
            124.010676,10.308383,0
            124.010872,10.308929,0
            124.011022,10.309634,0
            124.011073,10.310621,0
            124.010324,10.310597,0
            124.00945,10.310568,0
            124.008452,10.310541,0
            124.007825,10.310526,0
            124.007621,10.310597,0
            124.007377,10.310755,0
            124.006846,10.311177,0
            124.006199,10.311684,0
            124.005564,10.312188,0
            124.004552,10.313001,0
            124.003434,10.313887,0
            124.002669,10.314463,0
            124.002278,10.314624,0
            124.001814,10.314774,0
            124.001253,10.314919,0
            124.000784,10.315075,0
            124.0005,10.315194,0
            124.000261,10.315342,0
            123.999885,10.315645,0
            123.99977,10.315785,0
            123.99936,10.316218,0
            123.998692,10.316727,0
            123.99801,10.317152,0
            123.997729,10.3173,0
            123.997005,10.317579,0
            123.996659,10.317753,0
            123.996288,10.31797,0
            123.995945,10.318273,0
            123.995653,10.318608,0
            123.995318,10.319081,0
            123.99454,10.320134,0
            123.993676,10.321271,0
            123.992963,10.322218,0
            123.992273,10.323139,0
            123.991493,10.324171,0
            123.990876,10.324986,0
            123.990608,10.325327,0
            123.990535,10.325643,0
            123.990457,10.32639,0
            123.990431,10.32695,0
            123.990342,10.327807,0
            123.99028,10.328459,0
            123.990154,10.328913,0
            123.989693,10.329813,0
            123.989224,10.330639,0
            123.989068,10.330881,0
            123.988827,10.331156,0
            123.988556,10.331406,0
            123.987896,10.331887,0
            123.98748,10.332214,0
            123.986909,10.332533,0
            123.986552,10.332681,0
            123.985165,10.332908,0
            123.984894,10.332858,0
            123.984669,10.332755,0
            123.98421,10.332407,0
            123.983189,10.331559,0
            123.982607,10.331098,0
            123.981917,10.330457,0
            123.981214,10.329842,0
            123.98075,10.329396,0
            123.980434,10.329037,0
            123.9799,10.328187,0
            123.979785,10.328002,0
            123.97913,10.327369,0
            123.978226,10.326881,0
            123.976655,10.326015,0
            123.975719,10.325488,0
            123.975456,10.325345,0
            123.97504,10.325205,0
            123.973871,10.324564,0
            123.972618,10.323904,0
            123.971408,10.323311,0
            123.970166,10.322749,0
            123.969971,10.322654,0
            123.969802,10.322622,0
            123.969584,10.322683,0
            123.969394,10.322807,0
            123.969142,10.323057,0
            123.968949,10.323313,0
            123.968385,10.32411,0
            123.967852,10.324949,0
            123.967294,10.325765,0
            123.966425,10.32695,0
            123.965636,10.328055,0
            123.965094,10.328797,0
            123.96426,10.329858,0
            123.96356,10.330755,0
            123.962906,10.331657,0
            123.962391,10.332401,0
            123.961793,10.333198,0
            123.961114,10.334167,0
            123.960658,10.334808,0
            123.959851,10.335898,0
            123.959231,10.336747,0
            123.958807,10.337206,0
            123.958459,10.337499,0
            123.958217,10.337663,0
            123.9577,10.337919,0
            123.95675,10.338254,0
            123.955921,10.338557,0
            123.9552,10.338771,0
            123.955036,10.3387,0
            123.954298,10.338043,0
            123.953266,10.337148,0
            123.952585,10.336565,0
            123.952434,10.336499,0
            123.952239,10.33647,0
            123.951847,10.336444,0
            123.950991,10.33585,0
            123.950844,10.335708,0
            123.950433,10.335116,0
            123.949977,10.334291,0
            123.949495,10.333502,0
            123.94906,10.332718,0
            123.948516,10.331676,0
            123.94818,10.331087,0
            123.947791,10.33043,0
            123.947397,10.330823,0
            123.946582,10.331309,0
            123.945841,10.33176,0
            123.94472,10.332459,0
            123.943918,10.33294,0
            123.942722,10.333655,0
            123.942081,10.334064,0
            123.941461,10.334401,0
            123.941228,10.334523,0
            123.940869,10.334668,0
            123.940549,10.334367,0
            123.94023,10.334029,0
            123.939959,10.333676,0
            123.939171,10.333053,0
            123.938286,10.332457,0
            123.937897,10.332188,0
            123.93714,10.331544,0
            123.936636,10.331019,0
            123.936159,10.330491,0
            123.935716,10.330528,0
            123.935193,10.330472,0
            123.934874,10.330425,0
            123.934383,10.330219,0
            123.93356,10.329889,0
            123.932616,10.329485,0
            123.932873,10.32904,0
            123.93345,10.328243,0
            123.933967,10.32752,0
            123.934565,10.326768,0
            123.933868,10.326224,0
            123.932793,10.325398,0
            123.93246,10.325132,0
            123.932642,10.32505,0
            123.932817,10.324986,0
          </coordinates>
        </LineString>
      </Placemark>
    </Folder>
  </Document>
</kml>
