<?xml version="1.0" encoding="UTF-8"?>
<kml xmlns="http://www.opengis.net/kml/2.2">
  <Document>
    <name>Cebu Jeepney Route  No. MI-04B</name>
    <description><![CDATA[more cebu jeepneys route maps at cebujeepneys.weebly.com<br> <br>Tamiya (Mepz 2) - Mepz 1<br><br>Tamiya to crown regency suites <br>tamiya to gaisano mactan<br>tamiya to lapulapu city hall<br>tamiya to SSS<br>tamiya to pusok<br>tamiya to marina mall<br>tamiya to savemore mactan<br>tamiya to Mepz 1<br>tamiya to Gate 1, 2, 3, 4<br>gaisano to sss<br>gaisano to pusok<br>gaisano to marina mall<br>gaisano to savemore mactan<br>gaisano to mepz 1<br>gaisano to Gate 1, 2, 3, 4<br>pusok to marina mall<br>pusok  to mepz 1<br><br>Mepz 1 to Mepz 2 (Tamiya Terminal) <br><br>Mepz 1 to pusok<br>mepz 1 to gaisano island mall<br>mepz 1 to sss<br>mepz 1 to lapulapu city hall<br>mepz 1 to crown regency suites<br>mepz 1 to mepz 2<br>mepz 1 to tamiya terminal<br>pusok to gaisano island mall<br>pusok to SSS<br>pusok to crown regency suites<br>pusok to mepz 2<br>pusok to tamiya terminal<br>pusok to pueblo verde<br>gaisano to crown regency suites<br>gaisano to mepz 2<br>gaisano to pueblo verde<br>gaisano to tamiya terminal<br>gaisano to robinsons tamiya]]></description>
    <Style id="line-0000FF-5000-normal">
      <LineStyle>
        <color>ffff0000</color>
        <width>5</width>
      </LineStyle>
    </Style>
    <Style id="line-0000FF-5000-highlight">
      <LineStyle>
        <color>ffff0000</color>
        <width>7.5</width>
      </LineStyle>
    </Style>
    <StyleMap id="line-0000FF-5000">
      <Pair>
        <key>normal</key>
        <styleUrl>#line-0000FF-5000-normal</styleUrl>
      </Pair>
      <Pair>
        <key>highlight</key>
        <styleUrl>#line-0000FF-5000-highlight</styleUrl>
      </Pair>
    </StyleMap>
    <Style id="line-33FF33-5000-normal">
      <LineStyle>
        <color>ff33ff33</color>
        <width>5</width>
      </LineStyle>
    </Style>
    <Style id="line-33FF33-5000-highlight">
      <LineStyle>
        <color>ff33ff33</color>
        <width>7.5</width>
      </LineStyle>
    </Style>
    <StyleMap id="line-33FF33-5000">
      <Pair>
        <key>normal</key>
        <styleUrl>#line-33FF33-5000-normal</styleUrl>
      </Pair>
      <Pair>
        <key>highlight</key>
        <styleUrl>#line-33FF33-5000-highlight</styleUrl>
      </Pair>
    </StyleMap>
    <Folder>
      <name>Untitled layer</name>
      <Placemark>
        <name>Tamiya to Mepz 1</name>
        <description><![CDATA[more cebu jeepneys route maps at cebujeepneys.weebly.com (http://cebujeepneys.weebly.com)<br>Like us on our Facebook Page (http://facebook.com/cebujeepneysroutemap)<br><br> <br>Tamiya to Mepz 1<br>(Mepz 2 to Mepz 1)<br><br> <br>Tamiya Terminal - Robinsons Supermarket (Pueblo Verde) - MV. Patalinghug Jr. Ave. - Crown Regency Suites - Quezon National Highway - Gaisano Mactan Island Mall - Lapu-lapu City Hall - Dulcinea Hotel Suites - SSS - The Bellavista Hotel - Goldberry Suites and Hotel - Pusok - Marina Mall - Savemore Mactan - Mepz 1 - Gate 1 - Gate 2 - Gate 3 - Gate 4.]]></description>
        <styleUrl>#line-0000FF-5000</styleUrl>
        <LineString>
          <tessellate>1</tessellate>
          <coordinates>
            123.963346,10.301376,0
            123.963434,10.301495,0
            123.963169,10.301759,0
            123.963139,10.301788,0
            123.962844,10.301519,0
            123.962418,10.301954,0
            123.962409,10.302052,0
            123.961975,10.302445,0
            123.961422,10.301902,0
            123.96102,10.302231,0
            123.960505,10.30264,0
            123.960218,10.302883,0
            123.959993,10.303203,0
            123.959899,10.303609,0
            123.959915,10.303897,0
            123.960218,10.304736,0
            123.960446,10.305388,0
            123.960859,10.306517,0
            123.961063,10.307222,0
            123.961141,10.307652,0
            123.961176,10.308079,0
            123.961149,10.308594,0
            123.961122,10.309201,0
            123.961004,10.310219,0
            123.960902,10.310935,0
            123.9608,10.311423,0
            123.960647,10.311795,0
            123.959835,10.312906,0
            123.958976,10.313959,0
            123.958617,10.3145,0
            123.959314,10.31502,0
            123.960079,10.315558,0
            123.960948,10.316189,0
            123.962021,10.316951,0
            123.963539,10.318049,0
            123.96459,10.318817,0
            123.965499,10.3195,0
            123.966446,10.320186,0
            123.967573,10.321015,0
            123.968453,10.321632,0
            123.969102,10.322007,0
            123.969879,10.322361,0
            123.970893,10.322862,0
            123.971808,10.323282,0
            123.972827,10.323778,0
            123.974007,10.324422,0
            123.974946,10.324944,0
            123.97522,10.325095,0
            123.975641,10.325387,0
            123.976051,10.325646,0
            123.976614,10.325936,0
            123.977312,10.326308,0
            123.978586,10.327018,0
            123.97916,10.327319,0
            123.979809,10.327937,0
            123.980415,10.328913,0
            123.980453,10.328997,0
            123.980801,10.329375,0
            123.981273,10.329828,0
            123.981923,10.330398,0
            123.982733,10.331124,0
            123.983856,10.332042,0
            123.984535,10.332599,0
            123.98479,10.33276,0
            123.985173,10.332858,0
            123.985892,10.33276,0
            123.98656,10.33262,0
            123.986866,10.332488,0
            123.987472,10.332145,0
            123.987858,10.331844,0
          </coordinates>
        </LineString>
      </Placemark>
      <Placemark>
        <name>Mepz 1 to Mepz 2 (Tamiya)</name>
        <description><![CDATA[more cebu jeepneys route maps at cebujeepneys.weebly.com (http://cebujeepneys.weebly.com)<br>Like us on our Facebook Page (http://facebook.com/cebujeepneysroutemap)<br><br> <br>Mepz 1 to Mepz 2 (Tamiya Terminal) <br><br> <br>Mepz 1 - Gate 4, 3, 2, 1 - Marina Mall - Savemore Mactan - Quezon National Highway - Pusok - The Bellavista Hotel - Goldberry Suites & Hotel - SSS - Lapu-lapu City Hall - Gaisano Mactan Island Mall - MV. Patalinghug Jr. Ave. - Crown Regency Suites - Pueblo Verde - Robinsons Mactan - Tamiya Terminal - Mepz 2.]]></description>
        <styleUrl>#line-33FF33-5000</styleUrl>
        <LineString>
          <tessellate>1</tessellate>
          <coordinates>
            123.987858,10.331892,0
            123.987451,10.332227,0
            123.98685,10.332557,0
            123.986531,10.332684,0
            123.985299,10.332897,0
            123.985165,10.332916,0
            123.98475,10.332802,0
            123.984473,10.332618,0
            123.983422,10.331755,0
            123.982625,10.331103,0
            123.981236,10.329868,0
            123.980758,10.329404,0
            123.980407,10.329018,0
            123.979779,10.327997,0
            123.97912,10.327361,0
            123.978613,10.327103,0
            123.976783,10.326087,0
            123.975507,10.325369,0
            123.97504,10.325211,0
            123.974343,10.32481,0
            123.972878,10.324005,0
            123.971481,10.323327,0
            123.969955,10.322596,0
            123.969496,10.322334,0
            123.968951,10.322086,0
            123.968085,10.321551,0
            123.967487,10.321123,0
            123.966682,10.320535,0
            123.965749,10.319843,0
            123.964649,10.319041,0
            123.963804,10.318418,0
            123.962721,10.317629,0
            123.961685,10.316891,0
            123.960457,10.316006,0
            123.95932,10.315231,0
            123.958488,10.314642,0
            123.958467,10.314405,0
            123.958839,10.313893,0
            123.959261,10.313397,0
            123.959784,10.312742,0
            123.960199,10.312209,0
            123.960328,10.312056,0
            123.960537,10.311732,0
            123.960669,10.311447,0
            123.96076,10.311148,0
            123.960806,10.3107,0
            123.960918,10.309734,0
            123.960993,10.308995,0
            123.961039,10.307945,0
            123.960934,10.307272,0
            123.960658,10.306359,0
            123.960336,10.305427,0
            123.959958,10.304422,0
            123.959802,10.303883,0
            123.959778,10.303609,0
            123.959888,10.303176,0
            123.960148,10.302809,0
            123.960865,10.302213,0
            123.961371,10.301762,0
            123.961452,10.301872,0
            123.961903,10.302305,0
            123.962318,10.301923,0
            123.962388,10.301904,0
            123.962852,10.30145,0
            123.962983,10.301577,0
            123.963257,10.301337,0
            123.963319,10.301347,0
          </coordinates>
        </LineString>
      </Placemark>
    </Folder>
  </Document>
</kml>
