<?xml version="1.0" encoding="UTF-8"?>
<kml xmlns="http://www.opengis.net/kml/2.2">
  <Document>
    <name>Cebu Jeepneys Route No. MI-05A</name>
    <description><![CDATA[Mactan airport to Opon (Muelle osmena ferry boat terminal)<br><br>Mactan airport  to marina mall<br>mactan airport to pusok <br>mactan airport to lapulapu city hall<br>mactan airport to gaisano mactan island mall<br>mactan airport general milling corp.<br>mactan airport to opon parish church<br>mactan airport to ferry boat port<br>mactan airport to muelle osmena port<br><br>Opon to MACTAN AIRPORT<br><br>opon to gaisano island mall<br>opon to pusok<br>opon to marina mall<br>opon to mactan airport<br>ferry boat terminal to gaisano island mall<br>ferry boat port to pusok<br>ferry boat port to lapulapu city hall<br>ferry boat port to marina mall<br>ferry boat port to mactan airport<br>gaisano island mall to marina mall<br>gaisano island mall to mactan airport<br>gaisano island mall to pusok.]]></description>
    <Style id="line-0000FF-5000-normal">
      <LineStyle>
        <color>ffff0000</color>
        <width>5</width>
      </LineStyle>
    </Style>
    <Style id="line-0000FF-5000-highlight">
      <LineStyle>
        <color>ffff0000</color>
        <width>7.5</width>
      </LineStyle>
    </Style>
    <StyleMap id="line-0000FF-5000">
      <Pair>
        <key>normal</key>
        <styleUrl>#line-0000FF-5000-normal</styleUrl>
      </Pair>
      <Pair>
        <key>highlight</key>
        <styleUrl>#line-0000FF-5000-highlight</styleUrl>
      </Pair>
    </StyleMap>
    <Style id="line-33FF33-5000-normal">
      <LineStyle>
        <color>ff33ff33</color>
        <width>5</width>
      </LineStyle>
    </Style>
    <Style id="line-33FF33-5000-highlight">
      <LineStyle>
        <color>ff33ff33</color>
        <width>7.5</width>
      </LineStyle>
    </Style>
    <StyleMap id="line-33FF33-5000">
      <Pair>
        <key>normal</key>
        <styleUrl>#line-33FF33-5000-normal</styleUrl>
      </Pair>
      <Pair>
        <key>highlight</key>
        <styleUrl>#line-33FF33-5000-highlight</styleUrl>
      </Pair>
    </StyleMap>
    <Folder>
      <name>Untitled layer</name>
      <Placemark>
        <name>Mactan Airport to Opon Church (Ferry Boat Terminal)</name>
        <description><![CDATA[More cebu jeepneys route maps at cebujeepneys.weebly.com (http://cebujeepneys.weebly.com)<br><br> <br>Mactan Airport - Marina Mall - Quezon National Highway - Pusok - Hotel Cesario - SSS (Lapu2x branch) - Lapulapu City Hall - Gaisano Mactan Island Mall - General Milling Corporation - <br>Gaisano Metro (opon) - Mantawe Road - B.M. Dimataga St. - Muelle Osmena Port - Cebu-Mactan Ferry Terminal.]]></description>
        <styleUrl>#line-0000FF-5000</styleUrl>
        <LineString>
          <tessellate>1</tessellate>
          <coordinates>
            123.978763,10.316751,0
            123.979297,10.317305,0
            123.979809,10.317814,0
            123.979809,10.317867,0
            123.97964,10.318118,0
            123.979275,10.318474,0
            123.979045,10.318701,0
            123.979495,10.319221,0
            123.979798,10.319595,0
            123.980042,10.319975,0
            123.980171,10.320268,0
            123.980281,10.320566,0
            123.980332,10.320741,0
            123.980337,10.32092,0
            123.98034,10.321041,0
            123.980265,10.321303,0
            123.980117,10.321551,0
            123.979892,10.321862,0
            123.979675,10.322134,0
            123.979326,10.322604,0
            123.97902,10.323007,0
            123.978739,10.323382,0
            123.978457,10.323754,0
            123.978178,10.324123,0
            123.977762,10.324678,0
            123.977492,10.325026,0
            123.97699,10.32524,0
            123.976451,10.325311,0
            123.976086,10.325374,0
            123.975627,10.325364,0
            123.975544,10.325369,0
            123.975391,10.325322,0
            123.975064,10.325195,0
            123.974509,10.324891,0
            123.973626,10.324422,0
            123.973023,10.324081,0
            123.972626,10.323883,0
            123.971953,10.323546,0
            123.971306,10.323242,0
            123.970668,10.32296,0
            123.969885,10.322582,0
            123.969432,10.322326,0
            123.969053,10.322136,0
            123.968503,10.321828,0
            123.967905,10.321435,0
            123.967377,10.321033,0
            123.966698,10.320543,0
            123.966052,10.32006,0
            123.965446,10.319622,0
            123.964783,10.319134,0
            123.964156,10.318672,0
            123.963268,10.31802,0
            123.9626,10.31755,0
            123.962007,10.31711,0
            123.961157,10.316503,0
            123.960344,10.315941,0
            123.959741,10.315529,0
            123.959006,10.315022,0
            123.958491,10.314669,0
            123.958367,10.314563,0
            123.958161,10.314278,0
            123.957611,10.313885,0
            123.957252,10.313655,0
            123.956758,10.313331,0
            123.955892,10.312798,0
            123.955031,10.31227,0
            123.954583,10.312006,0
            123.954146,10.312608,0
            123.953708,10.313196,0
            123.95358,10.313244,0
            123.953464,10.31323,0
            123.953124,10.313125,0
            123.952263,10.31303,0
            123.952308,10.313249,0
            123.952196,10.3136,0
            123.952102,10.313721,0
            123.952016,10.31379,0
            123.951933,10.313975,0
            123.951804,10.314252,0
            123.951689,10.314426,0
            123.95163,10.314669,0
            123.95112,10.314362,0
            123.950576,10.314041,0
            123.949988,10.313705,0
            123.949623,10.313478,0
            123.949039,10.313122,0
            123.948494,10.31279,0
          </coordinates>
        </LineString>
      </Placemark>
      <Placemark>
        <name>Opon to Mactan Airport</name>
        <description><![CDATA[more cebu jeepneys route map at cebujeepneys.weebly.com (http://cebujeepneys.weebly.com)<br><br> <br>Muelle Osmena Port (Cebu-mactan Ferry Terminal) - Our Lady of Rule Parish - R. Rodriguez St. - G.Y. dela Serna St. - Opon Public Market - La Nueva Supermart - M.L. Quezon Ave. - Gaisano Metro (opon) - Gaisano Mactan Island Mall - Lapulapu City Hall - Pusok - Marina Mall - Mactan Cebu International Airport Authority.]]></description>
        <styleUrl>#line-33FF33-5000</styleUrl>
        <LineString>
          <tessellate>1</tessellate>
          <coordinates>
            123.94848,10.31278,0
            123.94733,10.312,0
            123.94823,10.31008,0
            123.94819,10.30949,0
            123.95073,10.31064,0
            123.95196,10.31114,0
            123.95326,10.31122,0
            123.95486,10.31212,0
            123.95742,10.3137,0
            123.9623,10.31717,0
            123.96862,10.32177,0
            123.9691,10.32203,0
            123.9732,10.32398,0
            123.97537,10.3252,0
            123.97592,10.32559,0
            123.977886,10.326641,0
            123.978331,10.325865,0
            123.977285,10.3253,0
            123.97989,10.32177,0
            123.98022,10.32129,0
            123.98029,10.32104,0
            123.98028,10.32075,0
            123.98017,10.32043,0
            123.97986,10.31976,0
            123.97818,10.31771,0
            123.9768,10.31628,0
            123.97667,10.31598,0
            123.97673,10.31566,0
            123.97698,10.3154,0
            123.9773,10.31529,0
            123.97875,10.31674,0
          </coordinates>
        </LineString>
      </Placemark>
    </Folder>
  </Document>
</kml>
