<?xml version="1.0" encoding="UTF-8"?>
<kml xmlns="http://www.opengis.net/kml/2.2">
  <Document>
    <name>Cebu Jeepney Route No. MI-03A</name>
    <description><![CDATA[more cebu jeepneys route maps at cebujeepneys.weebly.com<br><br>Cordova to Lapulapu City Public Market<br><br>cordova to babag 2<br>cordova to deca homes<br>cordova to babag 1<br>cordova to Looc<br>cordova to yanadia<br>cordova to lapulapu city public market<br>cordova to opon public market<br>babag 1 to lapu lapu city public market<br>babag 2 to lapulapu city public market<br>looc to lapulapu city public market<br><br>Lapulapu City Public Market to Cordova<br><br>Opon Public market to LOoc<br>public market to babag 1<br>public market to deca homes<br>public market to babag 2<br>public market to cordova<br>babag 1 to cordova<br>babag 2 to cordova <br>looc to cordova<br>deca homes to cordova]]></description>
    <Style id="line-3333FF-5000-normal">
      <LineStyle>
        <color>ffff3333</color>
        <width>5</width>
      </LineStyle>
    </Style>
    <Style id="line-3333FF-5000-highlight">
      <LineStyle>
        <color>ffff3333</color>
        <width>7.5</width>
      </LineStyle>
    </Style>
    <StyleMap id="line-3333FF-5000">
      <Pair>
        <key>normal</key>
        <styleUrl>#line-3333FF-5000-normal</styleUrl>
      </Pair>
      <Pair>
        <key>highlight</key>
        <styleUrl>#line-3333FF-5000-highlight</styleUrl>
      </Pair>
    </StyleMap>
    <Style id="line-33FF33-5000-normal">
      <LineStyle>
        <color>ff33ff33</color>
        <width>5</width>
      </LineStyle>
    </Style>
    <Style id="line-33FF33-5000-highlight">
      <LineStyle>
        <color>ff33ff33</color>
        <width>7.5</width>
      </LineStyle>
    </Style>
    <StyleMap id="line-33FF33-5000">
      <Pair>
        <key>normal</key>
        <styleUrl>#line-33FF33-5000-normal</styleUrl>
      </Pair>
      <Pair>
        <key>highlight</key>
        <styleUrl>#line-33FF33-5000-highlight</styleUrl>
      </Pair>
    </StyleMap>
    <Folder>
      <name>Untitled layer</name>
      <Placemark>
        <name>Cordova to Opon Public Market</name>
        <description><![CDATA[more cebu jeepneys route maps at cebujeepneys.weebly.com (http://cebujeepneys.weebly.com)<br>Like us on our Facebook Page (http://www.facebook.com/cebujeepneysroutemap)<br><br> <br>Cordova to Opon Public Market<br><br> <br>Cordova - Babag 2 - Deca Homes - Babag 1 - Tiangue Rd. -Looc - Lapulapu City Central School - GY. dela Serna St. - Yanadia - S. Osmena St. - Lapulapu City Public Market -]]></description>
        <styleUrl>#line-3333FF-5000</styleUrl>
        <LineString>
          <tessellate>1</tessellate>
          <coordinates>
            123.949382,10.250329,0
            123.949857,10.250408,0
            123.949935,10.25054,0
            123.949967,10.250691,0
            123.950047,10.251403,0
            123.950176,10.252301,0
            123.950157,10.252567,0
            123.950058,10.25304,0
            123.951099,10.253755,0
            123.951439,10.25399,0
            123.952198,10.254478,0
            123.952118,10.254705,0
            123.952021,10.25485,0
            123.951423,10.255249,0
            123.951297,10.255389,0
            123.95112,10.25586,0
            123.95096,10.25627,0
            123.95094,10.25645,0
            123.95063,10.25684,0
            123.95006,10.25709,0
            123.94997,10.25709,0
            123.94968,10.25626,0
            123.94938,10.2556,0
            123.9492,10.25637,0
            123.94838,10.25877,0
            123.948213,10.259248,0
            123.947915,10.260068,0
            123.947706,10.260691,0
            123.947612,10.261132,0
            123.947507,10.26189,0
            123.94737,10.262708,0
            123.947215,10.263589,0
            123.947038,10.264537,0
            123.946898,10.265323,0
            123.94677,10.266292,0
            123.946719,10.266672,0
            123.946606,10.266928,0
            123.946399,10.268015,0
            123.946276,10.268659,0
            123.946163,10.269235,0
            123.94608,10.269908,0
            123.945962,10.270668,0
            123.945892,10.271367,0
            123.945788,10.272436,0
            123.945702,10.273336,0
            123.945694,10.273513,0
            123.945694,10.274239,0
            123.945697,10.274616,0
            123.945614,10.274964,0
            123.945479,10.275331,0
            123.945174,10.27601,0
            123.944849,10.276725,0
            123.944586,10.277268,0
            123.944511,10.277559,0
            123.944468,10.278002,0
            123.944479,10.278715,0
            123.944404,10.279493,0
            123.944398,10.279876,0
            123.944696,10.280565,0
            123.944777,10.280739,0
            123.944798,10.281222,0
            123.944771,10.281594,0
            123.944728,10.2819,0
            123.944573,10.282344,0
            123.944495,10.282634,0
            123.944404,10.283481,0
            123.944297,10.284389,0
            123.944221,10.28512,0
            123.944219,10.285508,0
            123.944382,10.286447,0
            123.944508,10.287155,0
            123.944613,10.287725,0
            123.944785,10.288859,0
            123.944962,10.289955,0
            123.945152,10.291134,0
            123.945305,10.292108,0
            123.945469,10.29305,0
            123.945614,10.293813,0
            123.94575,10.29465,0
            123.945954,10.295893,0
            123.946123,10.296848,0
            123.946225,10.297489,0
            123.946413,10.298605,0
            123.946563,10.299453,0
            123.946662,10.300081,0
            123.946845,10.301186,0
            123.947019,10.302253,0
            123.947158,10.303055,0
            123.947314,10.304021,0
            123.947467,10.304984,0
            123.947617,10.305931,0
            123.947786,10.306905,0
            123.94795,10.307879,0
            123.948105,10.308823,0
            123.948213,10.309457,0
            123.949047,10.309839,0
            123.949905,10.31028,0
            123.949556,10.310832,0
          </coordinates>
        </LineString>
      </Placemark>
      <Placemark>
        <name>Opon Public Market to Cordova</name>
        <description><![CDATA[more cebu jeepneys route maps at cebujeepneys.weebly.com (http://cebujeepneys.weebly.com)<br>Like us on our Facebook Page (http://www.facebook.com/cebujeepneysroutemap)<br><br> <br>Opon Public Market to Cordova<br><br><br>Lapulapu City Public Market (opon) - L. Jaena St. - P. Rodriguez St. - Lapu lapu city Central School - Tiangue Rd. - Looc - Babag 1 - Deca Homes - Babag 2 - Cordova.]]></description>
        <styleUrl>#line-33FF33-5000</styleUrl>
        <LineString>
          <tessellate>1</tessellate>
          <coordinates>
            123.949554,10.310834,0
            123.949202,10.311367,0
            123.948585,10.311051,0
            123.947926,10.310697,0
            123.948124,10.310254,0
            123.948191,10.310117,0
            123.948213,10.310003,0
            123.948159,10.309428,0
            123.948014,10.308549,0
            123.947818,10.307398,0
            123.947673,10.306509,0
            123.947545,10.305773,0
            123.947341,10.30448,0
            123.947161,10.3034,0
            123.947003,10.302424,0
            123.946826,10.301361,0
            123.946676,10.300416,0
            123.946552,10.299653,0
            123.946381,10.298645,0
            123.94622,10.297729,0
            123.946096,10.297014,0
            123.945927,10.29599,0
            123.945774,10.295103,0
            123.945603,10.29408,0
            123.945474,10.293304,0
            123.945321,10.292478,0
            123.945235,10.29195,0
            123.945077,10.290981,0
            123.944905,10.289918,0
            123.944742,10.288873,0
            123.944645,10.288179,0
            123.944559,10.287653,0
            123.944433,10.287038,0
            123.944224,10.285848,0
            123.944165,10.285474,0
            123.944192,10.284898,0
            123.944342,10.283497,0
            123.944449,10.282592,0
            123.944621,10.282032,0
            123.944685,10.281858,0
            123.944736,10.28156,0
            123.944753,10.281161,0
            123.94471,10.280739,0
            123.944353,10.279871,0
            123.944369,10.27939,0
            123.944428,10.278694,0
            123.94442,10.278005,0
            123.944452,10.277548,0
            123.944557,10.277189,0
            123.944959,10.276355,0
            123.945313,10.275577,0
            123.945506,10.275136,0
            123.945654,10.27459,0
            123.945635,10.273938,0
            123.945651,10.273397,0
            123.945678,10.273091,0
            123.945761,10.272188,0
            123.945844,10.27138,0
            123.945922,10.270554,0
            123.946053,10.269784,0
            123.946182,10.268936,0
            123.946378,10.267849,0
            123.946547,10.266909,0
            123.946665,10.26664,0
            123.946826,10.265524,0
            123.946981,10.264584,0
            123.947169,10.263515,0
            123.947376,10.262391,0
            123.947531,10.261354,0
            123.947572,10.261124,0
            123.94766,10.260691,0
            123.947781,10.260251,0
            123.948199,10.259126,0
            123.948561,10.258113,0
            123.948937,10.257012,0
            123.949216,10.256165,0
            123.949293,10.25584,0
            123.949334,10.255555,0
            123.949328,10.254872,0
            123.949326,10.253979,0
            123.94932,10.252776,0
            123.949328,10.251744,0
            123.949331,10.250926,0
            123.949328,10.250445,0
            123.949363,10.250329,0
          </coordinates>
        </LineString>
      </Placemark>
    </Folder>
  </Document>
</kml>
