<?xml version="1.0" encoding="UTF-8"?>
<kml xmlns="http://www.opengis.net/kml/2.2">
  <Document>
    <name>Cebu Jeepney Route No. MI-04A(Tamiya to Mandaue)</name>
    <description><![CDATA[more cebu jeepneys route map at cebujeepneys.weebly.com<br><br>TAMIYA TERMINAL TO MANDAUE<br>tamiya terminal to mandaue <br>tamiya to mandaue <br>robinsons supermarket mactan to mandaue <br>mepz 2 to mandaue<br>tamiya to UCLM<br>Mepz 2 to UCLM<br>Mepz 2 to Parkmall<br>tamiya to parkmall <br>robinsons mactan to parkmall<br>tamiya to cdu<br>robinsons mactan to cdu<br>mepz2 to cdu<br>tamiya to MO2<br>mepz2 to MO2<br>mactan to mandaue<br>mactan to parkmall<br>mactan to cicc<br>mactan to cdu<br>Uclm to cdu<br>uclm to parkmall <br>uclm to mo2<br><br>MANDAUE TO TAMIYA TERMINAL<br>mandaue to tamiya terminal <br>mandaue to mactan <br>mandaue to uclm<br>mandaue to cdu<br>mandaue to parkmall<br>parkmall to uclm<br>parkmall to robinsons mactan <br>parkmall to tamiya\<br>parkmall to mepz2<br>parkmall to crown regency suites mactan<br>cdu to mactan <br>cdu to uclm <br>cdu to old mactan bridge<br>cdu to crown regency suites mactan <br>cdu to tamiya <br>cdu to mepz2<br>cdu to robinsons mactan<br>old mactan bridge to mepz 2\<br>old mactan bridge to tamiya<br>old mactan bridge to robinsons supermarket mactan<br>]]></description>
    <Style id="line-0000FF-5000-normal">
      <LineStyle>
        <color>ffff0000</color>
        <width>5</width>
      </LineStyle>
    </Style>
    <Style id="line-0000FF-5000-highlight">
      <LineStyle>
        <color>ffff0000</color>
        <width>7.5</width>
      </LineStyle>
    </Style>
    <StyleMap id="line-0000FF-5000">
      <Pair>
        <key>normal</key>
        <styleUrl>#line-0000FF-5000-normal</styleUrl>
      </Pair>
      <Pair>
        <key>highlight</key>
        <styleUrl>#line-0000FF-5000-highlight</styleUrl>
      </Pair>
    </StyleMap>
    <Style id="line-33FF33-5000-normal">
      <LineStyle>
        <color>ff33ff33</color>
        <width>5</width>
      </LineStyle>
    </Style>
    <Style id="line-33FF33-5000-highlight">
      <LineStyle>
        <color>ff33ff33</color>
        <width>7.5</width>
      </LineStyle>
    </Style>
    <StyleMap id="line-33FF33-5000">
      <Pair>
        <key>normal</key>
        <styleUrl>#line-33FF33-5000-normal</styleUrl>
      </Pair>
      <Pair>
        <key>highlight</key>
        <styleUrl>#line-33FF33-5000-highlight</styleUrl>
      </Pair>
    </StyleMap>
    <Folder>
      <name>Untitled layer</name>
      <Placemark>
        <name>Tamiya Terminal to Mandaue Area</name>
        <description><![CDATA[more cebu jeepneys route map at cebujeepneys.weebly.com (http://cebujeepneys.weebly.com)<br><br> <br>Tamiya Terminal(MEPZ 2) - Robinsons Supermarket(mactan) - Marigondon to Basak Road - Crown Regency Suites(mactan) - Mandaue Mactan Bridge(OLD) - UC-LM - A.C. Cortes Ave. - Prince Warehouse Club (mandaue) - B.b. Cabahug St. - A. del Rosario St.]]></description>
        <styleUrl>#line-0000FF-5000</styleUrl>
        <LineString>
          <tessellate>1</tessellate>
          <coordinates>
            123.963327,10.30169,0
            123.963244,10.301719,0
            123.963163,10.30178,0
            123.962951,10.301572,0
            123.962844,10.301477,0
            123.962399,10.301946,0
            123.962399,10.302052,0
            123.961986,10.302427,0
            123.961422,10.301888,0
            123.960961,10.302263,0
            123.960661,10.302532,0
            123.960285,10.302838,0
            123.960156,10.302954,0
            123.95999,10.303187,0
            123.959953,10.303303,0
            123.959883,10.303593,0
            123.959883,10.303889,0
            123.960012,10.304237,0
            123.960221,10.304839,0
            123.960376,10.30534,0
            123.96058,10.30582,0
            123.960832,10.306512,0
            123.961042,10.307198,0
            123.961133,10.307789,0
            123.961127,10.308259,0
            123.961127,10.30856,0
            123.961111,10.30914,0
            123.96102,10.3098,0
            123.960934,10.310507,0
            123.960854,10.310961,0
            123.960795,10.311352,0
            123.96073,10.311563,0
            123.960618,10.311805,0
            123.960451,10.312038,0
            123.96006,10.312544,0
            123.959749,10.312977,0
            123.959427,10.313362,0
            123.959067,10.313811,0
            123.958601,10.314513,0
            123.958483,10.314661,0
            123.958241,10.314893,0
            123.958054,10.315331,0
            123.957726,10.316028,0
            123.957469,10.316571,0
            123.956916,10.317695,0
            123.956482,10.318603,0
            123.956144,10.319279,0
            123.955913,10.319685,0
            123.955452,10.320535,0
            123.955092,10.321194,0
            123.954808,10.321717,0
            123.954266,10.322693,0
            123.954154,10.322862,0
            123.953773,10.323559,0
            123.953269,10.324319,0
            123.953161,10.324509,0
            123.952898,10.324942,0
            123.952673,10.325374,0
            123.952469,10.32577,0
            123.951997,10.326609,0
            123.951568,10.327369,0
            123.951284,10.327797,0
            123.950833,10.32834,0
            123.950468,10.328747,0
            123.950291,10.328889,0
            123.949192,10.329623,0
            123.948752,10.329945,0
            123.947909,10.330457,0
            123.947319,10.330842,0
            123.946815,10.331143,0
            123.945898,10.331734,0
            123.944272,10.332752,0
            123.942942,10.333507,0
            123.941773,10.334198,0
            123.941338,10.334441,0
            123.940839,10.334663,0
            123.940619,10.334415,0
            123.940281,10.334056,0
            123.939986,10.33366,0
            123.939595,10.333359,0
            123.939251,10.333095,0
          </coordinates>
        </LineString>
      </Placemark>
      <Placemark>
        <name>Mandaue to Tamiya</name>
        <description><![CDATA[more cebu jeepneys route map at cebujeepneys.weebly.com (http://cebujeepneys.weebly.com)<br><br> <br>A. del Rosario St. - C.D. Seno St. - Hall of Justice (mandaue) - Parkmall - W.O. Seno St. - E.O. Perez St. - P. Larazzabal Ave. - CDU - F.F. Cruz St. - Ouano Ave. - St. James Amusement Park - A. Soriano Ave. - Mandaue City Hospital - Jose L. Briones St. - A.C. Cortez Ave. - UCLM - Mactan Mandaue Bridge (OLD) - M.V. Patalinghug Ave. - Crown Regency Suites Mactan - Robinsons Supermarket mactan - Tamiya Terminal.]]></description>
        <styleUrl>#line-33FF33-5000</styleUrl>
        <LineString>
          <tessellate>1</tessellate>
          <coordinates>
            123.939241,10.333101,0
            123.938774,10.332726,0
            123.938098,10.332267,0
            123.937572,10.33186,0
            123.937191,10.331517,0
            123.93673,10.331042,0
            123.936242,10.330493,0
            123.935995,10.330483,0
            123.935716,10.330483,0
            123.935475,10.330499,0
            123.935303,10.330446,0
            123.935056,10.330425,0
            123.934954,10.330409,0
            123.934713,10.330325,0
            123.934289,10.33015,0
            123.933753,10.329908,0
            123.933077,10.329644,0
            123.932943,10.32958,0
            123.93268,10.329459,0
            123.932884,10.329164,0
            123.933302,10.328609,0
            123.934091,10.327522,0
            123.934643,10.326783,0
            123.93357,10.32595,0
            123.932943,10.325469,0
            123.932487,10.325132,0
            123.931435,10.323886,0
            123.930325,10.322202,0
            123.930035,10.321743,0
            123.929579,10.320967,0
            123.92908,10.320171,0
            123.929016,10.320039,0
            123.929139,10.31997,0
            123.930577,10.319416,0
            123.930663,10.319379,0
            123.931612,10.318841,0
            123.93172,10.318967,0
            123.932272,10.319606,0
            123.933093,10.320424,0
            123.933447,10.320867,0
            123.932589,10.321611,0
            123.932953,10.322012,0
            123.933468,10.322545,0
            123.934622,10.323654,0
            123.935689,10.324535,0
            123.936151,10.324894,0
            123.936725,10.325374,0
            123.936918,10.325559,0
            123.937245,10.325749,0
            123.937503,10.325807,0
            123.937851,10.325796,0
            123.938017,10.325754,0
            123.938693,10.325506,0
            123.939375,10.325263,0
            123.940807,10.324741,0
            123.941381,10.32453,0
            123.941746,10.324329,0
            123.942019,10.324298,0
            123.94255,10.324071,0
            123.943323,10.323717,0
            123.943473,10.32367,0
            123.943586,10.323722,0
            123.944348,10.324831,0
            123.944777,10.325459,0
            123.945281,10.326219,0
            123.94593,10.327079,0
            123.946402,10.327686,0
            123.94666,10.328119,0
            123.946831,10.328435,0
            123.946998,10.328789,0
            123.947373,10.32966,0
            123.947877,10.330414,0
            123.948298,10.33019,0
            123.948706,10.329955,0
            123.948883,10.329815,0
            123.9495,10.32939,0
            123.949961,10.329082,0
            123.950267,10.328876,0
            123.950492,10.328718,0
            123.95057,10.328607,0
            123.950817,10.328332,0
            123.951069,10.328026,0
            123.951281,10.327757,0
            123.951504,10.32743,0
            123.951689,10.327111,0
            123.951981,10.326599,0
            123.952239,10.326134,0
            123.952531,10.325593,0
            123.95277,10.32515,0
            123.953129,10.324522,0
            123.953438,10.324028,0
            123.953749,10.323556,0
            123.953877,10.323321,0
            123.954108,10.32291,0
            123.954333,10.322516,0
            123.954508,10.322231,0
            123.954776,10.32173,0
            123.955133,10.321084,0
            123.955398,10.320601,0
            123.955811,10.319843,0
            123.956316,10.318907,0
            123.956809,10.317883,0
            123.957096,10.317278,0
            123.957418,10.316645,0
            123.957734,10.315954,0
            123.957995,10.315402,0
            123.95815,10.315078,0
            123.958247,10.314853,0
            123.958378,10.314584,0
            123.958456,10.314436,0
            123.958837,10.313938,0
            123.959432,10.313172,0
            123.959904,10.31256,0
            123.960135,10.312243,0
            123.960344,10.311985,0
            123.960527,10.311732,0
            123.960634,10.311499,0
            123.960752,10.311151,0
            123.960763,10.31095,0
            123.960881,10.310027,0
            123.960972,10.309087,0
            123.961031,10.308312,0
            123.961031,10.30791,0
            123.960988,10.307546,0
            123.960924,10.307251,0
            123.960591,10.306169,0
            123.960232,10.305187,0
            123.95992,10.3043,0
            123.959802,10.30392,0
            123.959754,10.303593,0
            123.959835,10.303245,0
            123.959883,10.303102,0
            123.960119,10.302801,0
            123.960489,10.302511,0
            123.961025,10.302068,0
            123.961396,10.301788,0
            123.961621,10.302015,0
            123.961932,10.3023,0
            123.962286,10.301962,0
            123.962383,10.301941,0
            123.96264,10.301661,0
            123.962836,10.301448,0
            123.962957,10.301548,0
            123.963056,10.301529,0
            123.963193,10.30145,0
          </coordinates>
        </LineString>
      </Placemark>
    </Folder>
  </Document>
</kml>
