<?xml version="1.0" encoding="UTF-8"?>
<kml xmlns="http://www.opengis.net/kml/2.2">
  <Document>
    <name>Cebu Jeepney Route No. MI-01A</name>
    <description><![CDATA[Punta Engano to Opon Public Market<br><br>Punta Engano to Mepza<br>Punta Engano to Marina Mall0<br>Punta Engano to Pusok<br>Punta Engano to Lapulapu City Hall <br>Punta Engano to Gaisano Mactan<br>Punta Engano to Metro Mactan<br>Punta Engano to Opon Public Market<br>Mepza to Pusok<br>Mepza to Lapulapu city Hall<br>Mepza to SSS<br>Mepza to Gaisano Island Mall<br>Mepza to Metro-Opon<br>Mepza to Opon Public Market<br>Pusok to Gaisano Island Mall<br>Pusok to Metro-lapulapu<br>Pusok  to Opon Public Market<br>gaisano island mall to metro-lapulapu<br>gaisano island mall to opon public market<br><br>Opon Public Market to Punta Engano<br><br>Opon to gaisano island mall<br>Opon to lapulapu city hall<br>Opon  to SSS<br>Opon to Pusok<br>Opon to marina mall<br>Opon to mepza<br>Opon to ibo<br>Opon to mactan shrine<br>Opon to punta engano<br>Opon to shanrila mactan<br>gaisano island mall to pusok<br>gaisano island mall to marina mall<br>gaisano island mall to mepza<br>gaisano island mall to mactan shrine<br>gaisano island mall to punta engano<br>mepza to mactan shrine<br>mepza to punta engano<br>mepza to shangrila....]]></description>
    <Style id="line-0000FF-5000-normal">
      <LineStyle>
        <color>ffff0000</color>
        <width>5</width>
      </LineStyle>
    </Style>
    <Style id="line-0000FF-5000-highlight">
      <LineStyle>
        <color>ffff0000</color>
        <width>7.5</width>
      </LineStyle>
    </Style>
    <StyleMap id="line-0000FF-5000">
      <Pair>
        <key>normal</key>
        <styleUrl>#line-0000FF-5000-normal</styleUrl>
      </Pair>
      <Pair>
        <key>highlight</key>
        <styleUrl>#line-0000FF-5000-highlight</styleUrl>
      </Pair>
    </StyleMap>
    <Style id="line-33FF33-5000-normal">
      <LineStyle>
        <color>ff33ff33</color>
        <width>5</width>
      </LineStyle>
    </Style>
    <Style id="line-33FF33-5000-highlight">
      <LineStyle>
        <color>ff33ff33</color>
        <width>7.5</width>
      </LineStyle>
    </Style>
    <StyleMap id="line-33FF33-5000">
      <Pair>
        <key>normal</key>
        <styleUrl>#line-33FF33-5000-normal</styleUrl>
      </Pair>
      <Pair>
        <key>highlight</key>
        <styleUrl>#line-33FF33-5000-highlight</styleUrl>
      </Pair>
    </StyleMap>
    <Folder>
      <name>Untitled layer</name>
      <Placemark>
        <name>Punta Engano to Opon Public Market</name>
        <description><![CDATA[more cebu jeepneys route maps at cebujeepneys.weebly.com (http://cebujeepneys.weebly.com)<br>like us on our Facebook Page (http://facebook.com/cebujeepneysroutemap)<br><br> <br>Punta Engano to Opon Public Market<br><br> <br>Punta Engano - Mactan Shrine - Mepza - Marina Mall - Pusok - SSS - Lapulapu City Hall - Gaisano Island Mall - Metro-lapulapu - Opon Public Market.]]></description>
        <styleUrl>#line-0000FF-5000</styleUrl>
        <LineString>
          <tessellate>1</tessellate>
          <coordinates>
            124.0421,10.32909,0
            124.04142,10.32857,0
            124.04041,10.32765,0
            124.03943,10.32652,0
            124.03903,10.3262,0
            124.03827,10.32538,0
            124.03821,10.3251,0
            124.03818,10.32443,0
            124.03812,10.32425,0
            124.03792,10.32416,0
            124.03746,10.32413,0
            124.03675,10.32358,0
            124.03669,10.3236,0
            124.03622,10.32422,0
            124.03615,10.32425,0
            124.03549,10.32374,0
            124.03299,10.32147,0
            124.03096,10.31984,0
            124.02982,10.31878,0
            124.02951,10.31847,0
            124.02857,10.3169,0
            124.02769,10.31579,0
            124.02744,10.31559,0
            124.02668,10.31518,0
            124.02636,10.31494,0
            124.02507,10.31379,0
            124.02447,10.3132,0
            124.02382,10.31246,0
            124.02345,10.31186,0
            124.02295,10.31132,0
            124.02244,10.31056,0
            124.02197,10.31027,0
            124.02169,10.31019,0
            124.02093,10.31007,0
            124.02029,10.31005,0
            124.01984,10.31017,0
            124.01904,10.31049,0
            124.01854,10.31053,0
            124.01733,10.31084,0
            124.01593,10.31086,0
            124.01576,10.31082,0
            124.01565,10.31072,0
            124.01543,10.31042,0
            124.01513,10.31037,0
            124.01489,10.31047,0
            124.01471,10.31071,0
            124.0146,10.31077,0
            124.01431,10.31079,0
            124.00993,10.31057,0
            124.00781,10.31052,0
            124.0076,10.31059,0
            124.00266,10.31446,0
            124.00212,10.31467,0
            124.00077,10.31507,0
            124.00033,10.31528,0
            123.99878,10.31666,0
            123.99811,10.31709,0
            123.99644,10.31787,0
            123.99598,10.31822,0
            123.99566,10.31858,0
            123.9906,10.32534,0
            123.99045,10.32634,0
            123.99028,10.32845,0
            123.99014,10.3289,0
            123.98908,10.33086,0
            123.98859,10.33135,0
            123.98748,10.3322,0
            123.98703,10.33247,0
            123.98654,10.33267,0
            123.98518,10.33291,0
            123.98474,10.33279,0
            123.98449,10.33263,0
            123.98243,10.33093,0
            123.98094,10.32957,0
            123.98041,10.32901,0
            123.97977,10.32798,0
            123.9791,10.32734,0
            123.97615,10.32576,0
            123.97549,10.32535,0
            123.97505,10.32521,0
            123.97261,10.32388,0
            123.96985,10.32259,0
            123.96827,10.32168,0
            123.96764,10.32127,0
            123.96249,10.31747,0
            123.95849,10.31469,0
            123.95835,10.31458,0
            123.95819,10.31431,0
            123.9576,10.31388,0
            123.95458,10.312,0
            123.95371,10.31319,0
            123.95359,10.31325,0
            123.95268,10.31308,0
            123.9522,10.31304,0
            123.95185,10.31294,0
            123.951429,10.312684,0
          </coordinates>
        </LineString>
      </Placemark>
      <Placemark>
        <name>Opon Public Market to Punta Engano</name>
        <description><![CDATA[more cebujeepneys route maps at cebujeepneys.weebly.com (http://cebujeepneys.weebly.com)<br>Like us on our Facebook Page (http://facebook.com/cebujeepneysroutemap)<br><br> <br>Opon Public Market to Punta Engano<br><br> <br>Opon Public Market to Metro-lapulapu - Gaisano Island Mall - Lapulapu City Hall - SSS - Pusok - Marina Mall - Mepza - Ibo - Mactan Shrine - Shangrila Hotel - Punta Engano.]]></description>
        <styleUrl>#line-33FF33-5000</styleUrl>
        <LineString>
          <tessellate>1</tessellate>
          <coordinates>
            123.951418,10.312674,0
            123.952024,10.311507,0
            123.95223,10.31115,0
            123.95325,10.3112,0
            123.95459,10.31196,0
            123.9565,10.31312,0
            123.95821,10.31429,0
            123.9585,10.31443,0
            123.96231,10.31716,0
            123.96678,10.32046,0
            123.96868,10.32178,0
            123.96945,10.3222,0
            123.97309,10.32392,0
            123.97473,10.32481,0
            123.97616,10.32569,0
            123.97914,10.32731,0
            123.97982,10.32798,0
            123.98051,10.32907,0
            123.98112,10.32968,0
            123.98257,10.331,0
            123.98426,10.33239,0
            123.98475,10.33275,0
            123.98514,10.33286,0
            123.98652,10.33263,0
            123.9871,10.33238,0
            123.98847,10.3314,0
            123.98879,10.33113,0
            123.98903,10.33083,0
            123.98993,10.32923,0
            123.99012,10.32886,0
            123.99023,10.32846,0
            123.99045,10.32596,0
            123.99056,10.32533,0
            123.99563,10.31854,0
            123.99594,10.31818,0
            123.99673,10.31766,0
            123.99773,10.31723,0
            123.99857,10.31675,0
            123.99934,10.31617,0
            124.00026,10.31527,0
            124.00078,10.31501,0
            124.00207,10.31465,0
            124.00264,10.3144,0
            124.00739,10.31067,0
            124.00783,10.31047,0
            124.01001,10.31053,0
            124.01448,10.31076,0
            124.0147,10.31067,0
            124.01489,10.31043,0
            124.01512,10.31033,0
            124.01542,10.31037,0
            124.01554,10.31046,0
            124.0157,10.31073,0
            124.01589,10.31081,0
            124.01737,10.31079,0
            124.01853,10.31049,0
            124.01904,10.31045,0
            124.01975,10.31016,0
            124.02028,10.31002,0
            124.02085,10.31002,0
            124.02162,10.31014,0
            124.022,10.31021,0
            124.02245,10.31053,0
            124.02297,10.31128,0
            124.02347,10.31184,0
            124.02391,10.31252,0
            124.0244,10.31308,0
            124.0252,10.31385,0
            124.02639,10.31491,0
            124.02772,10.31576,0
            124.02868,10.31701,0
            124.02955,10.31845,0
            124.03006,10.31896,0
            124.03142,10.32019,0
            124.03278,10.32125,0
            124.03522,10.32346,0
            124.03612,10.32419,0
            124.03618,10.3242,0
            124.03624,10.32412,0
            124.03666,10.32357,0
            124.03675,10.32355,0
            124.03683,10.32355,0
            124.03744,10.32407,0
            124.03808,10.32413,0
            124.03822,10.32438,0
            124.03829,10.32535,0
            124.0389,10.32601,0
            124.03946,10.32651,0
            124.04043,10.32762,0
            124.04131,10.32844,0
            124.04213,10.32906,0
          </coordinates>
        </LineString>
      </Placemark>
    </Folder>
  </Document>
</kml>
