<?xml version="1.0" encoding="UTF-8"?>
<kml xmlns="http://www.opengis.net/kml/2.2">
  <Document>
    <name>Cebu Jeepney Route No. MI-03B via opon public market</name>
    <description><![CDATA[more cebu jeepneys route maps at cebujeepneys.weebly.com<br><br>Cordova to Mepz 1 via opon public market <br><br>Cordova to babag 1 <br>cordova to babag 2 <br>cordova to looc<br>cordova to lapulapu public market<br>cordova to la nueva<br>cordova to gaisano mactan island mall<br>cordova to lapulapu city hall<br>cordova to pusok <br>cordova to marina mall<br>cordova to savemore supermarket<br>cordova to piza<br>cordova to mepz 1<br>cordova to gate 1<br>cordova to gate 2<br>cordova to gate 3<br>cordova to gate 4<br>babag 2 to opon public market<br>babag 2 to gaisano mactan island mall<br>babag 2 to pusok<br>babag 2 to mepz 1<br>opon public market to gaisano mactan island mall<br>opon public market to pusok<br>opon public market to marina mall<br>opon public market to savemore market<br>opon public market to mepz 1<br>gaisano mactan to pusok <br>gaisano mactan to mepz 1<br><br>Mepz 1 to Cordova via Muelle Osmena Port<br><br>Mepz 1 to Pusok<br>mepz 1 to gaisano mactan island mall<br>mepz 1 to opon public market<br>mepz 1 to lapulapu public market <br>mepz 1 to Muelle osmena port<br>mepz 1 to cordova ]]></description>
    <Style id="line-3333FF-5000-normal">
      <LineStyle>
        <color>ffff3333</color>
        <width>5</width>
      </LineStyle>
    </Style>
    <Style id="line-3333FF-5000-highlight">
      <LineStyle>
        <color>ffff3333</color>
        <width>7.5</width>
      </LineStyle>
    </Style>
    <StyleMap id="line-3333FF-5000">
      <Pair>
        <key>normal</key>
        <styleUrl>#line-3333FF-5000-normal</styleUrl>
      </Pair>
      <Pair>
        <key>highlight</key>
        <styleUrl>#line-3333FF-5000-highlight</styleUrl>
      </Pair>
    </StyleMap>
    <Style id="line-33FF33-5000-normal">
      <LineStyle>
        <color>ff33ff33</color>
        <width>5</width>
      </LineStyle>
    </Style>
    <Style id="line-33FF33-5000-highlight">
      <LineStyle>
        <color>ff33ff33</color>
        <width>7.5</width>
      </LineStyle>
    </Style>
    <StyleMap id="line-33FF33-5000">
      <Pair>
        <key>normal</key>
        <styleUrl>#line-33FF33-5000-normal</styleUrl>
      </Pair>
      <Pair>
        <key>highlight</key>
        <styleUrl>#line-33FF33-5000-highlight</styleUrl>
      </Pair>
    </StyleMap>
    <Folder>
      <name>Untitled layer</name>
      <Placemark>
        <name>Cordova to Mepz1 via Opon Public Market</name>
        <description><![CDATA[more cebu jeepneys route maps at cebujeepneys.weebly.com (http://cebujeepneys.weebly.com)<br>Like us on our Facebook Page (http://www.facebook.com/cebujeepneysroutemap)<br><br> <br>Cordova to Mepz 1 via Opon Public Market<br><br> <br>Cordova - Quezon National Highway - Cordova Terminal - Babab 2 - Pilipog - Mactan Circumferential Rd. - Babag 1 - Deca Homes - Canjulao - Looc - Lapu2x City Central School - GY. dela Serna St. - Opon Public Market - Lapulapu City Public Market - La Nueva Supermart - GV Hotel - Metro Gaisano (opon) - General Milling Corp. - ML Quezo Ave. - Gaisano Mactan - Lapulapu City Hall - Goldberry Hotel and Suites - The Villavista Hotel - Pusok - Lancaster Hotel - Marina Mall - Savemore supermarket (mactan) - mepz 1 - gate 1 -<br>Lear - Taiyo Yuden -  gate 2 - gate 3 - gate 4.]]></description>
        <styleUrl>#line-3333FF-5000</styleUrl>
        <LineString>
          <tessellate>1</tessellate>
          <coordinates>
            123.949422,10.250321,0
            123.94976,10.250353,0
            123.949894,10.250408,0
            123.949961,10.250503,0
            123.949975,10.250654,0
            123.950061,10.251306,0
            123.950146,10.251791,0
            123.950165,10.252061,0
            123.950195,10.252309,0
            123.950163,10.252562,0
            123.95013,10.252757,0
            123.950074,10.253048,0
            123.950678,10.253481,0
            123.95138,10.253953,0
            123.952212,10.254465,0
            123.952177,10.25461,0
            123.952118,10.254755,0
            123.951994,10.254877,0
            123.951418,10.255252,0
            123.951284,10.255455,0
            123.951139,10.255835,0
            123.950991,10.256292,0
            123.950948,10.25646,0
            123.950836,10.256666,0
            123.95064,10.256888,0
            123.950004,10.257115,0
            123.949935,10.257081,0
            123.949682,10.256315,0
            123.949521,10.255922,0
            123.949412,10.255685,0
            123.949374,10.255711,0
            123.949318,10.256041,0
            123.949149,10.256566,0
            123.948899,10.257316,0
            123.94858,10.258237,0
            123.94818,10.259324,0
            123.947896,10.260145,0
            123.947818,10.260335,0
            123.947703,10.260691,0
            123.947617,10.261111,0
            123.947566,10.261517,0
            123.947464,10.262206,0
            123.947303,10.26303,0
            123.947209,10.263592,0
            123.947032,10.26459,0
            123.946909,10.26526,0
            123.946847,10.265751,0
            123.946743,10.266461,0
            123.946708,10.266672,0
            123.946593,10.266923,0
            123.946552,10.267224,0
            123.946418,10.267907,0
            123.946322,10.268459,0
            123.946236,10.26891,0
            123.946091,10.269813,0
            123.945962,10.270657,0
            123.945935,10.270961,0
            123.945871,10.271763,0
            123.945745,10.272866,0
            123.945718,10.273215,0
            123.945683,10.273529,0
            123.945699,10.273985,0
            123.945699,10.274526,0
            123.945702,10.274632,0
            123.945651,10.274814,0
            123.945576,10.275107,0
            123.945482,10.275318,0
            123.945147,10.276054,0
            123.944742,10.276949,0
            123.9446,10.277237,0
            123.944503,10.277575,0
            123.944468,10.278002,0
            123.94449,10.278683,0
            123.944444,10.279161,0
            123.944401,10.279543,0
            123.944398,10.279876,0
            123.944758,10.280705,0
            123.944806,10.281177,0
            123.944793,10.281512,0
            123.944726,10.281903,0
            123.944565,10.282357,0
            123.9445,10.282631,0
            123.944409,10.28342,0
            123.944272,10.284637,0
            123.944229,10.285051,0
            123.944216,10.285497,0
            123.944374,10.286455,0
            123.944562,10.287434,0
            123.944629,10.287772,0
            123.944761,10.288667,0
            123.944903,10.289643,0
            123.945107,10.290841,0
            123.945292,10.29195,0
            123.94538,10.292533,0
            123.945477,10.293058,0
            123.945616,10.293789,0
            123.945841,10.295175,0
            123.94601,10.296214,0
            123.946166,10.297109,0
            123.946359,10.298239,0
            123.94645,10.298832,0
            123.946571,10.299431,0
            123.946611,10.299748,0
            123.946778,10.300732,0
            123.94693,10.301727,0
            123.94711,10.302807,0
            123.947282,10.303902,0
            123.947459,10.304934,0
            123.94762,10.305931,0
            123.947829,10.307174,0
            123.947955,10.307902,0
            123.948089,10.308684,0
            123.948218,10.309452,0
            123.94932,10.309963,0
            123.949956,10.310283,0
            123.950645,10.310586,0
            123.951665,10.311008,0
            123.951962,10.311125,0
            123.952662,10.311172,0
            123.953266,10.311206,0
            123.9541,10.311681,0
            123.955122,10.312267,0
            123.956342,10.313014,0
            123.957651,10.313851,0
            123.958274,10.314315,0
            123.95852,10.314428,0
            123.959035,10.314819,0
            123.960105,10.315584,0
            123.961203,10.316376,0
            123.962313,10.317181,0
            123.963504,10.31806,0
            123.964322,10.318659,0
            123.965601,10.319569,0
            123.966658,10.320374,0
            123.96757,10.321033,0
            123.968495,10.321693,0
            123.968678,10.321804,0
            123.969297,10.322126,0
            123.969598,10.322279,0
            123.970408,10.322646,0
            123.971762,10.323271,0
            123.972768,10.323751,0
            123.973712,10.324261,0
            123.974809,10.32486,0
            123.975292,10.325126,0
            123.975641,10.325385,0
            123.976215,10.325736,0
            123.9767,10.325971,0
            123.977921,10.326649,0
            123.978728,10.327092,0
            123.979155,10.327316,0
            123.979597,10.32772,0
            123.979836,10.327989,0
            123.980463,10.328997,0
            123.980844,10.329419,0
            123.981469,10.329995,0
            123.98225,10.330694,0
            123.983025,10.33137,0
            123.984092,10.332251,0
            123.984511,10.332594,0
            123.984755,10.332752,0
            123.985171,10.332858,0
            123.986131,10.332723,0
            123.986675,10.332573,0
            123.986885,10.332486,0
            123.987459,10.332164,0
            123.987864,10.331847,0
          </coordinates>
        </LineString>
      </Placemark>
      <Placemark>
        <name>MEPZ1 to Cordova via Opon Public Market</name>
        <description><![CDATA[more cebu jeepneys route maps at cebujeepneys.weebly.com (http://cebujeepneys.weebly.com)<br>Like us on our Facebook Page (http://www.facebook.com/cebujeepneysroutemap)<br><br> <br>Mepz 1 to Cordova via Mactan Ferry Terminal<br><br> <br>Mepz 1 - Gate 4 - Gate 3 - Taiyo Yuden - Lear - Gate 2 - Gate 1 - Marina Mall - Savemore supermarket (mactan) - Pusok - ML Quezon ave. - The Bellavista Hotel - Goldberry Hotel & Suites - Lapulapu City Hall - Sss (lapulapu) - Gaisano Mactan Island Mall - Dulcenia Hotel and Suites - General Milling Corp. - Metro Gaisano Mactan - Mantawe Rd. - BM. Dimataga St. - Poblacion - Opon Plaza - Mactan Ferry Boat Terminal - Birhen Sa Regla (opon) - R. Rodriguez St. - Lapulapu City central School - Tiangue Rd. - Looc - Babab 1 - Deca Homes -  Babag 2 - Cordova.]]></description>
        <styleUrl>#line-33FF33-5000</styleUrl>
        <LineString>
          <tessellate>1</tessellate>
          <coordinates>
            123.987898,10.331887,0
            123.987507,10.332195,0
            123.987099,10.332433,0
            123.986906,10.332536,0
            123.986495,10.332686,0
            123.986112,10.332765,0
            123.985814,10.332829,0
            123.985181,10.332903,0
            123.984926,10.332855,0
            123.984736,10.332781,0
            123.98432,10.332491,0
            123.983945,10.332172,0
            123.983695,10.331961,0
            123.983467,10.331776,0
            123.983126,10.331509,0
            123.982646,10.331119,0
            123.982156,10.330665,0
            123.981311,10.329908,0
            123.980954,10.329562,0
            123.980758,10.329388,0
            123.980412,10.328997,0
            123.979913,10.328192,0
            123.979779,10.327997,0
            123.979197,10.327419,0
            123.979023,10.32729,0
            123.978143,10.326828,0
            123.977255,10.32634,0
            123.976606,10.325981,0
            123.976161,10.325749,0
            123.9756,10.325406,0
            123.975069,10.325208,0
            123.974299,10.324778,0
            123.97331,10.324237,0
            123.972127,10.32363,0
            123.971432,10.3233,0
            123.970407,10.32283,0
            123.969917,10.322609,0
            123.969482,10.322353,0
            123.969037,10.322144,0
            123.968398,10.321754,0
            123.967969,10.321474,0
            123.967304,10.32097,0
            123.966711,10.320545,0
            123.965872,10.319928,0
            123.964896,10.319215,0
            123.963941,10.318519,0
            123.962755,10.317653,0
            123.961328,10.316635,0
            123.960017,10.315716,0
            123.958501,10.314669,0
            123.958354,10.314555,0
            123.958187,10.31431,0
            123.957616,10.313887,0
            123.956865,10.313383,0
            123.956213,10.312993,0
            123.955468,10.312528,0
            123.954582,10.312009,0
            123.954185,10.312534,0
            123.953933,10.312887,0
            123.953711,10.31318,0
            123.953593,10.313252,0
            123.953437,10.313233,0
            123.953137,10.313138,0
            123.952697,10.313062,0
            123.952273,10.313046,0
            123.952294,10.313175,0
            123.952319,10.313286,0
            123.9523,10.313354,0
            123.952209,10.31356,0
            123.952107,10.313708,0
            123.951959,10.313898,0
            123.951911,10.314077,0
            123.951766,10.314312,0
            123.951704,10.314428,0
            123.951637,10.314674,0
            123.950782,10.314162,0
            123.94998,10.313679,0
            123.949623,10.313481,0
            123.949108,10.313159,0
            123.948609,10.312845,0
            123.948488,10.312787,0
            123.947762,10.312265,0
            123.94733,10.312011,0
            123.947802,10.311006,0
            123.948167,10.310206,0
            123.94822,10.310061,0
            123.948226,10.309839,0
            123.948169,10.309473,0
            123.948003,10.308441,0
            123.947823,10.307412,0
            123.947654,10.306348,0
            123.947515,10.305506,0
            123.947316,10.30435,0
            123.947185,10.303514,0
            123.947104,10.303023,0
            123.946911,10.30183,0
            123.946742,10.300809,0
            123.946563,10.299685,0
            123.946364,10.298505,0
            123.946174,10.297468,0
            123.945973,10.296212,0
            123.94582,10.295344,0
            123.945726,10.29476,0
            123.9456,10.294011,0
            123.945436,10.293082,0
            123.945361,10.29262,0
            123.945259,10.292071,0
            123.945122,10.291184,0
            123.944969,10.290282,0
            123.944833,10.289493,0
            123.944653,10.288184,0
            123.944449,10.287104,0
            123.944242,10.285909,0
            123.94417,10.285481,0
            123.944242,10.284526,0
            123.944352,10.283457,0
            123.94446,10.282615,0
            123.94454,10.282285,0
            123.94468,10.281897,0
            123.944733,10.281589,0
            123.944755,10.28118,0
            123.944723,10.280736,0
            123.94435,10.279863,0
            123.94435,10.279604,0
            123.944409,10.279026,0
            123.944441,10.27867,0
            123.944425,10.277973,0
            123.94446,10.277564,0
            123.944556,10.2772,0
            123.945114,10.276039,0
            123.945514,10.275144,0
            123.945664,10.274603,0
            123.945651,10.273684,0
            123.945653,10.27327,0
            123.94575,10.272386,0
            123.945841,10.271462,0
            123.945922,10.27062,0
            123.946163,10.269092,0
            123.946265,10.268533,0
            123.946423,10.267633,0
            123.94656,10.266931,0
            123.94667,10.266627,0
            123.94685,10.26535,0
            123.947021,10.264386,0
            123.947236,10.263217,0
            123.947453,10.261977,0
            123.947638,10.260752,0
            123.947719,10.260472,0
            123.948183,10.259182,0
            123.948555,10.258181,0
            123.948966,10.256973,0
            123.949256,10.256054,0
            123.949315,10.255859,0
            123.949341,10.255589,0
            123.949336,10.254294,0
            123.949312,10.253032,0
            123.949328,10.252135,0
            123.949333,10.251137,0
            123.949325,10.250556,0
            123.949328,10.250464,0
            123.949371,10.250327,0
            123.949408,10.250313,0
          </coordinates>
        </LineString>
      </Placemark>
    </Folder>
  </Document>
</kml>
