<?xml version="1.0" encoding="UTF-8"?>
<kml xmlns="http://www.opengis.net/kml/2.2">
  <Document>
    <name>Tuburan Vhire</name>
    <Style id="icon-ci-1-nodesc-normal">
      <IconStyle>
        <scale>0.7</scale>
        <Icon>
          <href>images/icon-1.png</href>
        </Icon>
      </IconStyle>
      <LabelStyle>
        <scale>0</scale>
      </LabelStyle>
      <BalloonStyle>
        <text><![CDATA[<h3>$[name]</h3>]]></text>
      </BalloonStyle>
    </Style>
    <Style id="icon-ci-1-nodesc-highlight">
      <IconStyle>
        <scale>0.7</scale>
        <Icon>
          <href>images/icon-1.png</href>
        </Icon>
      </IconStyle>
      <LabelStyle>
        <scale>0.7</scale>
      </LabelStyle>
      <BalloonStyle>
        <text><![CDATA[<h3>$[name]</h3>]]></text>
      </BalloonStyle>
    </Style>
    <StyleMap id="icon-ci-1-nodesc">
      <Pair>
        <key>normal</key>
        <styleUrl>#icon-ci-1-nodesc-normal</styleUrl>
      </Pair>
      <Pair>
        <key>highlight</key>
        <styleUrl>#icon-ci-1-nodesc-highlight</styleUrl>
      </Pair>
    </StyleMap>
    <Style id="icon-ci-2-nodesc-normal">
      <IconStyle>
        <scale>0.7</scale>
        <Icon>
          <href>images/icon-2.png</href>
        </Icon>
      </IconStyle>
      <LabelStyle>
        <scale>0</scale>
      </LabelStyle>
      <BalloonStyle>
        <text><![CDATA[<h3>$[name]</h3>]]></text>
      </BalloonStyle>
    </Style>
    <Style id="icon-ci-2-nodesc-highlight">
      <IconStyle>
        <scale>0.7</scale>
        <Icon>
          <href>images/icon-2.png</href>
        </Icon>
      </IconStyle>
      <LabelStyle>
        <scale>0.7</scale>
      </LabelStyle>
      <BalloonStyle>
        <text><![CDATA[<h3>$[name]</h3>]]></text>
      </BalloonStyle>
    </Style>
    <StyleMap id="icon-ci-2-nodesc">
      <Pair>
        <key>normal</key>
        <styleUrl>#icon-ci-2-nodesc-normal</styleUrl>
      </Pair>
      <Pair>
        <key>highlight</key>
        <styleUrl>#icon-ci-2-nodesc-highlight</styleUrl>
      </Pair>
    </StyleMap>
    <Style id="icon-ci-3-nodesc-normal">
      <IconStyle>
        <scale>0.7</scale>
        <Icon>
          <href>images/icon-3.png</href>
        </Icon>
      </IconStyle>
      <LabelStyle>
        <scale>0</scale>
      </LabelStyle>
      <BalloonStyle>
        <text><![CDATA[<h3>$[name]</h3>]]></text>
      </BalloonStyle>
    </Style>
    <Style id="icon-ci-3-nodesc-highlight">
      <IconStyle>
        <scale>0.7</scale>
        <Icon>
          <href>images/icon-3.png</href>
        </Icon>
      </IconStyle>
      <LabelStyle>
        <scale>0.7</scale>
      </LabelStyle>
      <BalloonStyle>
        <text><![CDATA[<h3>$[name]</h3>]]></text>
      </BalloonStyle>
    </Style>
    <StyleMap id="icon-ci-3-nodesc">
      <Pair>
        <key>normal</key>
        <styleUrl>#icon-ci-3-nodesc-normal</styleUrl>
      </Pair>
      <Pair>
        <key>highlight</key>
        <styleUrl>#icon-ci-3-nodesc-highlight</styleUrl>
      </Pair>
    </StyleMap>
    <Style id="line-1267FF-5000-nodesc-normal">
      <LineStyle>
        <color>ffff6712</color>
        <width>5</width>
      </LineStyle>
      <BalloonStyle>
        <text><![CDATA[<h3>$[name]</h3>]]></text>
      </BalloonStyle>
    </Style>
    <Style id="line-1267FF-5000-nodesc-highlight">
      <LineStyle>
        <color>ffff6712</color>
        <width>7.5</width>
      </LineStyle>
      <BalloonStyle>
        <text><![CDATA[<h3>$[name]</h3>]]></text>
      </BalloonStyle>
    </Style>
    <StyleMap id="line-1267FF-5000-nodesc">
      <Pair>
        <key>normal</key>
        <styleUrl>#line-1267FF-5000-nodesc-normal</styleUrl>
      </Pair>
      <Pair>
        <key>highlight</key>
        <styleUrl>#line-1267FF-5000-nodesc-highlight</styleUrl>
      </Pair>
    </StyleMap>
    <Placemark>
      <name>Tuburan Vhire</name>
      <styleUrl>#line-1267FF-5000-nodesc</styleUrl>
      <LineString>
        <tessellate>1</tessellate>
        <coordinates>
          123.90326,10.31806,0
          123.90326,10.31804,0
          123.90327,10.31803,0
          123.90327,10.31802,0
          123.90328,10.31801,0
          123.90348,10.31791,0
          123.90329,10.31748,0
          123.9026,10.31778,0
          123.90254,10.31764,0
          123.90231,10.31719,0
          123.90205,10.31776,0
          123.90058,10.32056,0
          123.8993,10.3199,0
          123.89896,10.32138,0
          123.89895,10.32147,0
          123.89857,10.32324,0
          123.89855,10.32338,0
          123.89813,10.32535,0
          123.89806,10.32589,0
          123.89802,10.32644,0
          123.89793,10.32693,0
          123.89739,10.32861,0
          123.8974,10.3289,0
          123.89747,10.3292,0
          123.89769,10.32989,0
          123.8977,10.32995,0
          123.89808,10.33117,0
          123.89824,10.33135,0
          123.89847,10.33149,0
          123.89863,10.33157,0
          123.89874,10.33165,0
          123.89881,10.33172,0
          123.89887,10.33182,0
          123.89887,10.33197,0
          123.89883,10.33204,0
          123.89868,10.3322,0
          123.89834,10.33234,0
          123.8983,10.33235,0
          123.89819,10.3324,0
          123.89803,10.3325,0
          123.89773,10.33279,0
          123.89769,10.33284,0
          123.89743,10.33305,0
          123.89721,10.33327,0
          123.89699,10.33353,0
          123.89668,10.33394,0
          123.89661,10.33406,0
          123.89657,10.33424,0
          123.89657,10.33434,0
          123.89658,10.3344,0
          123.8966,10.33446,0
          123.89666,10.33456,0
          123.89677,10.33468,0
          123.89699,10.33486,0
          123.89704,10.33493,0
          123.89705,10.33496,0
          123.89708,10.33501,0
          123.89705,10.33549,0
          123.89704,10.33553,0
          123.89705,10.33604,0
          123.89713,10.33654,0
          123.89713,10.33662,0
          123.8971,10.33688,0
          123.89696,10.3373,0
          123.89684,10.33752,0
          123.89672,10.33784,0
          123.89658,10.33866,0
          123.89653,10.33909,0
          123.89653,10.33916,0
          123.89659,10.33971,0
          123.89668,10.34022,0
          123.89679,10.3407,0
          123.89679,10.34084,0
          123.89676,10.34113,0
          123.89676,10.34123,0
          123.89668,10.34141,0
          123.89655,10.3416,0
          123.89643,10.34175,0
          123.89593,10.34229,0
          123.8953,10.34306,0
          123.89502,10.34335,0
          123.89494,10.3434,0
          123.89478,10.34346,0
          123.89444,10.34355,0
          123.8943,10.34361,0
          123.89395,10.34372,0
          123.89387,10.34379,0
          123.8938,10.34389,0
          123.89374,10.34403,0
          123.89343,10.34535,0
          123.89343,10.34546,0
          123.89342,10.34553,0
          123.89344,10.34563,0
          123.89354,10.34592,0
          123.89361,10.34608,0
          123.89362,10.34615,0
          123.89363,10.34618,0
          123.89364,10.34636,0
          123.89363,10.34645,0
          123.89358,10.34662,0
          123.89343,10.3468,0
          123.89323,10.34699,0
          123.89314,10.34706,0
          123.89292,10.34718,0
          123.89229,10.34737,0
          123.89204,10.34742,0
          123.89195,10.34747,0
          123.89187,10.34753,0
          123.89177,10.34763,0
          123.89165,10.3478,0
          123.8916,10.34794,0
          123.89152,10.34825,0
          123.8915,10.34829,0
          123.89147,10.34833,0
          123.89122,10.34855,0
          123.89107,10.34863,0
          123.89097,10.34867,0
          123.89086,10.3487,0
          123.89059,10.34875,0
          123.8905,10.34875,0
          123.88993,10.34868,0
          123.88963,10.34868,0
          123.88946,10.34865,0
          123.88932,10.3486,0
          123.88911,10.34855,0
          123.889,10.34855,0
          123.88895,10.34857,0
          123.88894,10.34858,0
          123.88892,10.34859,0
          123.88889,10.34862,0
          123.88888,10.34864,0
          123.88887,10.34865,0
          123.88887,10.34866,0
          123.88886,10.34869,0
          123.88886,10.34874,0
          123.88889,10.34892,0
          123.88907,10.34937,0
          123.88909,10.34947,0
          123.88908,10.34949,0
          123.88908,10.34951,0
          123.88907,10.34953,0
          123.88906,10.34954,0
          123.88905,10.34956,0
          123.88898,10.34963,0
          123.88885,10.34967,0
          123.8888,10.34967,0
          123.88844,10.34957,0
          123.88832,10.34957,0
          123.8883,10.34958,0
          123.88827,10.34958,0
          123.88819,10.34962,0
          123.88814,10.34967,0
          123.88811,10.34972,0
          123.88809,10.34974,0
          123.88808,10.34976,0
          123.88806,10.34983,0
          123.88806,10.35002,0
          123.88808,10.3501,0
          123.88808,10.35012,0
          123.88811,10.3502,0
          123.88816,10.35028,0
          123.88824,10.35038,0
          123.88839,10.35053,0
          123.88859,10.35068,0
          123.8887,10.3508,0
          123.88875,10.35087,0
          123.8888,10.35091,0
          123.88913,10.3513,0
          123.88918,10.35141,0
          123.8892,10.35148,0
          123.88922,10.35166,0
          123.88921,10.35169,0
          123.88921,10.35173,0
          123.8892,10.35177,0
          123.88901,10.35206,0
          123.88895,10.35212,0
          123.88876,10.35226,0
          123.88856,10.35233,0
          123.88841,10.35236,0
          123.88831,10.35241,0
          123.88822,10.35247,0
          123.88821,10.35249,0
          123.88806,10.35269,0
          123.88798,10.35276,0
          123.88792,10.3528,0
          123.88778,10.35286,0
          123.88762,10.3529,0
          123.88741,10.35292,0
          123.88733,10.35292,0
          123.88717,10.3529,0
          123.88706,10.35292,0
          123.88701,10.35294,0
          123.88696,10.35297,0
          123.88691,10.35302,0
          123.88681,10.3531,0
          123.88676,10.35315,0
          123.88674,10.35316,0
          123.88671,10.35321,0
          123.88669,10.35323,0
          123.88667,10.35326,0
          123.88665,10.35331,0
          123.88665,10.35341,0
          123.88668,10.35357,0
          123.88674,10.35411,0
          123.88674,10.35433,0
          123.88675,10.35439,0
          123.88674,10.35445,0
          123.88674,10.3545,0
          123.88667,10.35461,0
          123.88659,10.35467,0
          123.88648,10.35471,0
          123.88634,10.35471,0
          123.88611,10.35469,0
          123.88607,10.35468,0
          123.88601,10.35469,0
          123.88595,10.35468,0
          123.88584,10.35468,0
          123.88579,10.3547,0
          123.88574,10.35471,0
          123.88567,10.35474,0
          123.88563,10.35475,0
          123.88553,10.3548,0
          123.88551,10.35482,0
          123.88548,10.35484,0
          123.8853,10.35501,0
          123.88527,10.35505,0
          123.88522,10.35514,0
          123.88518,10.35524,0
          123.88518,10.35529,0
          123.88516,10.35543,0
          123.88507,10.3556,0
          123.88502,10.35567,0
          123.88491,10.35576,0
          123.88468,10.35587,0
          123.88454,10.35592,0
          123.88443,10.35594,0
          123.88425,10.35592,0
          123.88401,10.35587,0
          123.88397,10.35587,0
          123.88389,10.35589,0
          123.88385,10.35591,0
          123.88381,10.35595,0
          123.88379,10.35599,0
          123.88378,10.356,0
          123.88376,10.35611,0
          123.8838,10.35622,0
          123.88397,10.35638,0
          123.88401,10.35643,0
          123.88404,10.35648,0
          123.88405,10.35653,0
          123.88407,10.35658,0
          123.88411,10.35693,0
          123.88417,10.35701,0
          123.8843,10.35723,0
          123.88434,10.35735,0
          123.88434,10.35757,0
          123.88433,10.35763,0
          123.88427,10.35784,0
          123.88427,10.35789,0
          123.88425,10.35794,0
          123.88424,10.35801,0
          123.88426,10.35811,0
          123.88428,10.35816,0
          123.8843,10.35824,0
          123.88432,10.35828,0
          123.8844,10.35839,0
          123.88447,10.35844,0
          123.88462,10.35851,0
          123.88514,10.35859,0
          123.88518,10.35862,0
          123.88523,10.35864,0
          123.88536,10.35877,0
          123.88547,10.35904,0
          123.88547,10.35912,0
          123.8855,10.35931,0
          123.8855,10.36091,0
          123.88551,10.36101,0
          123.88553,10.36108,0
          123.88556,10.36132,0
          123.88555,10.36136,0
          123.88553,10.36139,0
          123.88536,10.36157,0
          123.88458,10.36221,0
          123.88444,10.36231,0
          123.88435,10.36235,0
          123.88434,10.36236,0
          123.8842,10.36241,0
          123.8841,10.36243,0
          123.88399,10.36243,0
          123.88382,10.3624,0
          123.88357,10.36232,0
          123.88324,10.36226,0
          123.88318,10.36226,0
          123.88309,10.36228,0
          123.88304,10.3623,0
          123.88299,10.36233,0
          123.88294,10.36234,0
          123.88277,10.36244,0
          123.88253,10.36253,0
          123.8824,10.36255,0
          123.88213,10.36253,0
          123.88199,10.36253,0
          123.88191,10.36254,0
          123.88177,10.36258,0
          123.88174,10.36262,0
          123.88168,10.36268,0
          123.88156,10.36289,0
          123.88154,10.36294,0
          123.88153,10.36295,0
          123.88152,10.36302,0
          123.88153,10.36305,0
          123.88153,10.36307,0
          123.88154,10.36311,0
          123.88156,10.36314,0
          123.88161,10.36319,0
          123.88165,10.36322,0
          123.88169,10.36324,0
          123.88178,10.36331,0
          123.88183,10.36334,0
          123.88188,10.36339,0
          123.8819,10.36342,0
          123.88193,10.36345,0
          123.88196,10.3635,0
          123.88198,10.36358,0
          123.88202,10.36369,0
          123.88215,10.36389,0
          123.8822,10.364,0
          123.88222,10.36407,0
          123.8822,10.36423,0
          123.88213,10.36438,0
          123.88193,10.36453,0
          123.88142,10.36475,0
          123.88131,10.36481,0
          123.88121,10.3649,0
          123.88114,10.36498,0
          123.88108,10.36507,0
          123.88103,10.36519,0
          123.88097,10.36539,0
          123.88088,10.36592,0
          123.88084,10.36602,0
          123.88079,10.36609,0
          123.8807,10.36616,0
          123.88062,10.36624,0
          123.88053,10.36631,0
          123.88038,10.36638,0
          123.88027,10.36641,0
          123.88019,10.36642,0
          123.88007,10.36641,0
          123.87983,10.36637,0
          123.87972,10.36638,0
          123.87968,10.36639,0
          123.87961,10.36643,0
          123.87953,10.36651,0
          123.87942,10.36668,0
          123.87929,10.36693,0
          123.87922,10.36703,0
          123.87918,10.36706,0
          123.87912,10.36709,0
          123.87889,10.36717,0
          123.87886,10.36719,0
          123.87878,10.36728,0
          123.87875,10.36734,0
          123.87871,10.3674,0
          123.87865,10.36747,0
          123.87854,10.36754,0
          123.87841,10.36758,0
          123.87835,10.36759,0
          123.87811,10.36755,0
          123.87801,10.36752,0
          123.87799,10.36751,0
          123.87757,10.3674,0
          123.8772,10.36733,0
          123.87703,10.36733,0
          123.8769,10.36735,0
          123.87677,10.36739,0
          123.87667,10.36744,0
          123.87666,10.36744,0
          123.87636,10.36756,0
          123.87624,10.36759,0
          123.87622,10.36759,0
          123.87611,10.36763,0
          123.87589,10.36775,0
          123.87574,10.36793,0
          123.87558,10.36817,0
          123.87551,10.36824,0
          123.87538,10.36834,0
          123.87533,10.3684,0
          123.87532,10.36842,0
          123.8753,10.36849,0
          123.87531,10.36853,0
          123.87534,10.36858,0
          123.87536,10.3686,0
          123.87537,10.36862,0
          123.87553,10.36873,0
          123.8756,10.36882,0
          123.87563,10.36892,0
          123.87563,10.36905,0
          123.87562,10.36908,0
          123.8755,10.36921,0
          123.87536,10.36932,0
          123.87502,10.36955,0
          123.8749,10.36969,0
          123.87484,10.3698,0
          123.87481,10.36988,0
          123.8748,10.36996,0
          123.8748,10.3701,0
          123.87481,10.37019,0
          123.87488,10.37045,0
          123.87493,10.37053,0
          123.87533,10.37085,0
          123.87541,10.37094,0
          123.87545,10.371,0
          123.87547,10.37105,0
          123.87548,10.3711,0
          123.87547,10.37119,0
          123.87545,10.37127,0
          123.87544,10.37129,0
          123.87536,10.3714,0
          123.87531,10.37145,0
          123.87517,10.37156,0
          123.87507,10.37161,0
          123.87505,10.37161,0
          123.87502,10.37162,0
          123.87495,10.37161,0
          123.87478,10.37154,0
          123.87467,10.37153,0
          123.87455,10.37154,0
          123.87444,10.37157,0
          123.87414,10.37176,0
          123.87383,10.372,0
          123.87375,10.37212,0
          123.87375,10.37214,0
          123.87353,10.37269,0
          123.87343,10.37304,0
          123.87339,10.37314,0
          123.87333,10.37336,0
          123.87332,10.37338,0
          123.87329,10.3735,0
          123.87327,10.37371,0
          123.87334,10.37391,0
          123.87335,10.37392,0
          123.8734,10.374,0
          123.87341,10.37401,0
          123.87343,10.37406,0
          123.8735,10.37415,0
          123.87356,10.37419,0
          123.87377,10.3744,0
          123.8738,10.37446,0
          123.87381,10.37452,0
          123.87381,10.37466,0
          123.87373,10.37486,0
          123.87355,10.37511,0
          123.8735,10.3752,0
          123.8735,10.37528,0
          123.87349,10.37531,0
          123.8735,10.37537,0
          123.87353,10.37545,0
          123.87357,10.37563,0
          123.87377,10.37632,0
          123.8738,10.37638,0
          123.87381,10.37642,0
          123.87381,10.37644,0
          123.87383,10.37655,0
          123.87381,10.37667,0
          123.87381,10.37673,0
          123.87372,10.37719,0
          123.87371,10.3772,0
          123.87367,10.37738,0
          123.87359,10.37789,0
          123.87359,10.3781,0
          123.87362,10.37829,0
          123.87363,10.37831,0
          123.87374,10.37878,0
          123.87374,10.37893,0
          123.8737,10.37905,0
          123.87365,10.37916,0
          123.87348,10.37932,0
          123.87322,10.3794,0
          123.87309,10.3794,0
          123.87297,10.37942,0
          123.87253,10.37942,0
          123.87229,10.3794,0
          123.87218,10.37938,0
          123.87195,10.37928,0
          123.87152,10.37898,0
          123.87143,10.37893,0
          123.87135,10.37891,0
          123.8712,10.3789,0
          123.87014,10.37896,0
          123.87001,10.37902,0
          123.86997,10.37906,0
          123.86995,10.37913,0
          123.86995,10.37917,0
          123.86998,10.37922,0
          123.87003,10.37926,0
          123.8701,10.3793,0
          123.87028,10.37933,0
          123.8703,10.37934,0
          123.87069,10.37942,0
          123.87082,10.3795,0
          123.87086,10.37955,0
          123.87089,10.3796,0
          123.87091,10.37966,0
          123.87094,10.37981,0
          123.87094,10.37995,0
          123.87096,10.38008,0
          123.871,10.38015,0
          123.87102,10.38017,0
          123.87112,10.38022,0
          123.87116,10.38023,0
          123.87146,10.38024,0
          123.87155,10.38026,0
          123.8716,10.38029,0
          123.87163,10.38036,0
          123.87163,10.3804,0
          123.87162,10.38045,0
          123.8716,10.3805,0
          123.87154,10.38058,0
          123.87141,10.38067,0
          123.87137,10.38069,0
          123.87133,10.38072,0
          123.8712,10.38076,0
          123.8711,10.38081,0
          123.87104,10.38082,0
          123.87093,10.3808,0
          123.87088,10.38077,0
          123.87079,10.3807,0
          123.87065,10.38052,0
          123.87061,10.38048,0
          123.87035,10.38009,0
          123.8703,10.38004,0
          123.87023,10.37999,0
          123.87008,10.37997,0
          123.87001,10.37997,0
          123.86996,10.37996,0
          123.86961,10.37994,0
          123.86939,10.37984,0
          123.86932,10.37978,0
          123.86862,10.37903,0
          123.86856,10.37898,0
          123.86845,10.37891,0
          123.86838,10.37889,0
          123.86785,10.3788,0
          123.86773,10.37879,0
          123.86756,10.37883,0
          123.86733,10.37896,0
          123.86732,10.37899,0
          123.8673,10.37902,0
          123.86726,10.37912,0
          123.86726,10.3792,0
          123.86727,10.37927,0
          123.86729,10.37933,0
          123.8674,10.37955,0
          123.86743,10.37965,0
          123.8675,10.37999,0
          123.86751,10.38013,0
          123.8675,10.38036,0
          123.86746,10.38049,0
          123.86739,10.38064,0
          123.8672,10.38081,0
          123.86706,10.38087,0
          123.8669,10.38096,0
          123.8665,10.38128,0
          123.86644,10.38131,0
          123.86638,10.38133,0
          123.86627,10.38134,0
          123.86575,10.38127,0
          123.86538,10.38114,0
          123.86532,10.38111,0
          123.86526,10.38107,0
          123.86502,10.38085,0
          123.86487,10.38069,0
          123.86472,10.38058,0
          123.86453,10.38047,0
          123.86449,10.38046,0
          123.86445,10.38044,0
          123.86419,10.38036,0
          123.86411,10.38032,0
          123.86403,10.38026,0
          123.86393,10.3802,0
          123.86371,10.38004,0
          123.86364,10.38001,0
          123.86361,10.37999,0
          123.86356,10.37998,0
          123.86355,10.37997,0
          123.86254,10.37967,0
          123.86244,10.37962,0
          123.86237,10.37957,0
          123.86237,10.37956,0
          123.86228,10.37948,0
          123.86224,10.37943,0
          123.86209,10.37928,0
          123.86205,10.37923,0
          123.86194,10.37916,0
          123.86176,10.37908,0
          123.86164,10.37904,0
          123.86163,10.37903,0
          123.86158,10.37901,0
          123.86149,10.37899,0
          123.86147,10.37898,0
          123.86143,10.37898,0
          123.86136,10.37896,0
          123.86125,10.3789,0
          123.86108,10.37861,0
          123.861,10.37851,0
          123.86087,10.37838,0
          123.86086,10.37836,0
          123.86083,10.37834,0
          123.86081,10.37822,0
          123.86082,10.37814,0
          123.86082,10.37798,0
          123.86081,10.37789,0
          123.86081,10.37781,0
          123.86078,10.37777,0
          123.86069,10.3777,0
          123.86064,10.37769,0
          123.8606,10.37767,0
          123.86046,10.37766,0
          123.86038,10.37767,0
          123.8603,10.37767,0
          123.86015,10.37769,0
          123.8599,10.37769,0
          123.85982,10.37768,0
          123.8596,10.37759,0
          123.85947,10.37751,0
          123.85839,10.37702,0
          123.85829,10.37699,0
          123.85804,10.37695,0
          123.85791,10.37694,0
          123.85775,10.37695,0
          123.8577,10.37696,0
          123.85744,10.37698,0
          123.85724,10.37698,0
          123.85712,10.37694,0
          123.8567,10.37672,0
          123.85649,10.37664,0
          123.85629,10.3766,0
          123.85567,10.37654,0
          123.85541,10.37654,0
          123.85532,10.37653,0
          123.85521,10.37653,0
          123.85511,10.37652,0
          123.85491,10.37647,0
          123.85418,10.37603,0
          123.85417,10.37602,0
          123.85313,10.37552,0
          123.85307,10.37548,0
          123.853,10.37542,0
          123.85297,10.37537,0
          123.85295,10.37535,0
          123.85286,10.37519,0
          123.85281,10.37514,0
          123.85273,10.37508,0
          123.85268,10.37506,0
          123.85258,10.37506,0
          123.85248,10.3751,0
          123.85241,10.37514,0
          123.85232,10.37524,0
          123.85227,10.37531,0
          123.85219,10.37551,0
          123.85218,10.37571,0
          123.8522,10.37584,0
          123.85221,10.37586,0
          123.85223,10.37596,0
          123.85228,10.37609,0
          123.85239,10.3765,0
          123.85248,10.37674,0
          123.8526,10.37693,0
          123.85272,10.37709,0
          123.85292,10.37727,0
          123.85293,10.37727,0
          123.853,10.37733,0
          123.85321,10.37743,0
          123.8534,10.37745,0
          123.85343,10.37746,0
          123.85348,10.37746,0
          123.85353,10.37748,0
          123.85356,10.3775,0
          123.85359,10.37751,0
          123.85361,10.37753,0
          123.85364,10.37755,0
          123.85368,10.37761,0
          123.85379,10.37797,0
          123.85391,10.37852,0
          123.85395,10.37865,0
          123.85398,10.37872,0
          123.85398,10.37873,0
          123.85406,10.37884,0
          123.85424,10.37898,0
          123.85431,10.37902,0
          123.85458,10.37914,0
          123.85472,10.37922,0
          123.85473,10.37922,0
          123.85474,10.37923,0
          123.85476,10.37924,0
          123.85479,10.37927,0
          123.85484,10.37934,0
          123.85485,10.37938,0
          123.85499,10.37964,0
          123.85502,10.37968,0
          123.85509,10.37975,0
          123.85522,10.37983,0
          123.85525,10.37986,0
          123.85527,10.37987,0
          123.85532,10.37999,0
          123.85532,10.38007,0
          123.85531,10.38012,0
          123.85527,10.38021,0
          123.85488,10.38057,0
          123.85485,10.38063,0
          123.8548,10.3807,0
          123.85464,10.38107,0
          123.85451,10.38125,0
          123.85411,10.38165,0
          123.8541,10.38167,0
          123.85406,10.38171,0
          123.85402,10.38183,0
          123.85401,10.38195,0
          123.85403,10.38204,0
          123.85408,10.38215,0
          123.8541,10.38218,0
          123.85426,10.38229,0
          123.85437,10.38235,0
          123.85491,10.38253,0
          123.85508,10.38262,0
          123.85516,10.3827,0
          123.85525,10.38287,0
          123.85527,10.38295,0
          123.85527,10.38299,0
          123.85526,10.38303,0
          123.85525,10.38315,0
          123.85523,10.3832,0
          123.85514,10.38336,0
          123.85502,10.38352,0
          123.85497,10.38362,0
          123.85496,10.38367,0
          123.85496,10.38374,0
          123.85499,10.38385,0
          123.8552,10.38418,0
          123.85531,10.38438,0
          123.85577,10.38538,0
          123.8559,10.38558,0
          123.85615,10.38587,0
          123.85641,10.38623,0
          123.85653,10.38644,0
          123.85682,10.38717,0
          123.85684,10.3872,0
          123.85687,10.38728,0
          123.85698,10.38744,0
          123.8571,10.38756,0
          123.85725,10.38768,0
          123.8573,10.3877,0
          123.85731,10.38771,0
          123.85765,10.38789,0
          123.85782,10.38801,0
          123.85788,10.38808,0
          123.85799,10.38828,0
          123.85802,10.38837,0
          123.85802,10.38857,0
          123.85791,10.38913,0
          123.85791,10.38924,0
          123.85792,10.38926,0
          123.85794,10.38943,0
          123.85802,10.38976,0
          123.85803,10.38984,0
          123.85803,10.38994,0
          123.85802,10.38996,0
          123.85801,10.39001,0
          123.85786,10.39026,0
          123.85781,10.39038,0
          123.85779,10.3905,0
          123.8578,10.39061,0
          123.85786,10.39075,0
          123.85859,10.39211,0
          123.85864,10.39224,0
          123.85875,10.39274,0
          123.85882,10.39333,0
          123.85895,10.39387,0
          123.85947,10.39538,0
          123.85949,10.39552,0
          123.85949,10.39558,0
          123.85946,10.39568,0
          123.85943,10.39575,0
          123.85922,10.39604,0
          123.85918,10.39613,0
          123.85915,10.39623,0
          123.85912,10.39639,0
          123.85912,10.39648,0
          123.85907,10.39693,0
          123.85901,10.39708,0
          123.859,10.39709,0
          123.85895,10.39719,0
          123.85883,10.39738,0
          123.85869,10.39764,0
          123.85865,10.39785,0
          123.85865,10.39794,0
          123.8587,10.39839,0
          123.8587,10.39845,0
          123.85864,10.39863,0
          123.85854,10.3988,0
          123.85843,10.3989,0
          123.85828,10.39901,0
          123.85825,10.39902,0
          123.85759,10.39944,0
          123.85734,10.39956,0
          123.85734,10.39957,0
          123.85716,10.39961,0
          123.85714,10.39962,0
          123.8563,10.39977,0
          123.8559,10.39981,0
          123.85557,10.39979,0
          123.85494,10.39981,0
          123.85484,10.39984,0
          123.85475,10.39988,0
          123.85468,10.39994,0
          123.85463,10.40001,0
          123.85461,10.40007,0
          123.85461,10.40015,0
          123.85462,10.40017,0
          123.85464,10.40026,0
          123.85474,10.40057,0
          123.85476,10.40069,0
          123.85476,10.40082,0
          123.85474,10.40087,0
          123.85472,10.40096,0
          123.8545,10.4015,0
          123.85447,10.40166,0
          123.85447,10.402,0
          123.85445,10.40215,0
          123.85441,10.40225,0
          123.854,10.40277,0
          123.85389,10.40294,0
          123.85374,10.40332,0
          123.85368,10.40353,0
          123.85365,10.40368,0
          123.85365,10.40379,0
          123.85367,10.40397,0
          123.85369,10.40406,0
          123.85377,10.40426,0
          123.85428,10.40518,0
          123.85436,10.40535,0
          123.85438,10.40548,0
          123.85438,10.40564,0
          123.85434,10.40579,0
          123.85431,10.40586,0
          123.85421,10.40598,0
          123.8542,10.406,0
          123.8541,10.40609,0
          123.85362,10.4066,0
          123.85322,10.40711,0
          123.85315,10.40717,0
          123.85307,10.40721,0
          123.85275,10.40732,0
          123.85259,10.4074,0
          123.85241,10.40751,0
          123.85229,10.4076,0
          123.85215,10.40774,0
          123.85204,10.40787,0
          123.85203,10.40787,0
          123.85194,10.40801,0
          123.85193,10.40802,0
          123.85156,10.40863,0
          123.85145,10.40877,0
          123.85144,10.40879,0
          123.85132,10.4089,0
          123.85113,10.40901,0
          123.85065,10.40918,0
          123.85061,10.4092,0
          123.8505,10.40923,0
          123.85012,10.40937,0
          123.84998,10.40949,0
          123.84993,10.40957,0
          123.8499,10.40968,0
          123.84991,10.41063,0
          123.84989,10.41084,0
          123.84983,10.41103,0
          123.84949,10.41186,0
          123.84944,10.41207,0
          123.84943,10.41216,0
          123.84941,10.41225,0
          123.84941,10.41243,0
          123.84943,10.41261,0
          123.84943,10.41279,0
          123.84944,10.41289,0
          123.84943,10.41302,0
          123.84934,10.41332,0
          123.84926,10.41348,0
          123.84913,10.41369,0
          123.8477,10.41565,0
          123.84753,10.41582,0
          123.84739,10.41592,0
          123.84727,10.41599,0
          123.84718,10.41603,0
          123.84687,10.41612,0
          123.84617,10.41624,0
          123.84615,10.41625,0
          123.84602,10.41627,0
          123.84575,10.4164,0
          123.84567,10.41645,0
          123.84558,10.41649,0
          123.84506,10.41685,0
          123.84486,10.41701,0
          123.84471,10.41719,0
          123.84448,10.41761,0
          123.84438,10.4177,0
          123.84428,10.41774,0
          123.84423,10.41775,0
          123.84411,10.41775,0
          123.84402,10.41772,0
          123.84342,10.41743,0
          123.84319,10.41736,0
          123.84303,10.41739,0
          123.84286,10.41745,0
          123.84273,10.41752,0
          123.84257,10.41766,0
          123.84251,10.41776,0
          123.84248,10.41786,0
          123.84247,10.41794,0
          123.84248,10.41836,0
          123.84245,10.41861,0
          123.84239,10.41883,0
          123.84215,10.41918,0
          123.84214,10.41918,0
          123.84209,10.41928,0
          123.84207,10.41934,0
          123.84206,10.41943,0
          123.84213,10.41984,0
          123.84213,10.41998,0
          123.84211,10.42003,0
          123.84203,10.42015,0
          123.84192,10.42022,0
          123.84179,10.42025,0
          123.8417,10.42025,0
          123.84163,10.42023,0
          123.84154,10.42018,0
          123.8415,10.42014,0
          123.8414,10.41997,0
          123.84138,10.4199,0
          123.84121,10.41951,0
          123.84112,10.4194,0
          123.84106,10.41934,0
          123.84104,10.41931,0
          123.84089,10.41919,0
          123.84078,10.41913,0
          123.84077,10.41913,0
          123.8406,10.41906,0
          123.84024,10.41896,0
          123.83971,10.41884,0
          123.83954,10.41879,0
          123.83928,10.41874,0
          123.83894,10.4186,0
          123.83881,10.41853,0
          123.8387,10.41845,0
          123.83863,10.41841,0
          123.83838,10.41822,0
          123.83835,10.41819,0
          123.83748,10.41754,0
          123.83715,10.41737,0
          123.83714,10.41737,0
          123.83638,10.41706,0
          123.83617,10.41696,0
          123.83528,10.41641,0
          123.83527,10.41641,0
          123.83507,10.41629,0
          123.83452,10.41604,0
          123.83451,10.41604,0
          123.83433,10.41597,0
          123.83432,10.41597,0
          123.83416,10.41591,0
          123.8333,10.41567,0
          123.83328,10.41566,0
          123.83312,10.41562,0
          123.83311,10.41561,0
          123.83294,10.41555,0
          123.83293,10.41555,0
          123.83277,10.41548,0
          123.83276,10.41548,0
          123.83253,10.41539,0
          123.83213,10.4152,0
          123.83204,10.41513,0
          123.8319,10.41497,0
          123.83184,10.41488,0
          123.83146,10.41416,0
          123.83131,10.41394,0
          123.83106,10.41372,0
          123.83092,10.41362,0
          123.83077,10.41347,0
          123.83077,10.41346,0
          123.83068,10.41336,0
          123.83047,10.41301,0
          123.83047,10.413,0
          123.83039,10.41287,0
          123.83039,10.41285,0
          123.83036,10.41278,0
          123.83032,10.41263,0
          123.83034,10.41212,0
          123.83036,10.41202,0
          123.83041,10.41186,0
          123.83062,10.41144,0
          123.83062,10.41139,0
          123.83058,10.41124,0
          123.83056,10.4112,0
          123.83053,10.41118,0
          123.8305,10.41115,0
          123.83039,10.41109,0
          123.83023,10.41102,0
          123.83011,10.41098,0
          123.83,10.41093,0
          123.82987,10.41085,0
          123.82962,10.41065,0
          123.82943,10.41055,0
          123.82942,10.41055,0
          123.82824,10.41008,0
          123.82791,10.40999,0
          123.82763,10.40996,0
          123.82683,10.41002,0
          123.8268,10.41003,0
          123.82641,10.41005,0
          123.82625,10.41003,0
          123.82577,10.40987,0
          123.82553,10.40975,0
          123.82516,10.40967,0
          123.82482,10.40968,0
          123.82435,10.40979,0
          123.8241,10.40992,0
          123.82356,10.41011,0
          123.82346,10.41016,0
          123.82334,10.41019,0
          123.82285,10.41026,0
          123.82179,10.41027,0
          123.82127,10.41019,0
          123.82107,10.4101,0
          123.82049,10.40989,0
          123.82036,10.40983,0
          123.82012,10.40979,0
          123.81985,10.40979,0
          123.81974,10.40978,0
          123.81943,10.40985,0
          123.81901,10.40985,0
          123.81884,10.40989,0
          123.81859,10.40999,0
          123.81815,10.41023,0
          123.81796,10.41029,0
          123.81789,10.41028,0
          123.81784,10.41028,0
          123.8178,10.41027,0
          123.81773,10.41023,0
          123.8174,10.40986,0
          123.81725,10.40972,0
          123.81713,10.40963,0
          123.81688,10.40952,0
          123.81679,10.40949,0
          123.81653,10.40949,0
          123.81595,10.40965,0
          123.81585,10.40969,0
          123.81578,10.4097,0
          123.81573,10.4097,0
          123.81559,10.40968,0
          123.81547,10.40963,0
          123.81537,10.40957,0
          123.81524,10.40947,0
          123.81497,10.40913,0
          123.81484,10.40903,0
          123.81473,10.40898,0
          123.81452,10.40894,0
          123.81448,10.40894,0
          123.81434,10.40892,0
          123.81422,10.40892,0
          123.81399,10.40897,0
          123.81386,10.40902,0
          123.81346,10.40934,0
          123.81339,10.40938,0
          123.81327,10.40942,0
          123.81316,10.40942,0
          123.81309,10.40941,0
          123.81301,10.40938,0
          123.813,10.40937,0
          123.81292,10.40932,0
          123.81284,10.40925,0
          123.81263,10.40887,0
          123.81255,10.40875,0
          123.81239,10.40857,0
          123.81212,10.40832,0
          123.81184,10.4081,0
          123.81177,10.40807,0
          123.81158,10.40801,0
          123.81141,10.40798,0
          123.81118,10.40796,0
          123.81047,10.40795,0
          123.8102,10.40791,0
          123.80982,10.40775,0
          123.80926,10.40747,0
          123.80882,10.40729,0
          123.80855,10.40723,0
          123.80781,10.40721,0
          123.80736,10.40711,0
          123.80728,10.40707,0
          123.80682,10.40696,0
          123.80675,10.40695,0
          123.80623,10.40695,0
          123.80583,10.40698,0
          123.80554,10.40706,0
          123.8054,10.40714,0
          123.80527,10.40726,0
          123.80512,10.40735,0
          123.80501,10.40748,0
          123.80497,10.40767,0
          123.80496,10.40803,0
          123.80498,10.40857,0
          123.80496,10.40873,0
          123.80495,10.40874,0
          123.8049,10.40915,0
          123.80489,10.40937,0
          123.8049,10.40943,0
          123.8049,10.40946,0
          123.80491,10.40947,0
          123.80492,10.40953,0
          123.80495,10.40959,0
          123.80497,10.40965,0
          123.80512,10.40981,0
          123.80516,10.40984,0
          123.80526,10.40988,0
          123.80562,10.41007,0
          123.80573,10.41018,0
          123.80577,10.41023,0
          123.80602,10.41087,0
          123.80609,10.4112,0
          123.80612,10.41169,0
          123.80612,10.41206,0
          123.80613,10.4122,0
          123.80612,10.41242,0
          123.80614,10.41271,0
          123.80636,10.41321,0
          123.80638,10.4133,0
          123.80639,10.41331,0
          123.80639,10.41343,0
          123.80638,10.41353,0
          123.80635,10.41366,0
          123.80597,10.41446,0
          123.80587,10.41463,0
          123.80559,10.41501,0
          123.80553,10.41511,0
          123.80551,10.41521,0
          123.80551,10.41526,0
          123.80552,10.4153,0
          123.80558,10.41541,0
          123.80565,10.41547,0
          123.80571,10.41551,0
          123.80575,10.41556,0
          123.8058,10.41565,0
          123.80586,10.41588,0
          123.80601,10.41634,0
          123.80609,10.41651,0
          123.80635,10.41698,0
          123.80642,10.41716,0
          123.80645,10.41735,0
          123.80645,10.41765,0
          123.80642,10.41783,0
          123.8064,10.41788,0
          123.80636,10.41795,0
          123.80636,10.41796,0
          123.80634,10.41799,0
          123.8063,10.41803,0
          123.80582,10.41863,0
          123.80574,10.41876,0
          123.80572,10.41887,0
          123.80575,10.41901,0
          123.80576,10.41902,0
          123.80588,10.41935,0
          123.80588,10.41953,0
          123.80577,10.42005,0
          123.80569,10.42022,0
          123.80564,10.42029,0
          123.80558,10.42033,0
          123.8053,10.4206,0
          123.80516,10.4207,0
          123.80475,10.4208,0
          123.80463,10.42084,0
          123.80449,10.42095,0
          123.80435,10.42114,0
          123.80429,10.42124,0
          123.80419,10.42132,0
          123.80414,10.42135,0
          123.80397,10.42141,0
          123.80341,10.42146,0
          123.80328,10.42144,0
          123.80324,10.42144,0
          123.80306,10.42141,0
          123.80281,10.42135,0
          123.80271,10.42131,0
          123.80269,10.42131,0
          123.80253,10.42126,0
          123.80252,10.42125,0
          123.80226,10.42116,0
          123.80219,10.42115,0
          123.80213,10.42113,0
          123.80202,10.42112,0
          123.80201,10.42111,0
          123.8016,10.42113,0
          123.80144,10.42111,0
          123.80115,10.42105,0
          123.80103,10.42101,0
          123.80079,10.42089,0
          123.80047,10.42063,0
          123.80006,10.42037,0
          123.79999,10.42031,0
          123.7999,10.42018,0
          123.7995,10.41917,0
          123.79939,10.41906,0
          123.79933,10.41902,0
          123.79927,10.41899,0
          123.79921,10.41897,0
          123.79914,10.41896,0
          123.79903,10.41896,0
          123.79898,10.41897,0
          123.79885,10.41904,0
          123.79877,10.41912,0
          123.7987,10.41925,0
          123.7987,10.41926,0
          123.79862,10.41942,0
          123.79862,10.41943,0
          123.79828,10.42045,0
          123.79818,10.42059,0
          123.79809,10.42067,0
          123.79776,10.42092,0
          123.79715,10.42158,0
          123.7969,10.42192,0
          123.79686,10.42202,0
          123.79681,10.4221,0
          123.7967,10.42222,0
          123.79653,10.42235,0
          123.79642,10.42239,0
          123.79635,10.4224,0
          123.79612,10.42246,0
          123.79592,10.42248,0
          123.79581,10.42248,0
          123.7958,10.42247,0
          123.79574,10.42245,0
          123.79565,10.42238,0
          123.79551,10.42212,0
          123.79546,10.42199,0
          123.79541,10.42191,0
          123.79535,10.42185,0
          123.79531,10.42183,0
          123.79527,10.42182,0
          123.79518,10.42182,0
          123.79509,10.42187,0
          123.79503,10.42193,0
          123.79497,10.42205,0
          123.79484,10.42215,0
          123.79476,10.42217,0
          123.7944,10.42208,0
          123.79431,10.42207,0
          123.79421,10.42208,0
          123.79395,10.42213,0
          123.79384,10.42213,0
          123.79377,10.42212,0
          123.79361,10.42205,0
          123.7934,10.42191,0
          123.79332,10.42188,0
          123.79318,10.42185,0
          123.79312,10.42185,0
          123.79259,10.42202,0
          123.79241,10.42203,0
          123.79224,10.42198,0
          123.79212,10.42191,0
          123.7917,10.42171,0
          123.79154,10.42168,0
          123.79117,10.42166,0
          123.79093,10.4216,0
          123.79062,10.42143,0
          123.79037,10.42133,0
          123.79024,10.42131,0
          123.79019,10.42131,0
          123.78998,10.42136,0
          123.7899,10.4214,0
          123.7898,10.42147,0
          123.78969,10.42158,0
          123.78953,10.42179,0
          123.78943,10.4219,0
          123.7893,10.42202,0
          123.78921,10.42207,0
          123.78879,10.42223,0
          123.78861,10.42234,0
          123.78856,10.42239,0
          123.78854,10.42242,0
          123.78839,10.42257,0
          123.78832,10.42266,0
          123.78828,10.4227,0
          123.78798,10.42307,0
          123.7878,10.42323,0
          123.78766,10.42332,0
          123.78745,10.42343,0
          123.78732,10.42348,0
          123.78731,10.42348,0
          123.78708,10.42361,0
          123.78703,10.42367,0
          123.78689,10.42404,0
          123.78686,10.42409,0
          123.78681,10.42413,0
          123.78671,10.42418,0
          123.78659,10.42418,0
          123.78587,10.42411,0
          123.78572,10.42408,0
          123.78554,10.42402,0
          123.78503,10.42376,0
          123.78491,10.42371,0
          123.78481,10.42368,0
          123.78471,10.42368,0
          123.78445,10.42372,0
          123.78433,10.42372,0
          123.78426,10.42371,0
          123.7842,10.42369,0
          123.78413,10.42365,0
          123.78403,10.42354,0
          123.78401,10.42349,0
          123.784,10.42342,0
          123.78391,10.42314,0
          123.78381,10.42301,0
          123.78317,10.42246,0
          123.78305,10.42239,0
          123.78297,10.42237,0
          123.78293,10.42237,0
          123.78243,10.42246,0
          123.78229,10.42246,0
          123.78221,10.42242,0
          123.78219,10.42242,0
          123.78201,10.42235,0
          123.78186,10.42233,0
          123.78168,10.42234,0
          123.78125,10.4224,0
          123.78117,10.42242,0
          123.78113,10.42242,0
          123.78112,10.42243,0
          123.78111,10.42243,0
          123.78109,10.42245,0
          123.78104,10.42257,0
          123.78103,10.42258,0
          123.78101,10.42265,0
          123.78098,10.42271,0
          123.78097,10.42275,0
          123.78093,10.42283,0
          123.78084,10.42293,0
          123.78075,10.423,0
          123.78073,10.42301,0
          123.78063,10.42304,0
          123.78058,10.42303,0
          123.78055,10.42303,0
          123.78035,10.42298,0
          123.78015,10.4229,0
          123.78005,10.42287,0
          123.77997,10.42286,0
          123.77992,10.42287,0
          123.77987,10.42289,0
          123.77985,10.42289,0
          123.77975,10.42293,0
          123.77967,10.42299,0
          123.77957,10.4231,0
          123.77957,10.42311,0
          123.77945,10.42319,0
          123.77937,10.42323,0
          123.77921,10.42328,0
          123.77912,10.42329,0
          123.77903,10.42331,0
          123.77837,10.4234,0
          123.77793,10.42349,0
          123.77771,10.42357,0
          123.7776,10.42365,0
          123.77754,10.42371,0
          123.77734,10.42396,0
          123.77732,10.424,0
          123.77662,10.42496,0
          123.77642,10.42541,0
          123.77632,10.42574,0
          123.7763,10.42584,0
          123.77629,10.42607,0
          123.77632,10.42645,0
          123.77634,10.42655,0
          123.77649,10.4269,0
          123.77649,10.42692,0
          123.77652,10.42704,0
          123.7765,10.42715,0
          123.77648,10.42721,0
          123.77638,10.42743,0
          123.77629,10.42759,0
          123.77626,10.42766,0
          123.77597,10.4281,0
          123.7757,10.42847,0
          123.7756,10.42863,0
          123.77555,10.42874,0
          123.77545,10.42922,0
          123.77544,10.42934,0
          123.77546,10.42951,0
          123.7755,10.42963,0
          123.77587,10.43048,0
          123.77597,10.43067,0
          123.7761,10.43084,0
          123.77646,10.43119,0
          123.77654,10.43131,0
          123.77667,10.43146,0
          123.7768,10.43164,0
          123.77696,10.43183,0
          123.77741,10.43218,0
          123.7776,10.4323,0
          123.77764,10.43234,0
          123.77803,10.43262,0
          123.77808,10.43267,0
          123.77814,10.43278,0
          123.77832,10.43327,0
          123.77847,10.43346,0
          123.77855,10.43354,0
          123.77921,10.43404,0
          123.7796,10.43429,0
          123.78015,10.4346,0
          123.7804,10.43477,0
          123.78067,10.43499,0
          123.78101,10.43541,0
          123.78107,10.43553,0
          123.78107,10.43556,0
          123.7811,10.43571,0
          123.78111,10.43583,0
          123.78117,10.43612,0
          123.78121,10.43619,0
          123.78136,10.43635,0
          123.78146,10.43648,0
          123.78155,10.43665,0
          123.78166,10.43693,0
          123.78172,10.43703,0
          123.78184,10.43718,0
          123.78192,10.43726,0
          123.78214,10.43752,0
          123.78216,10.43753,0
          123.78222,10.43759,0
          123.78229,10.43764,0
          123.78264,10.43779,0
          123.78265,10.4378,0
          123.7827,10.43783,0
          123.78279,10.43791,0
          123.78283,10.43797,0
          123.78285,10.43802,0
          123.78285,10.43806,0
          123.78286,10.43807,0
          123.78286,10.43818,0
          123.78285,10.43824,0
          123.78269,10.43875,0
          123.78266,10.43896,0
          123.78267,10.43902,0
          123.78267,10.43909,0
          123.78269,10.43919,0
          123.78276,10.4394,0
          123.78295,10.43977,0
          123.78303,10.43989,0
          123.78311,10.43998,0
          123.78321,10.44006,0
          123.78356,10.4403,0
          123.78376,10.44046,0
          123.78406,10.44076,0
          123.7841,10.44079,0
          123.78419,10.44089,0
          123.78431,10.441,0
          123.78441,10.44112,0
          123.78449,10.4412,0
          123.78453,10.44126,0
          123.78456,10.44129,0
          123.78474,10.44155,0
          123.78476,10.44157,0
          123.78477,10.4416,0
          123.78485,10.4417,0
          123.78492,10.44182,0
          123.78495,10.44185,0
          123.78542,10.44254,0
          123.78545,10.44257,0
          123.78552,10.44269,0
          123.78552,10.4427,0
          123.78554,10.44275,0
          123.78556,10.44289,0
          123.78553,10.44322,0
          123.78552,10.44325,0
          123.78553,10.44358,0
          123.78557,10.4439,0
          123.78557,10.44394,0
          123.78559,10.44404,0
          123.78559,10.44414,0
          123.78558,10.44419,0
          123.78556,10.44423,0
          123.78554,10.44429,0
          123.78553,10.4443,0
          123.78548,10.44442,0
          123.78546,10.44445,0
          123.78531,10.44477,0
          123.78531,10.44478,0
          123.78527,10.44484,0
          123.78523,10.44492,0
          123.78522,10.44493,0
          123.78515,10.4451,0
          123.78514,10.4451,0
          123.7851,10.44527,0
          123.78509,10.44529,0
          123.78507,10.44555,0
          123.78507,10.44622,0
          123.78504,10.44638,0
          123.78496,10.44665,0
          123.78486,10.44677,0
          123.7848,10.44686,0
          123.78444,10.44728,0
          123.78439,10.44736,0
          123.78435,10.44746,0
          123.78435,10.44751,0
          123.78434,10.44754,0
          123.78434,10.44771,0
          123.78433,10.44779,0
          123.78432,10.44782,0
          123.78432,10.44786,0
          123.78427,10.44801,0
          123.7842,10.44816,0
          123.78413,10.44828,0
          123.78403,10.44842,0
          123.78399,10.44858,0
          123.78399,10.44867,0
          123.784,10.44869,0
          123.78401,10.44879,0
          123.78401,10.44891,0
          123.784,10.44897,0
          123.78391,10.44918,0
          123.78386,10.44926,0
          123.7838,10.44943,0
          123.7838,10.44958,0
          123.78382,10.44969,0
          123.78383,10.4497,0
          123.78396,10.44998,0
          123.78399,10.45002,0
          123.78409,10.45022,0
          123.78414,10.45036,0
          123.78417,10.45048,0
          123.7842,10.45085,0
          123.7842,10.451,0
          123.78423,10.45114,0
          123.78426,10.4512,0
          123.78435,10.45129,0
          123.78443,10.45133,0
          123.78444,10.45133,0
          123.7845,10.45136,0
          123.78459,10.45138,0
          123.7847,10.45139,0
          123.78478,10.45141,0
          123.78486,10.45144,0
          123.78498,10.45155,0
          123.78512,10.45175,0
          123.78516,10.45183,0
          123.7852,10.45194,0
          123.78522,10.45202,0
          123.78523,10.45214,0
          123.78522,10.45237,0
          123.78518,10.45268,0
          123.7851,10.4529,0
          123.78508,10.45299,0
          123.78508,10.45304,0
          123.78509,10.45309,0
          123.78515,10.45322,0
          123.78521,10.45329,0
          123.78559,10.45364,0
          123.78565,10.45375,0
          123.78566,10.45382,0
          123.78566,10.4539,0
          123.78564,10.454,0
          123.7856,10.45409,0
          123.78557,10.45423,0
          123.78558,10.45433,0
          123.7856,10.4544,0
          123.78561,10.45442,0
          123.78561,10.45444,0
          123.78577,10.45458,0
          123.7859,10.45464,0
          123.78603,10.45473,0
          123.78606,10.45478,0
          123.78609,10.45486,0
          123.78609,10.45494,0
          123.78607,10.45506,0
          123.78595,10.45529,0
          123.78583,10.45545,0
          123.78575,10.45554,0
          123.78551,10.45573,0
          123.78535,10.45589,0
          123.78527,10.45599,0
          123.78518,10.45615,0
          123.7851,10.45635,0
          123.785,10.45666,0
          123.7849,10.45684,0
          123.78468,10.45733,0
          123.78463,10.45748,0
          123.78457,10.45762,0
          123.78446,10.45773,0
          123.78411,10.45797,0
          123.78397,10.45808,0
          123.78386,10.45819,0
          123.78373,10.45835,0
          123.78338,10.45896,0
          123.78331,10.45903,0
          123.78322,10.45908,0
          123.78315,10.4591,0
          123.78307,10.4591,0
          123.7829,10.45905,0
          123.7828,10.45899,0
          123.78266,10.45894,0
          123.78253,10.45894,0
          123.78246,10.45896,0
          123.78237,10.459,0
          123.78205,10.45922,0
          123.78185,10.45939,0
          123.78145,10.45968,0
          123.78109,10.45984,0
          123.78087,10.45987,0
          123.78062,10.45987,0
          123.78047,10.45985,0
          123.78024,10.45978,0
          123.78005,10.45974,0
          123.77991,10.45976,0
          123.77985,10.45979,0
          123.77979,10.45983,0
          123.77974,10.45988,0
          123.77967,10.46005,0
          123.77953,10.46047,0
          123.77946,10.46054,0
          123.77927,10.46065,0
          123.77809,10.46111,0
          123.778,10.46117,0
          123.77793,10.4613,0
          123.77793,10.46139,0
          123.77794,10.46144,0
          123.77797,10.46152,0
          123.77799,10.46161,0
          123.77805,10.46174,0
          123.77809,10.46193,0
          123.77807,10.46203,0
          123.77805,10.46209,0
          123.77777,10.46234,0
          123.77763,10.46243,0
          123.77716,10.46267,0
          123.77705,10.46275,0
          123.77693,10.46294,0
          123.77686,10.46309,0
          123.77678,10.46317,0
          123.77671,10.46321,0
          123.77663,10.46323,0
          123.77652,10.46322,0
          123.7764,10.46317,0
          123.77625,10.46309,0
          123.77603,10.46295,0
          123.77603,10.46294,0
          123.7757,10.46274,0
          123.77554,10.46272,0
          123.77541,10.46273,0
          123.77529,10.46279,0
          123.77522,10.46286,0
          123.77521,10.46288,0
          123.77519,10.46297,0
          123.77519,10.46316,0
          123.77521,10.46326,0
          123.77523,10.46349,0
          123.77528,10.46357,0
          123.77545,10.46377,0
          123.7755,10.46386,0
          123.7755,10.46403,0
          123.77546,10.46411,0
          123.77543,10.4642,0
          123.77539,10.46439,0
          123.7754,10.4645,0
          123.77542,10.46456,0
          123.77549,10.46467,0
          123.77556,10.46485,0
          123.77557,10.46493,0
          123.77554,10.465,0
          123.77547,10.46509,0
          123.77536,10.46516,0
          123.77513,10.46527,0
          123.77499,10.46538,0
          123.77493,10.46548,0
          123.77492,10.46576,0
          123.77496,10.46588,0
          123.77503,10.46598,0
          123.77526,10.46624,0
          123.77527,10.46624,0
          123.77554,10.46648,0
          123.77569,10.46665,0
          123.77577,10.46672,0
          123.77587,10.46679,0
          123.77617,10.46686,0
          123.77629,10.4669,0
          123.77641,10.46698,0
          123.77658,10.46715,0
          123.77662,10.46723,0
          123.7767,10.46767,0
          123.77671,10.46808,0
          123.77668,10.46821,0
          123.77664,10.46833,0
          123.77663,10.46839,0
          123.77663,10.46846,0
          123.77665,10.46854,0
          123.77672,10.46873,0
          123.77692,10.46905,0
          123.77694,10.46911,0
          123.77694,10.46914,0
          123.77693,10.46916,0
          123.77693,10.46919,0
          123.77692,10.4692,0
          123.77689,10.46926,0
          123.77686,10.46929,0
          123.77681,10.46932,0
          123.7768,10.46932,0
          123.77679,10.46933,0
          123.77669,10.46935,0
          123.77658,10.46935,0
          123.77647,10.46929,0
          123.77644,10.46928,0
          123.77633,10.46918,0
          123.77624,10.46904,0
          123.77619,10.46889,0
          123.77617,10.46885,0
          123.77613,10.4687,0
          123.77612,10.46868,0
          123.77608,10.46849,0
          123.77604,10.46837,0
          123.77599,10.46828,0
          123.77594,10.46821,0
          123.77582,10.46811,0
          123.77576,10.46808,0
          123.77575,10.46807,0
          123.77573,10.46806,0
          123.77559,10.46804,0
          123.77545,10.46804,0
          123.7752,10.46807,0
          123.77505,10.46807,0
          123.77504,10.46806,0
          123.77499,10.46805,0
          123.77488,10.46798,0
          123.77488,10.46797,0
          123.77487,10.46797,0
          123.77481,10.46787,0
          123.7748,10.46781,0
          123.77479,10.46781,0
          123.77478,10.46777,0
          123.7747,10.46767,0
          123.77469,10.46767,0
          123.77465,10.46765,0
          123.77456,10.46765,0
          123.77451,10.46767,0
          123.77449,10.46767,0
          123.77444,10.4677,0
          123.77431,10.46787,0
          123.77421,10.46807,0
          123.77419,10.46809,0
          123.77419,10.4681,0
          123.77405,10.46821,0
          123.77399,10.46823,0
          123.77398,10.46823,0
          123.77394,10.46825,0
          123.77382,10.46824,0
          123.77375,10.4682,0
          123.77362,10.46806,0
          123.77355,10.46797,0
          123.77346,10.46788,0
          123.77337,10.46782,0
          123.77332,10.46781,0
          123.77325,10.46781,0
          123.77309,10.46785,0
          123.77306,10.46787,0
          123.77299,10.4679,0
          123.77298,10.4679,0
          123.77294,10.46793,0
          123.77268,10.46806,0
          123.77258,10.46809,0
          123.77251,10.46812,0
          123.77244,10.46814,0
          123.77242,10.46815,0
          123.77233,10.46815,0
          123.77229,10.46814,0
          123.77227,10.46813,0
          123.77226,10.46813,0
          123.77217,10.46809,0
          123.77192,10.46805,0
          123.77072,10.46805,0
          123.77064,10.46806,0
          123.77059,10.46809,0
          123.77054,10.46811,0
          123.77045,10.46819,0
          123.77037,10.46831,0
          123.77002,10.46903,0
          123.76994,10.46927,0
          123.76992,10.4693,0
          123.76987,10.46959,0
          123.76984,10.4699,0
          123.76987,10.47051,0
          123.76985,10.47071,0
          123.76983,10.47076,0
          123.76981,10.47086,0
          123.76978,10.47094,0
          123.76963,10.47124,0
          123.76955,10.47133,0
          123.76944,10.47148,0
          123.76932,10.47162,0
          123.76922,10.47178,0
          123.7692,10.47184,0
          123.76918,10.47194,0
          123.76916,10.47199,0
          123.76917,10.47202,0
          123.76917,10.47212,0
          123.7692,10.47229,0
          123.76932,10.47268,0
          123.76936,10.47278,0
          123.76943,10.47329,0
          123.76941,10.47339,0
          123.7694,10.47341,0
          123.76938,10.47348,0
          123.76931,10.47356,0
          123.7693,10.47356,0
          123.76917,10.47365,0
          123.769,10.47373,0
          123.76899,10.47373,0
          123.76883,10.47383,0
          123.76871,10.47393,0
          123.76859,10.47407,0
          123.76858,10.47409,0
          123.76828,10.47443,0
          123.7682,10.4745,0
          123.76805,10.47455,0
          123.76798,10.47455,0
          123.76787,10.47452,0
          123.76786,10.47452,0
          123.76777,10.47447,0
          123.76771,10.47442,0
          123.7677,10.47442,0
          123.76766,10.47435,0
          123.76759,10.47428,0
          123.76746,10.47419,0
          123.76744,10.47419,0
          123.76737,10.47416,0
          123.7673,10.47414,0
          123.76723,10.47414,0
          123.76716,10.47415,0
          123.76711,10.47417,0
          123.76707,10.4742,0
          123.76701,10.47428,0
          123.767,10.47431,0
          123.767,10.47433,0
          123.76698,10.47438,0
          123.76699,10.47447,0
          123.76704,10.47468,0
          123.76706,10.47484,0
          123.76706,10.47492,0
          123.767,10.47503,0
          123.76686,10.47517,0
          123.76675,10.47523,0
          123.76674,10.47523,0
          123.76664,10.47526,0
          123.76653,10.47525,0
          123.76641,10.47527,0
          123.76631,10.47531,0
          123.7662,10.47539,0
          123.7661,10.4755,0
          123.76609,10.47553,0
          123.7659,10.4758,0
          123.76575,10.47594,0
          123.76559,10.47604,0
          123.76557,10.47606,0
          123.76527,10.4762,0
          123.76526,10.4762,0
          123.76508,10.47628,0
          123.76489,10.47634,0
          123.76474,10.47636,0
          123.76454,10.47636,0
          123.7642,10.47629,0
          123.76401,10.47627,0
          123.76391,10.47628,0
          123.7638,10.47632,0
          123.7637,10.47639,0
          123.76355,10.47654,0
          123.76347,10.4767,0
          123.76327,10.47719,0
          123.76312,10.47742,0
          123.76301,10.47754,0
          123.76279,10.4777,0
          123.76268,10.47776,0
          123.76253,10.47781,0
          123.7624,10.47784,0
          123.7619,10.47791,0
          123.76169,10.47797,0
          123.76136,10.47813,0
          123.76128,10.47818,0
          123.76051,10.47856,0
          123.76024,10.47871,0
          123.76023,10.47871,0
          123.76006,10.47876,0
          123.75988,10.47878,0
          123.75969,10.47876,0
          123.75957,10.47876,0
          123.75944,10.4788,0
          123.75934,10.47885,0
          123.75933,10.47885,0
          123.7592,10.47896,0
          123.75919,10.47896,0
          123.75889,10.47932,0
          123.75876,10.47953,0
          123.75857,10.47974,0
          123.75839,10.47982,0
          123.75832,10.47982,0
          123.75812,10.47984,0
          123.75796,10.47982,0
          123.75794,10.47981,0
          123.75763,10.47972,0
          123.75743,10.4797,0
          123.75729,10.4797,0
          123.757,10.47979,0
          123.7569,10.47984,0
          123.75635,10.4802,0
          123.7563,10.48025,0
          123.75621,10.48032,0
          123.75609,10.48049,0
          123.75597,10.48072,0
          123.75576,10.48136,0
          123.75576,10.48137,0
          123.7557,10.48152,0
          123.75568,10.48153,0
          123.75566,10.48156,0
          123.75555,10.48165,0
          123.75522,10.48181,0
          123.75503,10.48186,0
          123.75488,10.48187,0
          123.75484,10.48186,0
          123.75472,10.48185,0
          123.75449,10.48176,0
          123.75427,10.48165,0
          123.75411,10.48159,0
          123.75398,10.48157,0
          123.75384,10.48158,0
          123.7538,10.4816,0
          123.75365,10.48164,0
          123.75363,10.48166,0
          123.75356,10.4817,0
          123.75354,10.48173,0
          123.75351,10.48182,0
          123.75346,10.48192,0
          123.75343,10.48204,0
          123.7534,10.48224,0
          123.7534,10.48243,0
          123.75335,10.48302,0
          123.75334,10.48303,0
          123.75331,10.48321,0
          123.75324,10.48348,0
          123.75309,10.48377,0
          123.75303,10.48382,0
          123.75292,10.48389,0
          123.75282,10.48394,0
          123.7526,10.48397,0
          123.75248,10.48396,0
          123.75225,10.48397,0
          123.752,10.48393,0
          123.75144,10.48374,0
          123.75129,10.48372,0
          123.75094,10.4837,0
          123.75076,10.48367,0
          123.75052,10.4836,0
          123.75007,10.48344,0
          123.74984,10.48334,0
          123.7493,10.48305,0
          123.74918,10.48301,0
          123.74901,10.483,0
          123.74896,10.48301,0
          123.74878,10.48308,0
          123.7487,10.48309,0
          123.74857,10.48309,0
          123.74843,10.48306,0
          123.7483,10.48301,0
          123.74819,10.48295,0
          123.748,10.48281,0
          123.74793,10.48274,0
          123.74784,10.48269,0
          123.74774,10.48265,0
          123.74769,10.48265,0
          123.74762,10.48264,0
          123.7475,10.48264,0
          123.74744,10.48265,0
          123.74736,10.48268,0
          123.74723,10.48279,0
          123.74688,10.48322,0
          123.74685,10.48324,0
          123.74656,10.4835,0
          123.74636,10.48361,0
          123.74593,10.48381,0
          123.74576,10.48387,0
          123.74546,10.48402,0
          123.74504,10.48431,0
          123.74415,10.48515,0
          123.74306,10.486,0
          123.74277,10.48618,0
          123.74274,10.48621,0
          123.74212,10.48662,0
          123.74198,10.48674,0
          123.74188,10.48687,0
          123.74168,10.48717,0
          123.74136,10.48757,0
          123.74073,10.48826,0
          123.74059,10.48848,0
          123.74049,10.4887,0
          123.74038,10.48913,0
          123.74033,10.4895,0
          123.7403,10.49012,0
          123.74032,10.49055,0
          123.74048,10.49122,0
          123.74054,10.49139,0
          123.74054,10.49141,0
          123.74065,10.49173,0
          123.74067,10.49177,0
          123.74072,10.49195,0
          123.74074,10.49208,0
          123.74074,10.49212,0
          123.74076,10.49224,0
          123.74075,10.49226,0
          123.74073,10.49244,0
          123.74057,10.4931,0
          123.74055,10.49314,0
          123.74054,10.49318,0
          123.7405,10.49328,0
          123.74048,10.4933,0
          123.7404,10.49343,0
          123.74038,10.49345,0
          123.74027,10.49362,0
          123.74022,10.49372,0
          123.74011,10.4939,0
          123.74011,10.49392,0
          123.74009,10.49396,0
          123.74004,10.49425,0
          123.74001,10.4949,0
          123.73999,10.49499,0
          123.73999,10.49501,0
          123.73995,10.49512,0
          123.73931,10.49634,0
          123.73905,10.49676,0
          123.73894,10.497,0
          123.73882,10.49735,0
          123.73878,10.49744,0
          123.73873,10.49752,0
          123.73869,10.49755,0
          123.7386,10.49764,0
          123.73846,10.49775,0
          123.73812,10.49795,0
          123.73802,10.49802,0
          123.73792,10.49811,0
          123.73781,10.49823,0
          123.73763,10.49853,0
          123.73756,10.49871,0
          123.73752,10.49878,0
          123.73741,10.49921,0
          123.73733,10.49936,0
          123.7372,10.49969,0
          123.73714,10.49991,0
          123.73702,10.50016,0
          123.73684,10.50041,0
          123.73627,10.50112,0
          123.73615,10.50125,0
          123.73601,10.50136,0
          123.7358,10.50148,0
          123.73579,10.50149,0
          123.73573,10.50152,0
          123.73561,10.50161,0
          123.73552,10.5017,0
          123.73546,10.50178,0
          123.73542,10.50185,0
          123.73541,10.50186,0
          123.73536,10.50195,0
          123.73508,10.50234,0
          123.7349,10.50262,0
          123.7348,10.50282,0
          123.73478,10.50298,0
          123.73479,10.50359,0
          123.73466,10.50441,0
          123.73464,10.50448,0
          123.73461,10.50455,0
          123.73451,10.50467,0
          123.73448,10.50469,0
          123.73434,10.50475,0
          123.73409,10.50477,0
          123.7339,10.50481,0
          123.73384,10.50483,0
          123.73371,10.50489,0
          123.73351,10.50503,0
          123.73335,10.50516,0
          123.73311,10.50529,0
          123.73301,10.50531,0
          123.73283,10.50531,0
          123.73267,10.50529,0
          123.73259,10.50526,0
          123.73149,10.50464,0
          123.73124,10.50452,0
          123.73096,10.50442,0
          123.72979,10.5042,0
          123.7275,10.50385,0
          123.72567,10.50363,0
          123.71603,10.50275,0
          123.71598,10.50346,0
          123.71582,10.50439,0
          123.71535,10.50631,0
          123.71509,10.50762,0
          123.71484,10.50949,0
          123.71486,10.50979,0
          123.71504,10.51122,0
          123.71527,10.51219,0
          123.71527,10.51221,0
          123.71529,10.51231,0
          123.71554,10.51445,0
          123.71554,10.51456,0
          123.71562,10.51505,0
          123.71571,10.5153,0
          123.71595,10.51586,0
          123.71692,10.51789,0
          123.71705,10.51822,0
          123.71771,10.52039,0
          123.71788,10.52085,0
          123.71795,10.5211,0
          123.71803,10.52128,0
          123.71818,10.52155,0
          123.7183,10.52183,0
          123.71842,10.52206,0
          123.71883,10.5232,0
          123.71909,10.52422,0
          123.7192,10.52524,0
          123.71927,10.52715,0
          123.71926,10.52758,0
          123.71924,10.52778,0
          123.71919,10.52804,0
          123.71906,10.5285,0
          123.719,10.52899,0
          123.71899,10.52947,0
          123.71904,10.52989,0
          123.71951,10.53193,0
          123.71958,10.5325,0
          123.71959,10.53294,0
          123.71964,10.53354,0
          123.71964,10.53379,0
          123.71967,10.53394,0
          123.71968,10.53451,0
          123.71966,10.53466,0
          123.71936,10.53604,0
          123.71935,10.53612,0
          123.7192,10.53674,0
          123.71878,10.53801,0
          123.71861,10.53836,0
          123.71783,10.53979,0
          123.7157,10.54397,0
          123.71569,10.54398,0
          123.71562,10.54413,0
          123.71561,10.54414,0
          123.71505,10.54524,0
          123.71497,10.54544,0
          123.71494,10.54578,0
          123.71459,10.56029,0
          123.7146,10.56037,0
          123.7146,10.56043,0
          123.71553,10.56602,0
          123.71574,10.567,0
          123.71579,10.56709,0
          123.71587,10.56719,0
          123.71604,10.56732,0
          123.71636,10.56751,0
          123.717,10.56795,0
          123.71884,10.56906,0
          123.72073,10.57007,0
          123.72203,10.57065,0
          123.72258,10.57081,0
          123.72315,10.57089,0
          123.72372,10.57093,0
          123.72512,10.57092,0
          123.72564,10.57103,0
          123.72657,10.5713,0
          123.72673,10.57137,0
          123.72687,10.57146,0
          123.72693,10.57155,0
          123.72728,10.57219,0
          123.72728,10.5722,0
          123.7277,10.57299,0
          123.72798,10.57343,0
          123.72938,10.57469,0
          123.72998,10.57527,0
          123.73021,10.57552,0
          123.73041,10.57582,0
          123.73065,10.57633,0
          123.73072,10.57655,0
          123.73075,10.57668,0
          123.73082,10.57715,0
          123.73087,10.5778,0
          123.73089,10.57789,0
          123.7312,10.57846,0
          123.73129,10.57875,0
          123.73132,10.57898,0
          123.7313,10.58038,0
          123.73132,10.58046,0
          123.73134,10.58067,0
          123.73137,10.58075,0
          123.73139,10.58085,0
          123.73142,10.58094,0
          123.73155,10.58124,0
          123.73216,10.5824,0
          123.73253,10.58319,0
          123.73255,10.58327,0
          123.73275,10.58465,0
          123.7328,10.58485,0
          123.73285,10.58497,0
          123.73285,10.58498,0
          123.7342,10.58852,0
          123.73454,10.58989,0
          123.73475,10.59063,0
          123.73506,10.59147,0
          123.73559,10.59268,0
          123.73587,10.59316,0
          123.73619,10.59364,0
          123.73624,10.5937,0
          123.73777,10.59588,0
          123.73779,10.5959,0
          123.7378,10.59592,0
          123.73817,10.59642,0
          123.73876,10.59736,0
          123.73973,10.59875,0
          123.74061,10.6001,0
          123.74071,10.60028,0
          123.74119,10.60129,0
          123.7416,10.60206,0
          123.74162,10.60208,0
          123.74164,10.60211,0
          123.74184,10.60231,0
          123.74239,10.6028,0
          123.74242,10.60282,0
          123.74382,10.60403,0
          123.74401,10.60427,0
          123.74422,10.60465,0
          123.74432,10.60492,0
          123.7444,10.60521,0
          123.74442,10.6056,0
          123.74438,10.60639,0
          123.74436,10.60657,0
          123.74433,10.60789,0
          123.74435,10.60818,0
          123.74442,10.6085,0
          123.74449,10.60865,0
          123.74525,10.60998,0
          123.746,10.61152,0
          123.746,10.61154,0
          123.74678,10.61295,0
          123.74683,10.61302,0
          123.74691,10.61319,0
          123.74707,10.61365,0
          123.74738,10.61498,0
          123.74742,10.61524,0
          123.74756,10.61729,0
          123.74756,10.61751,0
          123.74753,10.61796,0
          123.74719,10.61974,0
          123.74719,10.61996,0
          123.74722,10.62032,0
          123.74749,10.62205,0
          123.74821,10.62454,0
          123.74831,10.62501,0
          123.74857,10.62657,0
          123.74882,10.62768,0
          123.74888,10.62777,0
          123.7491,10.62803,0
          123.74992,10.62877,0
          123.75076,10.62944,0
          123.75084,10.62947,0
          123.75097,10.62947,0
          123.75105,10.62945,0
          123.75115,10.62941,0
          123.75121,10.62937,0
          123.75127,10.62931,0
          123.75139,10.62911,0
          123.75159,10.62851,0
          123.75167,10.62816,0
          123.75176,10.62763,0
          123.75182,10.62748,0
          123.75184,10.62747,0
          123.75189,10.62739,0
          123.75192,10.62737,0
          123.75193,10.62737,0
          123.75202,10.62732,0
          123.75224,10.62723,0
          123.75226,10.62721,0
          123.75243,10.62714,0
          123.75268,10.62701,0
          123.753,10.62689,0
          123.75328,10.62686,0
          123.7533,10.62685,0
          123.75357,10.62683,0
          123.7538,10.62684,0
          123.75383,10.62685,0
          123.75393,10.62686,0
          123.75416,10.62693,0
          123.75551,10.62752,0
          123.75675,10.62813,0
          123.7573,10.62848,0
          123.75749,10.62854,0
          123.75761,10.62854,0
          123.75999,10.62827,0
          123.76001,10.62826,0
          123.76006,10.62825,0
          123.7601,10.62823,0
          123.76014,10.62822,0
          123.76018,10.62819,0
          123.76022,10.62817,0
          123.76029,10.62812,0
          123.76033,10.62808,0
          123.76036,10.62804,0
          123.76041,10.62801,0
          123.76047,10.62791,0
          123.76051,10.62786,0
          123.76064,10.62765,0
          123.76078,10.62751,0
          123.76128,10.62718,0
          123.76136,10.62711,0
          123.76143,10.62703,0
          123.76164,10.62674,0
          123.76178,10.62659,0
          123.762,10.62642,0
          123.76213,10.62635,0
          123.76223,10.62633,0
          123.76236,10.62633,0
          123.76243,10.62632,0
          123.76249,10.62632,0
          123.76251,10.62631,0
          123.76286,10.62627,0
          123.76327,10.62617,0
          123.76351,10.62607,0
          123.7639,10.62587,0
          123.76398,10.62582,0
          123.76402,10.62578,0
          123.7641,10.62562,0
          123.76411,10.62558,0
          123.76417,10.62545,0
          123.76425,10.62509,0
          123.76427,10.62488,0
          123.76428,10.62484,0
          123.76427,10.62466,0
          123.76403,10.62368,0
          123.76398,10.62326,0
          123.76398,10.62305,0
          123.76401,10.62273,0
          123.76419,10.6222,0
          123.76423,10.62202,0
          123.76431,10.62179,0
          123.76541,10.62127,0
          123.76576,10.62106,0
          123.76587,10.62101,0
          123.76596,10.62099,0
          123.76617,10.62099,0
          123.76624,10.621,0
          123.76647,10.62109,0
          123.76705,10.62145,0
          123.76722,10.62152,0
          123.76739,10.62153,0
          123.76807,10.62143,0
          123.76831,10.62141,0
          123.76842,10.62141,0
          123.76848,10.62142,0
          123.76854,10.62144,0
          123.7686,10.62147,0
          123.76861,10.62147,0
          123.76865,10.62149,0
          123.76914,10.62183,0
          123.76936,10.62195,0
          123.76987,10.62216,0
          123.76996,10.62221,0
          123.77022,10.62241,0
          123.77023,10.62241,0
          123.77043,10.62257,0
          123.77048,10.62262,0
          123.77052,10.62265,0
          123.7709,10.62318,0
          123.77122,10.6237,0
          123.77317,10.62647,0
          123.7732,10.62655,0
          123.77325,10.62674,0
          123.7733,10.62705,0
          123.77346,10.63377,0
          123.77348,10.63398,0
          123.77352,10.63414,0
          123.77353,10.63415,0
          123.77358,10.6343,0
          123.77358,10.63431,0
          123.77385,10.63496,0
          123.77385,10.63497,0
          123.77467,10.63705,0
          123.77496,10.63762,0
          123.77834,10.64243,0
          123.77887,10.64324,0
          123.78095,10.64623,0
          123.78109,10.6464,0
          123.78119,10.6465,0
          123.78934,10.65318,0
          123.79035,10.6541,0
          123.79127,10.65508,0
          123.79455,10.65879,0
          123.79466,10.65893,0
          123.79487,10.65934,0
          123.79522,10.66021,0
          123.79543,10.66059,0
          123.79565,10.66108,0
          123.79599,10.66196,0
          123.79672,10.6636,0
          123.79817,10.66832,0
          123.79835,10.66876,0
          123.80039,10.67282,0
          123.80105,10.67404,0
          123.80121,10.67442,0
          123.80157,10.67517,0
          123.80175,10.6755,0
          123.80188,10.67569,0
          123.80209,10.67589,0
          123.80242,10.67615,0
          123.80254,10.67622,0
          123.80271,10.6763,0
          123.80299,10.67634,0
          123.8058,10.67632,0
          123.80597,10.67633,0
          123.80605,10.67635,0
          123.8062,10.67643,0
          123.80634,10.67653,0
          123.80664,10.67684,0
          123.80697,10.67722,0
          123.80698,10.67724,0
          123.80701,10.67727,0
          123.80704,10.67732,0
          123.80705,10.67733,0
          123.8072,10.6776,0
          123.8073,10.67785,0
          123.80734,10.67805,0
          123.80735,10.67917,0
          123.80733,10.67945,0
          123.80743,10.6833,0
          123.80745,10.68348,0
          123.80756,10.68384,0
          123.80764,10.68402,0
          123.80783,10.68435,0
          123.80797,10.68456,0
          123.80817,10.68498,0
          123.80982,10.68896,0
          123.81186,10.69434,0
          123.8119,10.69459,0
          123.8119,10.69483,0
          123.81189,10.69487,0
          123.81188,10.69489,0
          123.81188,10.6949,0
          123.81186,10.69498,0
          123.81174,10.69522,0
          123.81174,10.69523,0
          123.81165,10.6954,0
          123.81162,10.69548,0
          123.81162,10.69552,0
          123.81161,10.69555,0
          123.81163,10.69617,0
          123.81162,10.69621,0
          123.81162,10.69642,0
          123.81163,10.69649,0
          123.81163,10.69655,0
          123.81165,10.69667,0
          123.81169,10.69724,0
          123.81169,10.6974,0
          123.81165,10.69761,0
          123.8115,10.69787,0
          123.8109,10.69875,0
          123.81088,10.69877,0
          123.8082,10.70262,0
          123.80766,10.70346,0
          123.80727,10.70399,0
          123.80638,10.70533,0
          123.80588,10.70616,0
          123.80583,10.70637,0
          123.80602,10.70665,0
          123.80634,10.70697,0
          123.80664,10.70731,0
          123.80729,10.70796,0
          123.80937,10.71016,0
          123.80949,10.71031,0
          123.81248,10.7135,0
          123.81269,10.7137,0
          123.81315,10.71426,0
          123.81321,10.71432,0
          123.81435,10.71587,0
          123.81469,10.71639,0
          123.81471,10.71643,0
          123.81561,10.71768,0
          123.8157,10.71778,0
          123.8159,10.71797,0
          123.81608,10.71811,0
          123.81744,10.71897,0
          123.81943,10.72034,0
          123.81947,10.72036,0
          123.82222,10.72222,0
          123.82234,10.72232,0
          123.82276,10.72277,0
          123.82295,10.72305,0
          123.82305,10.72326,0
          123.82305,10.72327,0
          123.82309,10.72337,0
          123.82319,10.72381,0
          123.82319,10.72384,0
          123.82325,10.72418,0
          123.82323,10.72451,0
          123.8232,10.72471,0
          123.8228,10.72627,0
          123.82279,10.72629,0
          123.82279,10.72635,0
          123.8228,10.72636,0
          123.82271,10.72661,0
          123.82222,10.72848,0
          123.82369,10.72874,0
          123.82387,10.72883,0
        </coordinates>
      </LineString>
    </Placemark>
    <Placemark>
      <name>Point 1</name>
      <styleUrl>#icon-ci-1-nodesc</styleUrl>
      <Point>
        <coordinates>
          123.9032577,10.3180607,0
        </coordinates>
      </Point>
    </Placemark>
    <Placemark>
      <name>Point 2</name>
      <styleUrl>#icon-ci-2-nodesc</styleUrl>
      <Point>
        <coordinates>
          123.7153504,10.5063142,0
        </coordinates>
      </Point>
    </Placemark>
    <Placemark>
      <name>Point 3</name>
      <styleUrl>#icon-ci-3-nodesc</styleUrl>
      <Point>
        <coordinates>
          123.8238705,10.7288336,0
        </coordinates>
      </Point>
    </Placemark>
  </Document>
</kml>
